SERVICIO GEOLOGICO COLOMBIANO- RED NACIONAL DE ACELEROGRAFOS DE COLOMBIA
SISMO DE QUETAME (CUNDINAMARCA) 2008/05/24 19:20:44 ML=5.7
LATITUD DEL EVENTO(GRADOS): 4.4
LONGITUD DEL EVENTO(GRADOS): -73.813
PROFUNDIDAD DEL EVENTO (Km): .3
CODIGO DE LA ESTACION: CBOG1
Estacion:BOGOTA, INGEOMINAS Geol:SUELO Topo:PLANA
LATITUD DE LA ESTACION (GRADOS): 4.641
LONGITUD DE LA ESTACION (GRADOS): -74.08
DISTANCIA EPICENTRAL: 39.925 km
DISTANCIA HIPOCENTRAL: 39.926 km
INTERVALO DE MUESTREO (SEGUNDOS): 0.005
NUMERO DE DATOS: 25800
DURACION (SEGUNDOS): 129
UNIDADES: cm/s^2
TIPO DE EQUIPO: K2
ESCALA MAXIMA (G): 2
CORRECCION DE LINEA BASE: LINEA BASE NO REMOVIDA
TIPO DE DATOS: NO CORREGIDO, (S)=ACELERACION EN SUELO, (R)=ACELERACION EN ROCA
        EW(S)               VER(S)               NS(S)               EW(R)               VER(R)               NS(R)
[...]
    -6.22081760          -2.30360000          -4.91809840         -91.27044640         -69.54765280        -147.34792720
    -6.24561280          -2.05278400          -4.77600080         -91.32719040         -69.52905680        -147.25160560
    -6.29711120          -1.85775760          -4.59861760         -91.38202640         -69.47755840        -147.13001280
    -6.37197520          -1.76096000          -4.37021280         -91.43734000         -69.44227200        -147.03083040
    -6.29186640          -1.71136880          -4.19950480         -91.48693120         -69.42606000        -146.97313280
    -6.26707040          -1.68514240          -4.06217600         -91.53938320         -69.42606000        -146.89826960
    -6.32619840          -1.65891680          -3.85999680         -91.56990080         -69.46039200        -146.83961840
    -6.19268400          -1.66130080          -3.74460240         -91.60661680         -69.50330720        -146.79574960
    -6.12878800          -1.72376640          -3.69644160         -91.63904160         -69.55194480        -146.76761600
    -6.14547760          -1.68895760          -3.56292720         -91.65000880         -69.62251680        -146.73090000
    -6.02817520          -1.63555120          -3.50999840         -91.66955920         -69.69928720        -146.66414240
    -5.97667680          -1.61600080          -3.46517600         -91.70198480         -69.73981840        -146.61932000
    -5.93090080          -1.49536160          -3.35121120         -91.71628960         -69.76079920        -146.56162240
    -5.78403440          -1.41429920          -3.31974000         -91.71152080         -69.77701200        -146.51727680
    -5.70344960          -1.35612480          -3.23724720         -91.71295200         -69.75555440        -146.45242720
    -5.63478480          -1.24311440          -3.11565360         -91.73584000         -69.73791120        -146.37422560
    -5.44977200          -1.21259680          -3.06797040         -91.72439600         -69.70024080        -146.31128320
    -5.25140800          -1.23453120          -2.96020480         -91.71295200         -69.66829280        -146.25692400
    -5.08070000          -1.31988560          -2.83432000         -91.71104400         -69.64016000        -146.18110640
    -4.82177760          -1.49059280          -2.76088720         -91.69292480         -69.61536400        -146.10815040
    -4.52280080          -1.69181840          -2.61354480         -91.68624880         -69.60678080        -146.08240160
    -4.27150720          -1.92785280          -2.38513920         -91.67146720         -69.55718960        -146.02708800
    -3.94773520          -2.08663920          -2.15005840         -91.66431440         -69.54765280        -146.01326000
    -3.60536560          -2.16960880          -1.85442000         -91.62616720         -69.50187680        -146.00324640
    -3.34739680          -2.17199360          -1.43528000         -91.60661680         -69.46945200        -146.00324640
    -3.00645840          -2.00843840          -0.97990000         -91.59564960         -69.47660480        -146.03757840
    -2.71081920          -1.81674960          -0.50640080         -91.55845680         -69.42749040        -146.04759200
    -2.50911680          -1.58357600           0.09489040         -91.55893360         -69.44990160        -146.09336880
    -2.21109360          -1.30891760           0.67615520         -91.54462800         -69.49663200        -146.15154240
    -2.00414640          -1.11198400           1.20306000         -91.50838880         -69.50569120        -146.20161040
    -1.86157200          -0.97608560           1.84202160         -91.47739440         -69.54574560        -146.24691040
    -1.62696800          -0.96178080           2.39562960         -91.45307520         -69.60487360        -146.31652800
    -1.45387680          -0.99611280           2.88105040         -91.41588240         -69.64635840        -146.38090160
    -1.32131600          -1.04284320           3.47137440         -91.35532400         -69.68116800        -146.42572400
    -1.11436880          -1.17301920           4.01067760         -91.31383920         -69.72551360        -146.49295840
    -0.89645360          -1.26552560           4.52470800         -91.29238160         -69.77176640        -146.55637760
    -0.72050080          -1.30891760           5.12409200         -91.23849840         -69.80371440        -146.59500160
    -0.45871760          -1.31559360           5.78212720         -91.20607360         -69.85044480        -146.65412880
    -0.15354160          -1.27744640           6.42061200         -91.19462960         -69.88239280        -146.70181280
     0.04720720          -1.18207920           7.11727120         -91.17698640         -69.92244720        -146.73566800
     0.35476720          -1.00135840           7.88784000         -91.18986160         -69.97966800        -146.81482320
     0.72097760          -0.87356560           8.56924080         -91.18747680         -69.98109840        -146.85726160
     0.93793840          -0.78439680           9.33218000         -91.21227280         -70.01686080        -146.93117120
     1.25122080          -0.73432960          10.11991520         -91.23182320         -70.02401360        -147.02892320
     1.59788160          -0.85544560          10.76841360         -91.25804880         -70.00446320        -147.09854160
     1.77097360          -1.01280240          11.51990880         -91.29714960         -70.00637040        -147.20010720
     2.00080880          -1.15680720          12.27045040         -91.30716320         -69.97299200        -147.28927600
     2.30169280          -1.35135680          12.95757280         -91.36056880         -69.94724240        -147.38702800
     2.48432160          -1.48534800          13.79919040         -91.38488800         -69.88620720        -147.49145520
     2.67553360          -1.59025200          14.62602640         -91.40300720         -69.81563600        -147.57013360
     2.98404720          -1.67083760          15.40088640         -91.41540560         -69.74649440        -147.63546000
     3.20243840          -1.67751280          16.27874400         -91.41683600         -69.69690320        -147.72558240
     3.37839120          -1.70135520          17.14801760         -91.41540560         -69.64683520        -147.78327920
     3.69072000          -1.69754000          17.98057520         -91.36819840         -69.58675360        -147.80616800
     3.92866160          -1.69467920          18.83506800         -91.35055520         -69.58961520        -147.87149440
     4.10079920          -1.74284000          19.67906960         -91.29142800         -69.56243520        -147.89867440
     4.36496720          -1.80816640          20.43342560         -91.19033840         -69.53764000        -147.89247520
     4.54330480          -1.92213040          21.19159680         -91.10260000         -69.54431520        -147.90439600
     4.69398480          -2.02894240          22.00508080         -90.99054320         -69.53907040        -147.90344240
     4.90284000          -2.18343760          22.69172640         -90.87514880         -69.51808960        -147.86005040
     5.00869760          -2.41088880          23.39839920         -90.77835120         -69.48184960        -147.81188960
     5.12933760          -2.59876240          24.17945840         -90.70253360         -69.46611440        -147.78709440
     5.29146160          -2.78472880          24.83510960         -90.63720720         -69.42272160        -147.74704000
     5.41639360          -2.99453760          25.52318560         -90.58475520         -69.35310400        -147.69792560
     5.56230560          -3.23486320          26.27086640         -90.56758880         -69.31352640        -147.66550080
     5.73921200          -3.49378560          26.89981440         -90.56854240         -69.27442560        -147.64356640
     5.96857040          -3.68833520          27.51541120         -90.57235680         -69.23389440        -147.62735360
     6.15835200          -3.90052800          28.14006800         -90.59762960         -69.20671440        -147.63164560
     6.35862320          -4.11939600          28.67221840         -90.63673040         -69.17858160        -147.64022800
     6.62899040          -4.27913680          29.15382400         -90.68155280         -69.14281840        -147.62258560
     6.81734080          -4.49609760          29.65545680         -90.72017680         -69.10944000        -147.61495600
     7.00712240          -4.69732320          30.14469120         -90.77978160         -69.13137440        -147.64976480
     7.19308880          -4.86946080          30.50851840         -90.82031280         -69.10800960        -147.63546000
     7.27510480          -5.06162640          30.89570960         -90.84606160         -69.07367680        -147.62687680
     7.34519920          -5.18178960          31.33344640         -90.90471280         -69.11039360        -147.67503760
     7.36951840          -5.33628480          31.66675600         -90.92712400         -69.07749200        -147.67837520
     7.34186160          -5.55276880          32.01961520         -90.93570720         -69.05031200        -147.69124960
     7.25936880          -5.75923920          32.38248800         -90.94810480         -69.04554400        -147.73845680
     7.12633120          -6.00910160          32.69386320         -90.95287360         -69.01884080        -147.76706720
     7.06243520          -6.29377360          33.00333040         -90.95573440         -68.99452240        -147.79520000
     6.90507920          -6.56080240          33.31661200         -90.95716480         -68.94493120        -147.83144000
     6.68859520          -6.76155120          33.59937680         -90.96002560         -68.92538080        -147.86481840
     6.61230080          -6.88838960          33.80775440         -90.95954880         -68.89724720        -147.89724320
     6.44683840          -6.94704080          34.04855760         -90.95239600         -68.85194800        -147.90391920
     6.30331040          -6.91986080          34.28220720         -90.95764160         -68.86720640        -147.93491360
     6.28995920          -6.88457520          34.41286080         -90.96860880         -68.86148480        -147.93872800
     6.14356960          -6.86883920          34.57593920         -90.96193280         -68.84765600        -147.88484560
     6.07395200          -6.88219040          34.73758720         -90.98672880         -68.89486320        -147.89533600
     6.11257520          -7.01761280          34.83486160         -90.99674240         -68.89057120        -147.85623520
     6.07585920          -7.17782960          34.95979280         -90.99578880         -68.88198880        -147.77708080
     6.10065440          -7.33375520          35.08901600         -91.03059760         -68.90678400        -147.72987360
     6.17313360          -7.55977600          35.18772160         -91.05634720         -68.91155280        -147.65119520
     6.27994560          -7.75814080          35.26639920         -91.07971200         -68.93682480        -147.57156400
     6.44779200          -7.97224080          35.31932800         -91.09830880         -68.94874560        -147.48048800
     6.68144240          -8.19873840          35.37082640         -91.11976640         -68.98498560        -147.40943920
     6.93273520          -8.40187040          35.39705280         -91.12978000         -69.03505360        -147.33934400
     7.12251680          -8.68558880          35.41994080         -91.10784560         -69.05412640        -147.24159280
     7.38668480          -8.96120080          35.49242000         -91.10116960         -69.09322720        -147.20439920
     7.61508960          -9.20248000          35.52627600         -91.08304960         -69.11563840        -147.17578880
     7.70092000          -9.44852800          35.56108480         -91.03727360         -69.12660560        -147.14241040
     7.84397120          -9.63211040          35.66932640         -91.01295440         -69.13757360        -147.15194720
     7.88211840          -9.75847280          35.81666960         -90.99102000         -69.14949440        -147.18151120
     7.83109680          -9.81140160          35.99691360         -90.95907200         -69.17142880        -147.24111520
     7.89928400          -9.85574720          36.16809840         -90.94476720         -69.16666000        -147.29452160
     7.87067440          -9.91153680          36.34786640         -90.94333680         -69.19050240        -147.36890800
     7.81917600          -9.88578800          36.52048080         -90.95525760         -69.24438480        -147.47524240
     7.83109680          -9.89675520          36.67211520         -90.97433120         -69.26774960        -147.55153680
     7.81631440          -9.94300880          36.85569760         -91.02296800         -69.30446640        -147.63164560
     7.87401200          -9.95779040          36.94057440         -91.08686480         -69.35119600        -147.72033680
     7.93743120         -10.05268080          36.93199120         -91.12882640         -69.37265360        -147.77565040
     8.01420240         -10.16998320          36.96775440         -91.19462960         -69.40364800        -147.81999600
     8.09097280         -10.29300720          36.92722320         -91.27140080         -69.44417920        -147.87244800
     8.13865680         -10.42699840          36.83900800         -91.33863440         -69.48661840        -147.90630320
     8.22830240         -10.52427280          36.75222400         -91.39823920         -69.51236720        -147.91679360
     8.24928320         -10.61105760          36.61870960         -91.46785760         -69.51379760        -147.93014560
     8.24928320         -10.61439520          36.55147520         -91.55559520         -69.53811680        -147.95780160
     8.26549520         -10.62679280          36.47089040         -91.61138560         -69.54479200        -147.95494080
     8.23831520         -10.71023920          36.40174880         -91.68910960         -69.53477840        -147.94302000
     8.24737520         -10.76793680          36.36264800         -91.78972240         -69.56529600        -147.95875520
     8.23020960         -10.91098800          36.25822080         -91.85791040         -69.56624960        -147.94111280
     8.22877920         -11.12174960          36.19766240         -91.93038960         -69.55289840        -147.92203920
     8.31460960         -11.34395600          36.03887520         -92.00334560         -69.55671280        -147.90725680
     8.33797440         -11.56997680          35.79092000         -92.06485760         -69.56005120        -147.87960080
     8.42094400         -11.73400880          35.57729760         -92.09871280         -69.58055520        -147.86767920
     8.56351840         -11.96289040          35.18390640         -92.10109680         -69.57864800        -147.82476400
     8.66174720         -12.11881600          34.74140160         -92.11635600         -69.63300720        -147.83668480
     8.83770000         -12.12501520          34.34610400         -92.07582480         -69.64969600        -147.81045920
     9.01031520         -12.22991920          33.85686880         -92.02051200         -69.65923280        -147.77088160
     9.14144480         -12.29429280          33.40244320         -91.99953040         -69.76175280        -147.83477760
     9.20152640         -12.28809360          32.97662720         -91.88556640         -69.75841520        -147.79281600
     9.23204400         -12.35866560          32.55653360         -91.80736560         -69.82326480        -147.79663120
     9.31310640         -12.42780720          32.20987280         -91.76301920         -69.91052640        -147.83477760
     9.27591360         -12.52412800          31.87656400         -91.66765200         -69.94104400        -147.80426000
     9.22203040         -12.65811920          31.61239600         -91.61615360         -70.03116640        -147.82619440
     9.22060000         -12.81023040          31.37397760         -91.56179440         -70.05500800        -147.80759840
     9.14049120         -12.97092400          31.11028640         -91.53842960         -70.10889040        -147.79329280
     9.12475600         -13.05532480          30.90620080         -91.51935600         -70.13654720        -147.77755760
     9.18149920         -13.12398880          30.64394000         -91.51649440         -70.13559360        -147.77374240
     9.22346080         -13.16404320          30.34353280         -91.56751600         -70.16611120        -147.79806160
     9.31644400         -13.13114160          30.06887440         -91.56274800         -70.10364560        -147.76802080
     9.46426400         -13.13447920          29.72030640         -91.60137200         -70.08504880        -147.79281600
     9.65118400         -13.12160480          29.33931360         -91.67480480         -70.10936720        -147.85194400
     9.81473920         -13.13257200          28.91159040         -91.68481840         -70.07026640        -147.85766640
     9.96732720         -13.21125040          28.49435840         -91.72344240         -70.04451760        -147.89628960
    10.16044640         -13.21649520          28.11574960         -91.78972240         -70.03641120        -147.95160320
    10.31398800         -13.26513280          27.65274080         -91.81308720         -70.00207920        -147.98164400
    10.39934160         -13.35668560          27.28462240         -91.82930000         -69.95773280        -148.03504960
    10.47372800         -13.38386560          26.96275680         -91.85743360         -69.90575760        -148.07653440
    10.57338720         -13.44347040          26.55792240         -91.86840080         -69.85855120        -148.12850960
    10.58673840         -13.48447760          26.24654800         -91.86410880         -69.81468240        -148.18334560
    10.52618000         -13.51928720          25.94327920         -91.83788320         -69.75126240        -148.21672400
    10.54620720         -13.60893280          25.57802240         -91.81451760         -69.74124880        -148.29921760
    10.52665680         -13.73910880          25.23517600         -91.75968160         -69.72837440        -148.36168320
    10.43176640         -13.97609680          24.88660800         -91.69054000         -69.72026800        -148.40841280
    10.37740720         -14.23502000          24.51086080         -91.64333360         -69.80037680        -148.49615120
    10.21146800         -14.42909280          24.20806880         -91.56179440         -69.85712080        -148.56004720
    10.09464240         -14.65559040          23.89144880         -91.50075920         -69.91910960        -148.57339840
    10.10608640         -14.87731920          23.45562000         -91.45021440         -70.01161600        -148.61965200
