SERVICIO GEOLOGICO COLOMBIANO- RED NACIONAL DE ACELEROGRAFOS DE COLOMBIA
SISMO DE PAEZ (CAUCA) 1994/06/06 20:47:39 ML=6.4
LATITUD DEL EVENTO(GRADOS): 2.85
LONGITUD DEL EVENTO(GRADOS): -76.07
PROFUNDIDAD DEL EVENTO (Km): 1
CODIGO DE LA ESTACION: CVHER
Estacion:VILLAHERMOSA Geol:ROCA Topo:ONDULADA
LATITUD DE LA ESTACION (GRADOS): 5.032
LONGITUD DE LA ESTACION (GRADOS): -75.12
DISTANCIA EPICENTRAL: 264.161903582 km
DISTANCIA HIPOCENTRAL: 264.163796354 km
INTERVALO DE MUESTREO (SEGUNDOS): 0.005
NUMERO DE DATOS: 3328
DURACION (SEGUNDOS): 16.64
UNIDADES: cm/s^2
TIPO DE EQUIPO: SSA
ESCALA MAXIMA (G): 2
CORRECCION DE LINEA BASE: LINEA BASE NO REMOVIDA
TIPO DE DATOS: NO CORREGIDO
         EW                  VER                  NS
[...]
   -24.41406240           0.00000000          19.53124960
   -24.41406240           0.00000000          18.55468720
   -23.43750000           0.97656240          18.55468720
   -22.46093760           0.97656240          18.55468720
   -22.46093760           1.95312480          18.55468720
   -22.46093760           1.95312480          18.55468720
   -21.48437520           1.95312480          19.53124960
   -21.48437520           1.95312480          20.50781280
   -21.48437520           1.95312480          20.50781280
   -21.48437520           1.95312480          21.48437520
   -21.48437520           1.95312480          22.46093760
   -21.48437520           1.95312480          22.46093760
   -21.48437520           1.95312480          22.46093760
   -20.50781280           1.95312480          22.46093760
   -20.50781280           0.97656240          22.46093760
   -20.50781280           0.97656240          23.43750000
   -20.50781280           0.97656240          23.43750000
   -20.50781280           0.97656240          23.43750000
   -19.53124960           0.97656240          24.41406240
   -19.53124960           0.97656240          24.41406240
   -19.53124960           0.97656240          24.41406240
   -18.55468720           0.97656240          24.41406240
   -18.55468720           0.00000000          24.41406240
   -18.55468720           0.00000000          24.41406240
   -18.55468720          -0.97656240          24.41406240
   -17.57812480          -0.97656240          23.43750000
   -17.57812480          -0.97656240          22.46093760
   -18.55468720          -1.95312480          22.46093760
   -17.57812480          -1.95312480          22.46093760
   -17.57812480          -1.95312480          23.43750000
   -17.57812480          -1.95312480          22.46093760
   -17.57812480          -1.95312480          23.43750000
   -17.57812480          -1.95312480          23.43750000
   -17.57812480          -1.95312480          24.41406240
   -17.57812480          -1.95312480          24.41406240
   -16.60156240          -0.97656240          24.41406240
   -17.57812480          -0.97656240          24.41406240
   -17.57812480          -0.97656240          24.41406240
   -16.60156240          -0.97656240          24.41406240
   -16.60156240          -0.97656240          25.39062480
   -16.60156240          -0.97656240          25.39062480
   -16.60156240          -0.97656240          25.39062480
   -17.57812480          -0.97656240          25.39062480
   -16.60156240          -0.97656240          25.39062480
   -16.60156240          -0.97656240          26.36718720
   -16.60156240           0.00000000          26.36718720
   -16.60156240           0.00000000          26.36718720
   -16.60156240           0.00000000          26.36718720
   -17.57812480           0.97656240          27.34375040
   -17.57812480           0.97656240          27.34375040
   -18.55468720           0.97656240          27.34375040
   -18.55468720           0.97656240          27.34375040
   -18.55468720           1.95312480          27.34375040
   -18.55468720           1.95312480          27.34375040
   -18.55468720           2.92968720          26.36718720
   -17.57812480           2.92968720          26.36718720
   -17.57812480           2.92968720          26.36718720
   -17.57812480           2.92968720          25.39062480
   -16.60156240           2.92968720          26.36718720
   -16.60156240           2.92968720          25.39062480
   -16.60156240           2.92968720          26.36718720
   -16.60156240           1.95312480          26.36718720
   -17.57812480           1.95312480          26.36718720
   -17.57812480           1.95312480          26.36718720
   -17.57812480           1.95312480          26.36718720
   -17.57812480           0.97656240          26.36718720
   -17.57812480           0.97656240          26.36718720
   -17.57812480           0.97656240          26.36718720
   -17.57812480           0.00000000          26.36718720
   -18.55468720          -0.97656240          26.36718720
   -18.55468720          -0.97656240          26.36718720
   -18.55468720          -1.95312480          26.36718720
   -18.55468720          -1.95312480          26.36718720
   -19.53124960          -2.92968720          25.39062480
   -19.53124960          -2.92968720          25.39062480
   -19.53124960          -3.90624960          25.39062480
   -19.53124960          -3.90624960          24.41406240
   -19.53124960          -4.88281280          24.41406240
   -19.53124960          -4.88281280          24.41406240
   -19.53124960          -5.85937520          23.43750000
   -19.53124960          -6.83593760          23.43750000
   -19.53124960          -6.83593760          22.46093760
   -19.53124960          -6.83593760          22.46093760
   -19.53124960          -6.83593760          22.46093760
   -19.53124960          -6.83593760          22.46093760
   -19.53124960          -5.85937520          22.46093760
   -19.53124960          -5.85937520          22.46093760
   -19.53124960          -5.85937520          23.43750000
   -19.53124960          -5.85937520          23.43750000
   -18.55468720          -4.88281280          23.43750000
   -19.53124960          -4.88281280          23.43750000
   -18.55468720          -4.88281280          23.43750000
   -18.55468720          -4.88281280          23.43750000
   -18.55468720          -3.90624960          22.46093760
   -17.57812480          -3.90624960          22.46093760
   -17.57812480          -2.92968720          22.46093760
   -16.60156240          -2.92968720          21.48437520
   -16.60156240          -1.95312480          21.48437520
   -15.62500000          -0.97656240          21.48437520
   -16.60156240           0.00000000          21.48437520
   -15.62500000           0.97656240          21.48437520
   -16.60156240           0.97656240          21.48437520
   -16.60156240           2.92968720          21.48437520
   -16.60156240           2.92968720          21.48437520
   -16.60156240           3.90624960          22.46093760
   -17.57812480           4.88281280          22.46093760
   -17.57812480           4.88281280          23.43750000
   -17.57812480           4.88281280          24.41406240
   -17.57812480           4.88281280          24.41406240
   -18.55468720           4.88281280          25.39062480
   -18.55468720           4.88281280          25.39062480
   -18.55468720           3.90624960          26.36718720
   -18.55468720           3.90624960          26.36718720
   -18.55468720           3.90624960          27.34375040
   -18.55468720           3.90624960          27.34375040
   -19.53124960           2.92968720          27.34375040
   -19.53124960           2.92968720          27.34375040
   -19.53124960           2.92968720          27.34375040
   -18.55468720           1.95312480          26.36718720
   -18.55468720           0.97656240          26.36718720
   -18.55468720           0.97656240          26.36718720
   -18.55468720           0.00000000          25.39062480
   -18.55468720          -0.97656240          25.39062480
   -17.57812480          -1.95312480          24.41406240
   -17.57812480          -1.95312480          24.41406240
   -17.57812480          -2.92968720          24.41406240
   -17.57812480          -3.90624960          24.41406240
   -17.57812480          -3.90624960          24.41406240
   -17.57812480          -4.88281280          24.41406240
   -18.55468720          -5.85937520          24.41406240
   -18.55468720          -5.85937520          24.41406240
   -18.55468720          -6.83593760          23.43750000
   -18.55468720          -6.83593760          23.43750000
   -18.55468720          -7.81250000          23.43750000
   -17.57812480          -7.81250000          22.46093760
   -17.57812480          -7.81250000          22.46093760
   -17.57812480          -7.81250000          22.46093760
   -16.60156240          -7.81250000          22.46093760
   -16.60156240          -6.83593760          22.46093760
   -15.62500000          -6.83593760          22.46093760
   -15.62500000          -5.85937520          23.43750000
   -15.62500000          -5.85937520          23.43750000
   -15.62500000          -4.88281280          23.43750000
   -15.62500000          -4.88281280          23.43750000
   -15.62500000          -3.90624960          23.43750000
   -15.62500000          -3.90624960          23.43750000
   -15.62500000          -3.90624960          22.46093760
   -15.62500000          -3.90624960          22.46093760
   -14.64843760          -2.92968720          22.46093760
   -14.64843760          -2.92968720          22.46093760
   -14.64843760          -1.95312480          22.46093760
   -14.64843760          -0.97656240          22.46093760
   -14.64843760           0.00000000          23.43750000
   -15.62500000           0.00000000          24.41406240
   -15.62500000           0.97656240          24.41406240
   -15.62500000           1.95312480          25.39062480
   -16.60156240           1.95312480          25.39062480
   -16.60156240           1.95312480          25.39062480
   -16.60156240           2.92968720          25.39062480
   -16.60156240           1.95312480          25.39062480
   -16.60156240           1.95312480          24.41406240
   -17.57812480           1.95312480          24.41406240
   -16.60156240           1.95312480          24.41406240
   -16.60156240           1.95312480          24.41406240
   -17.57812480           0.97656240          24.41406240
   -17.57812480           0.97656240          25.39062480
   -17.57812480           0.97656240          24.41406240
   -17.57812480           0.00000000          25.39062480
   -18.55468720          -0.97656240          25.39062480
   -18.55468720          -0.97656240          25.39062480
   -18.55468720          -1.95312480          24.41406240
   -18.55468720          -2.92968720          24.41406240
   -18.55468720          -3.90624960          24.41406240
   -18.55468720          -3.90624960          23.43750000
   -18.55468720          -3.90624960          23.43750000
   -18.55468720          -3.90624960          23.43750000
   -18.55468720          -3.90624960          23.43750000
   -18.55468720          -4.88281280          23.43750000
   -18.55468720          -4.88281280          24.41406240
   -18.55468720          -4.88281280          24.41406240
   -18.55468720          -4.88281280          24.41406240
   -18.55468720          -5.85937520          24.41406240
   -18.55468720          -5.85937520          25.39062480
   -18.55468720          -5.85937520          25.39062480
   -18.55468720          -5.85937520          25.39062480
   -18.55468720          -6.83593760          25.39062480
   -18.55468720          -6.83593760          25.39062480
   -18.55468720          -6.83593760          26.36718720
   -18.55468720          -6.83593760          25.39062480
   -18.55468720          -6.83593760          25.39062480
   -18.55468720          -6.83593760          24.41406240
   -18.55468720          -6.83593760          24.41406240
   -18.55468720          -5.85937520          24.41406240
   -18.55468720          -4.88281280          24.41406240
   -18.55468720          -4.88281280          24.41406240
   -18.55468720          -3.90624960          24.41406240
   -18.55468720          -2.92968720          24.41406240
   -17.57812480          -1.95312480          24.41406240
   -17.57812480          -0.97656240          24.41406240
   -17.57812480          -0.97656240          24.41406240
   -16.60156240           0.00000000          24.41406240
   -16.60156240           0.00000000          24.41406240
   -15.62500000           0.97656240          24.41406240
   -15.62500000           0.97656240          23.43750000
   -15.62500000           1.95312480          23.43750000
   -14.64843760           1.95312480          23.43750000
   -14.64843760           1.95312480          23.43750000
   -14.64843760           2.92968720          23.43750000
   -14.64843760           2.92968720          23.43750000
   -14.64843760           3.90624960          24.41406240
   -14.64843760           3.90624960          24.41406240
   -14.64843760           3.90624960          24.41406240
   -14.64843760           3.90624960          24.41406240
   -15.62500000           3.90624960          25.39062480
   -15.62500000           2.92968720          24.41406240
   -16.60156240           2.92968720          25.39062480
   -17.57812480           1.95312480          25.39062480
   -17.57812480           0.97656240          24.41406240
   -18.55468720           0.97656240          25.39062480
   -18.55468720           0.00000000          24.41406240
   -18.55468720          -0.97656240          24.41406240
   -19.53124960          -1.95312480          24.41406240
   -19.53124960          -2.92968720          24.41406240
   -19.53124960          -3.90624960          23.43750000
   -19.53124960          -3.90624960          23.43750000
   -20.50781280          -4.88281280          23.43750000
   -20.50781280          -5.85937520          22.46093760
   -20.50781280          -5.85937520          22.46093760
   -21.48437520          -6.83593760          22.46093760
   -21.48437520          -6.83593760          22.46093760
   -21.48437520          -7.81250000          22.46093760
   -22.46093760          -7.81250000          22.46093760
   -22.46093760          -8.78906240          22.46093760
   -22.46093760          -8.78906240          22.46093760
   -22.46093760          -8.78906240          22.46093760
   -22.46093760          -7.81250000          21.48437520
   -22.46093760          -8.78906240          21.48437520
   -22.46093760          -7.81250000          21.48437520
   -22.46093760          -7.81250000          20.50781280
   -22.46093760          -6.83593760          20.50781280
   -22.46093760          -5.85937520          20.50781280
   -22.46093760          -5.85937520          21.48437520
   -22.46093760          -3.90624960          21.48437520
   -22.46093760          -2.92968720          21.48437520
   -22.46093760          -2.92968720          22.46093760
   -22.46093760          -1.95312480          22.46093760
   -22.46093760          -0.97656240          22.46093760
   -22.46093760           0.00000000          22.46093760
   -22.46093760           0.97656240          22.46093760
   -22.46093760           1.95312480          22.46093760
   -22.46093760           2.92968720          22.46093760
   -22.46093760           3.90624960          22.46093760
   -22.46093760           4.88281280          23.43750000
   -22.46093760           4.88281280          23.43750000
   -23.43750000           5.85937520          24.41406240
   -23.43750000           5.85937520          24.41406240
   -23.43750000           6.83593760          24.41406240
   -24.41406240           6.83593760          24.41406240
   -23.43750000           6.83593760          25.39062480
   -23.43750000           6.83593760          25.39062480
   -23.43750000           5.85937520          25.39062480
   -23.43750000           5.85937520          26.36718720
   -22.46093760           4.88281280          26.36718720
   -22.46093760           4.88281280          25.39062480
   -22.46093760           3.90624960          25.39062480
   -22.46093760           2.92968720          24.41406240
   -22.46093760           1.95312480          24.41406240
   -21.48437520           0.97656240          24.41406240
   -20.50781280           0.97656240          24.41406240
   -20.50781280           0.00000000          23.43750000
   -19.53124960           0.00000000          23.43750000
   -19.53124960          -0.97656240          23.43750000
   -19.53124960          -0.97656240          24.41406240
   -19.53124960          -0.97656240          24.41406240
   -19.53124960          -1.95312480          24.41406240
   -19.53124960          -1.95312480          24.41406240
   -18.55468720          -2.92968720          24.41406240
   -18.55468720          -2.92968720          24.41406240
   -18.55468720          -3.90624960          24.41406240
   -18.55468720          -4.88281280          24.41406240
   -18.55468720          -4.88281280          24.41406240
   -18.55468720          -5.85937520          24.41406240
   -17.57812480          -5.85937520          24.41406240
   -17.57812480          -5.85937520          24.41406240
   -17.57812480          -5.85937520          24.41406240
   -17.57812480          -5.85937520          25.39062480
   -17.57812480          -5.85937520          25.39062480
   -17.57812480          -5.85937520          25.39062480
   -17.57812480          -5.85937520          25.39062480
   -18.55468720          -4.88281280          24.41406240
   -17.57812480          -4.88281280          24.41406240
   -17.57812480          -3.90624960          23.43750000
   -16.60156240          -2.92968720          23.43750000
   -16.60156240          -1.95312480          23.43750000
   -15.62500000          -0.97656240          22.46093760
   -15.62500000           0.00000000          22.46093760
   -14.64843760           0.00000000          21.48437520
   -14.64843760           0.97656240          21.48437520
   -13.67187520           1.95312480          21.48437520
   -13.67187520           2.92968720          21.48437520
   -12.69531280           3.90624960          21.48437520
   -12.69531280           4.88281280          21.48437520
   -12.69531280           4.88281280          22.46093760
   -12.69531280           5.85937520          22.46093760
   -13.67187520           6.83593760          23.43750000
   -13.67187520           6.83593760          24.41406240
   -14.64843760           6.83593760          25.39062480
   -14.64843760           6.83593760          26.36718720
   -15.62500000           6.83593760          27.34375040
   -16.60156240           6.83593760          28.32031280
   -17.57812480           5.85937520          28.32031280
   -18.55468720           4.88281280          28.32031280
   -18.55468720           4.88281280          29.29687520
   -19.53124960           3.90624960          28.32031280
   -18.55468720           2.92968720          28.32031280
   -19.53124960           1.95312480          27.34375040
   -18.55468720           0.97656240          27.34375040
   -18.55468720           0.00000000          26.36718720
   -17.57812480           0.00000000          26.36718720
   -17.57812480           0.00000000          26.36718720
   -17.57812480          -0.97656240          25.39062480
   -16.60156240          -0.97656240          24.41406240
   -15.62500000          -0.97656240          24.41406240
   -15.62500000           0.00000000          24.41406240
   -15.62500000           0.00000000          24.41406240
   -15.62500000           0.00000000          24.41406240
   -15.62500000           0.00000000          24.41406240
   -16.60156240           0.00000000          24.41406240
   -16.60156240           0.00000000          24.41406240
   -17.57812480           0.00000000          23.43750000
   -17.57812480           0.00000000          23.43750000
   -18.55468720          -0.97656240          23.43750000
