SERVICIO GEOLOGICO COLOMBIANO- RED NACIONAL DE ACELEROGRAFOS DE COLOMBIA
SISMO DE PAEZ (CAUCA) 1994/06/06 20:47:39 ML=6.4
LATITUD DEL EVENTO(GRADOS): 2.85
LONGITUD DEL EVENTO(GRADOS): -76.07
PROFUNDIDAD DEL EVENTO (Km): 1
CODIGO DE LA ESTACION: CROSA
Estacion:EL  ROSAL Geol:ROCA Topo:ONDULADA
LATITUD DE LA ESTACION (GRADOS): 4.848
LONGITUD DE LA ESTACION (GRADOS): -74.321
DISTANCIA EPICENTRAL: 294.746386924 km
DISTANCIA HIPOCENTRAL: 294.748083293 km
INTERVALO DE MUESTREO (SEGUNDOS): 0.005
NUMERO DE DATOS: 6656
DURACION (SEGUNDOS): 33.28
UNIDADES: cm/s^2
TIPO DE EQUIPO: SSA
ESCALA MAXIMA (G): 2
CORRECCION DE LINEA BASE: LINEA BASE NO REMOVIDA
TIPO DE DATOS: NO CORREGIDO
         EW                  VER                  NS
[...]
    16.60156240         -27.34375040         -23.43750000
    16.60156240         -27.34375040         -23.43750000
    16.60156240         -27.34375040         -23.43750000
    16.60156240         -27.34375040         -23.43750000
    16.60156240         -26.36718720         -22.46093760
    16.60156240         -26.36718720         -22.46093760
    15.62500000         -26.36718720         -23.43750000
    15.62500000         -26.36718720         -22.46093760
    15.62500000         -26.36718720         -22.46093760
    15.62500000         -26.36718720         -22.46093760
    15.62500000         -26.36718720         -22.46093760
    15.62500000         -26.36718720         -22.46093760
    15.62500000         -26.36718720         -22.46093760
    15.62500000         -26.36718720         -22.46093760
    15.62500000         -26.36718720         -22.46093760
    14.64843760         -26.36718720         -22.46093760
    14.64843760         -26.36718720         -22.46093760
    14.64843760         -26.36718720         -22.46093760
    14.64843760         -26.36718720         -22.46093760
    14.64843760         -26.36718720         -22.46093760
    14.64843760         -26.36718720         -21.48437520
    13.67187520         -26.36718720         -21.48437520
    13.67187520         -26.36718720         -21.48437520
    13.67187520         -26.36718720         -21.48437520
    13.67187520         -25.39062480         -21.48437520
    13.67187520         -25.39062480         -21.48437520
    13.67187520         -25.39062480         -21.48437520
    12.69531280         -25.39062480         -21.48437520
    12.69531280         -25.39062480         -21.48437520
    12.69531280         -25.39062480         -21.48437520
    12.69531280         -25.39062480         -21.48437520
    12.69531280         -24.41406240         -21.48437520
    12.69531280         -24.41406240         -20.50781280
    12.69531280         -24.41406240         -21.48437520
    12.69531280         -24.41406240         -20.50781280
    11.71875040         -24.41406240         -20.50781280
    11.71875040         -24.41406240         -20.50781280
    11.71875040         -24.41406240         -20.50781280
    11.71875040         -24.41406240         -20.50781280
    11.71875040         -24.41406240         -20.50781280
    11.71875040         -24.41406240         -20.50781280
    10.74218720         -24.41406240         -20.50781280
    10.74218720         -23.43750000         -20.50781280
    10.74218720         -23.43750000         -20.50781280
    10.74218720         -23.43750000         -20.50781280
    10.74218720         -23.43750000         -20.50781280
    10.74218720         -23.43750000         -19.53124960
    10.74218720         -23.43750000         -20.50781280
    10.74218720         -23.43750000         -19.53124960
    10.74218720         -23.43750000         -19.53124960
     9.76562480         -23.43750000         -19.53124960
     9.76562480         -23.43750000         -19.53124960
     9.76562480         -22.46093760         -19.53124960
     9.76562480         -22.46093760         -19.53124960
     9.76562480         -22.46093760         -18.55468720
     9.76562480         -22.46093760         -18.55468720
     9.76562480         -22.46093760         -18.55468720
     9.76562480         -22.46093760         -18.55468720
     9.76562480         -22.46093760         -18.55468720
     9.76562480         -22.46093760         -18.55468720
     9.76562480         -22.46093760         -18.55468720
     9.76562480         -22.46093760         -18.55468720
     9.76562480         -22.46093760         -18.55468720
     8.78906240         -22.46093760         -17.57812480
     8.78906240         -22.46093760         -17.57812480
     8.78906240         -22.46093760         -17.57812480
     8.78906240         -22.46093760         -17.57812480
     8.78906240         -22.46093760         -17.57812480
     8.78906240         -22.46093760         -17.57812480
     8.78906240         -22.46093760         -16.60156240
     8.78906240         -22.46093760         -16.60156240
     8.78906240         -22.46093760         -16.60156240
     8.78906240         -22.46093760         -16.60156240
     8.78906240         -23.43750000         -15.62500000
     8.78906240         -22.46093760         -15.62500000
     8.78906240         -22.46093760         -14.64843760
     8.78906240         -22.46093760         -14.64843760
     8.78906240         -22.46093760         -14.64843760
     8.78906240         -22.46093760         -13.67187520
     8.78906240         -22.46093760         -13.67187520
     8.78906240         -22.46093760         -13.67187520
     8.78906240         -23.43750000         -12.69531280
     8.78906240         -23.43750000         -12.69531280
     8.78906240         -23.43750000         -12.69531280
     8.78906240         -23.43750000         -11.71875040
     8.78906240         -23.43750000         -11.71875040
     8.78906240         -23.43750000         -10.74218720
     8.78906240         -23.43750000         -10.74218720
     8.78906240         -23.43750000         -10.74218720
     8.78906240         -23.43750000         -10.74218720
     8.78906240         -23.43750000          -9.76562480
     8.78906240         -24.41406240          -9.76562480
     8.78906240         -24.41406240          -9.76562480
     7.81250000         -24.41406240          -8.78906240
     7.81250000         -24.41406240          -8.78906240
     7.81250000         -23.43750000          -8.78906240
     7.81250000         -24.41406240          -8.78906240
     7.81250000         -24.41406240          -7.81250000
     7.81250000         -24.41406240          -7.81250000
     7.81250000         -24.41406240          -7.81250000
     7.81250000         -24.41406240          -7.81250000
     6.83593760         -24.41406240          -7.81250000
     6.83593760         -24.41406240          -8.78906240
     6.83593760         -24.41406240          -7.81250000
     6.83593760         -24.41406240          -7.81250000
     6.83593760         -24.41406240          -7.81250000
     5.85937520         -24.41406240          -7.81250000
     5.85937520         -25.39062480          -7.81250000
     5.85937520         -24.41406240          -7.81250000
     5.85937520         -25.39062480          -7.81250000
     5.85937520         -25.39062480          -7.81250000
     5.85937520         -25.39062480          -7.81250000
     4.88281280         -25.39062480          -7.81250000
     4.88281280         -25.39062480          -8.78906240
     4.88281280         -25.39062480          -8.78906240
     4.88281280         -26.36718720          -8.78906240
     3.90624960         -26.36718720          -8.78906240
     3.90624960         -26.36718720          -8.78906240
     3.90624960         -26.36718720          -8.78906240
     3.90624960         -26.36718720          -8.78906240
     3.90624960         -26.36718720          -8.78906240
     3.90624960         -26.36718720          -8.78906240
     3.90624960         -26.36718720          -8.78906240
     2.92968720         -26.36718720          -9.76562480
     2.92968720         -27.34375040          -9.76562480
     2.92968720         -26.36718720          -9.76562480
     2.92968720         -26.36718720          -9.76562480
     2.92968720         -26.36718720          -9.76562480
     2.92968720         -27.34375040          -9.76562480
     2.92968720         -27.34375040          -9.76562480
     2.92968720         -27.34375040         -10.74218720
     1.95312480         -27.34375040         -10.74218720
     1.95312480         -27.34375040         -10.74218720
     1.95312480         -27.34375040         -10.74218720
     1.95312480         -27.34375040         -11.71875040
     1.95312480         -27.34375040         -11.71875040
     1.95312480         -27.34375040         -11.71875040
     1.95312480         -27.34375040         -11.71875040
     1.95312480         -27.34375040         -11.71875040
     1.95312480         -27.34375040         -11.71875040
     1.95312480         -28.32031280         -12.69531280
     1.95312480         -27.34375040         -12.69531280
     1.95312480         -28.32031280         -11.71875040
     1.95312480         -28.32031280         -12.69531280
     1.95312480         -28.32031280         -12.69531280
     1.95312480         -28.32031280         -12.69531280
     1.95312480         -28.32031280         -12.69531280
     1.95312480         -28.32031280         -12.69531280
     1.95312480         -28.32031280         -12.69531280
     1.95312480         -28.32031280         -12.69531280
     1.95312480         -28.32031280         -12.69531280
     1.95312480         -28.32031280         -12.69531280
     1.95312480         -28.32031280         -12.69531280
     1.95312480         -28.32031280         -12.69531280
     1.95312480         -28.32031280         -12.69531280
     1.95312480         -28.32031280         -12.69531280
     1.95312480         -28.32031280         -12.69531280
     1.95312480         -28.32031280         -12.69531280
     1.95312480         -29.29687520         -12.69531280
     1.95312480         -28.32031280         -11.71875040
     1.95312480         -28.32031280         -11.71875040
     1.95312480         -29.29687520         -11.71875040
     1.95312480         -29.29687520         -11.71875040
     1.95312480         -29.29687520         -11.71875040
     1.95312480         -29.29687520         -10.74218720
     1.95312480         -29.29687520         -10.74218720
     1.95312480         -29.29687520         -10.74218720
     1.95312480         -29.29687520         -10.74218720
     1.95312480         -29.29687520         -10.74218720
     1.95312480         -29.29687520          -9.76562480
     1.95312480         -29.29687520          -9.76562480
     1.95312480         -29.29687520          -9.76562480
     1.95312480         -29.29687520          -9.76562480
     1.95312480         -29.29687520          -9.76562480
     1.95312480         -29.29687520          -9.76562480
     1.95312480         -29.29687520          -8.78906240
     1.95312480         -29.29687520          -8.78906240
     1.95312480         -29.29687520          -8.78906240
     1.95312480         -30.27343760          -8.78906240
     1.95312480         -29.29687520          -8.78906240
     0.97656240         -30.27343760          -7.81250000
     0.97656240         -30.27343760          -7.81250000
     0.97656240         -30.27343760          -7.81250000
     0.97656240         -30.27343760          -7.81250000
     0.97656240         -30.27343760          -7.81250000
     0.97656240         -30.27343760          -7.81250000
     0.97656240         -30.27343760          -6.83593760
     0.97656240         -30.27343760          -6.83593760
     0.97656240         -30.27343760          -6.83593760
     0.97656240         -30.27343760          -6.83593760
     0.97656240         -30.27343760          -5.85937520
     0.97656240         -30.27343760          -5.85937520
     0.97656240         -30.27343760          -5.85937520
     0.97656240         -30.27343760          -4.88281280
     0.97656240         -30.27343760          -4.88281280
     0.97656240         -30.27343760          -4.88281280
     0.97656240         -30.27343760          -3.90624960
     0.97656240         -30.27343760          -3.90624960
     0.97656240         -30.27343760          -3.90624960
     0.97656240         -30.27343760          -3.90624960
     0.97656240         -30.27343760          -2.92968720
     0.97656240         -30.27343760          -2.92968720
     0.97656240         -30.27343760          -2.92968720
     0.97656240         -30.27343760          -1.95312480
     0.97656240         -30.27343760          -1.95312480
     0.97656240         -30.27343760          -1.95312480
     0.00000000         -30.27343760          -1.95312480
     0.00000000         -30.27343760          -0.97656240
     0.00000000         -30.27343760          -0.97656240
     0.00000000         -30.27343760          -0.97656240
     0.00000000         -30.27343760           0.00000000
     0.00000000         -30.27343760           0.00000000
     0.00000000         -30.27343760           0.00000000
     0.00000000         -30.27343760           0.00000000
     0.00000000         -30.27343760           0.97656240
     0.00000000         -30.27343760           0.97656240
     0.00000000         -30.27343760           0.97656240
     0.00000000         -30.27343760           0.97656240
     0.00000000         -30.27343760           0.97656240
     0.00000000         -30.27343760           1.95312480
     0.00000000         -30.27343760           1.95312480
     0.00000000         -30.27343760           1.95312480
     0.00000000         -30.27343760           1.95312480
     0.00000000         -30.27343760           1.95312480
     0.00000000         -30.27343760           2.92968720
     0.00000000         -30.27343760           2.92968720
     0.00000000         -30.27343760           2.92968720
     0.00000000         -30.27343760           2.92968720
     0.00000000         -30.27343760           2.92968720
     0.00000000         -30.27343760           2.92968720
     0.00000000         -30.27343760           2.92968720
     0.00000000         -30.27343760           2.92968720
     0.00000000         -30.27343760           3.90624960
     0.00000000         -30.27343760           3.90624960
     0.00000000         -30.27343760           2.92968720
     0.00000000         -30.27343760           3.90624960
     0.00000000         -30.27343760           3.90624960
     0.00000000         -30.27343760           3.90624960
     0.00000000         -30.27343760           3.90624960
     0.00000000         -30.27343760           3.90624960
     0.00000000         -30.27343760           3.90624960
     0.00000000         -30.27343760           3.90624960
    -0.97656240         -31.25000000           3.90624960
     0.00000000         -31.25000000           3.90624960
     0.00000000         -31.25000000           3.90624960
    -0.97656240         -31.25000000           3.90624960
    -0.97656240         -31.25000000           3.90624960
    -0.97656240         -31.25000000           3.90624960
    -0.97656240         -31.25000000           3.90624960
    -0.97656240         -31.25000000           3.90624960
    -0.97656240         -31.25000000           3.90624960
    -0.97656240         -31.25000000           3.90624960
    -0.97656240         -31.25000000           3.90624960
    -0.97656240         -31.25000000           3.90624960
    -0.97656240         -31.25000000           3.90624960
    -0.97656240         -31.25000000           3.90624960
    -0.97656240         -31.25000000           3.90624960
    -0.97656240         -31.25000000           2.92968720
    -0.97656240         -31.25000000           2.92968720
    -0.97656240         -31.25000000           3.90624960
    -0.97656240         -31.25000000           2.92968720
    -0.97656240         -31.25000000           2.92968720
    -0.97656240         -31.25000000           2.92968720
    -0.97656240         -31.25000000           2.92968720
    -0.97656240         -31.25000000           2.92968720
    -0.97656240         -31.25000000           1.95312480
    -0.97656240         -31.25000000           1.95312480
    -0.97656240         -31.25000000           1.95312480
    -0.97656240         -31.25000000           1.95312480
    -0.97656240         -31.25000000           1.95312480
    -0.97656240         -31.25000000           0.97656240
    -0.97656240         -31.25000000           0.97656240
    -0.97656240         -31.25000000           0.97656240
    -1.95312480         -31.25000000           0.97656240
    -1.95312480         -31.25000000           0.97656240
    -1.95312480         -31.25000000           0.00000000
    -1.95312480         -31.25000000           0.00000000
    -1.95312480         -31.25000000           0.00000000
    -1.95312480         -31.25000000          -0.97656240
    -1.95312480         -31.25000000          -0.97656240
    -1.95312480         -32.22656240          -1.95312480
    -1.95312480         -32.22656240          -1.95312480
    -1.95312480         -32.22656240          -1.95312480
    -1.95312480         -32.22656240          -1.95312480
    -1.95312480         -32.22656240          -2.92968720
    -1.95312480         -32.22656240          -2.92968720
    -1.95312480         -32.22656240          -2.92968720
    -0.97656240         -32.22656240          -2.92968720
    -0.97656240         -32.22656240          -2.92968720
    -0.97656240         -32.22656240          -3.90624960
    -0.97656240         -32.22656240          -3.90624960
    -0.97656240         -32.22656240          -4.88281280
    -0.97656240         -33.20312480          -4.88281280
     0.00000000         -33.20312480          -4.88281280
     0.00000000         -33.20312480          -4.88281280
     0.00000000         -33.20312480          -4.88281280
     0.00000000         -33.20312480          -4.88281280
     0.00000000         -33.20312480          -5.85937520
     0.97656240         -33.20312480          -5.85937520
     0.97656240         -33.20312480          -5.85937520
     0.97656240         -34.17968720          -6.83593760
     0.97656240         -34.17968720          -6.83593760
     1.95312480         -34.17968720          -6.83593760
     1.95312480         -34.17968720          -6.83593760
     1.95312480         -34.17968720          -6.83593760
     1.95312480         -34.17968720          -6.83593760
     2.92968720         -34.17968720          -7.81250000
     2.92968720         -34.17968720          -7.81250000
     2.92968720         -34.17968720          -7.81250000
     2.92968720         -34.17968720          -8.78906240
     3.90624960         -35.15624960          -8.78906240
     3.90624960         -35.15624960          -8.78906240
     3.90624960         -35.15624960          -8.78906240
     3.90624960         -35.15624960          -9.76562480
     4.88281280         -35.15624960          -9.76562480
     4.88281280         -35.15624960          -9.76562480
     4.88281280         -35.15624960          -9.76562480
     4.88281280         -35.15624960         -10.74218720
     4.88281280         -35.15624960         -10.74218720
     5.85937520         -35.15624960         -10.74218720
     5.85937520         -35.15624960         -10.74218720
     5.85937520         -35.15624960         -10.74218720
     6.83593760         -35.15624960         -10.74218720
     6.83593760         -35.15624960         -10.74218720
     6.83593760         -35.15624960         -11.71875040
     6.83593760         -35.15624960         -11.71875040
     6.83593760         -35.15624960         -11.71875040
     7.81250000         -35.15624960         -11.71875040
     7.81250000         -35.15624960         -11.71875040
     7.81250000         -35.15624960         -12.69531280
     7.81250000         -35.15624960         -12.69531280
     8.78906240         -35.15624960         -12.69531280
