SERVICIO GEOLOGICO COLOMBIANO- RED NACIONAL DE ACELEROGRAFOS DE COLOMBIA
SISMO DE PAEZ (CAUCA) 1994/06/06 20:47:39 ML=6.4
LATITUD DEL EVENTO(GRADOS): 2.85
LONGITUD DEL EVENTO(GRADOS): -76.07
PROFUNDIDAD DEL EVENTO (Km): 1
CODIGO DE LA ESTACION: CPENS
Estacion:PENSILVANIA Geol:ROCA Topo:ONDULADA
LATITUD DE LA ESTACION (GRADOS): 5.393
LONGITUD DE LA ESTACION (GRADOS): -75.161
DISTANCIA EPICENTRAL: 299.764331984 km
DISTANCIA HIPOCENTRAL: 299.765999957 km
INTERVALO DE MUESTREO (SEGUNDOS): 0.005
NUMERO DE DATOS: 6656
DURACION (SEGUNDOS): 33.28
UNIDADES: cm/s^2
TIPO DE EQUIPO: SSA
ESCALA MAXIMA (G): 2
CORRECCION DE LINEA BASE: LINEA BASE NO REMOVIDA
TIPO DE DATOS: NO CORREGIDO
         EW                  VER                  NS
[...]
    13.67187520         -14.64843760          16.60156240
    13.67187520         -14.64843760          16.60156240
    13.67187520         -14.64843760          16.60156240
    13.67187520         -14.64843760          17.57812480
    14.64843760         -14.64843760          17.57812480
    14.64843760         -14.64843760          18.55468720
    14.64843760         -14.64843760          18.55468720
    15.62500000         -14.64843760          18.55468720
    15.62500000         -13.67187520          18.55468720
    16.60156240         -13.67187520          18.55468720
    16.60156240         -13.67187520          17.57812480
    16.60156240         -13.67187520          15.62500000
    16.60156240         -13.67187520          14.64843760
    16.60156240         -12.69531280          12.69531280
    15.62500000         -12.69531280          10.74218720
    15.62500000         -12.69531280           8.78906240
    14.64843760         -12.69531280           6.83593760
    14.64843760         -12.69531280           4.88281280
    14.64843760         -12.69531280           2.92968720
    14.64843760         -12.69531280           1.95312480
    14.64843760         -12.69531280           0.97656240
    14.64843760         -12.69531280           0.00000000
    15.62500000         -12.69531280          -0.97656240
    15.62500000         -12.69531280          -1.95312480
    16.60156240         -11.71875040          -2.92968720
    17.57812480         -11.71875040          -3.90624960
    17.57812480         -11.71875040          -5.85937520
    18.55468720         -11.71875040          -6.83593760
    18.55468720         -11.71875040          -7.81250000
    18.55468720         -11.71875040          -8.78906240
    18.55468720         -11.71875040         -10.74218720
    18.55468720         -11.71875040         -10.74218720
    18.55468720         -11.71875040         -11.71875040
    17.57812480         -11.71875040         -11.71875040
    17.57812480         -11.71875040         -11.71875040
    17.57812480         -11.71875040         -10.74218720
    16.60156240         -11.71875040          -9.76562480
    16.60156240         -11.71875040          -8.78906240
    17.57812480         -11.71875040          -7.81250000
    17.57812480         -11.71875040          -6.83593760
    17.57812480         -11.71875040          -5.85937520
    17.57812480         -12.69531280          -4.88281280
    18.55468720         -12.69531280          -2.92968720
    18.55468720         -12.69531280          -1.95312480
    19.53124960         -12.69531280          -0.97656240
    19.53124960         -12.69531280           0.00000000
    20.50781280         -12.69531280           0.97656240
    20.50781280         -12.69531280           2.92968720
    21.48437520         -12.69531280           3.90624960
    22.46093760         -12.69531280           5.85937520
    22.46093760         -12.69531280           7.81250000
    22.46093760         -12.69531280           9.76562480
    22.46093760         -12.69531280          11.71875040
    23.43750000         -12.69531280          13.67187520
    23.43750000         -12.69531280          15.62500000
    22.46093760         -12.69531280          16.60156240
    22.46093760         -13.67187520          17.57812480
    22.46093760         -13.67187520          19.53124960
    22.46093760         -13.67187520          19.53124960
    22.46093760         -13.67187520          20.50781280
    22.46093760         -13.67187520          20.50781280
    22.46093760         -12.69531280          19.53124960
    22.46093760         -12.69531280          19.53124960
    22.46093760         -12.69531280          19.53124960
    22.46093760         -12.69531280          18.55468720
    23.43750000         -12.69531280          18.55468720
    23.43750000         -12.69531280          18.55468720
    23.43750000         -12.69531280          17.57812480
    23.43750000         -12.69531280          17.57812480
    23.43750000         -12.69531280          16.60156240
    22.46093760         -12.69531280          16.60156240
    21.48437520         -12.69531280          15.62500000
    20.50781280         -12.69531280          14.64843760
    20.50781280         -12.69531280          13.67187520
    19.53124960         -12.69531280          11.71875040
    18.55468720         -12.69531280          10.74218720
    17.57812480         -12.69531280           8.78906240
    16.60156240         -11.71875040           7.81250000
    16.60156240         -11.71875040           5.85937520
    15.62500000         -11.71875040           4.88281280
    15.62500000         -11.71875040           3.90624960
    15.62500000         -11.71875040           2.92968720
    15.62500000         -11.71875040           2.92968720
    15.62500000         -11.71875040           2.92968720
    16.60156240         -11.71875040           1.95312480
    16.60156240         -11.71875040           1.95312480
    16.60156240         -11.71875040           1.95312480
    17.57812480         -11.71875040           2.92968720
    17.57812480         -11.71875040           2.92968720
    17.57812480         -11.71875040           2.92968720
    18.55468720         -11.71875040           2.92968720
    18.55468720         -12.69531280           2.92968720
    18.55468720         -12.69531280           2.92968720
    18.55468720         -12.69531280           1.95312480
    18.55468720         -12.69531280           1.95312480
    19.53124960         -12.69531280           0.97656240
    19.53124960         -12.69531280           0.97656240
    19.53124960         -12.69531280           0.97656240
    20.50781280         -12.69531280           0.00000000
    20.50781280         -12.69531280           0.00000000
    20.50781280         -12.69531280          -0.97656240
    20.50781280         -12.69531280          -0.97656240
    21.48437520         -12.69531280          -0.97656240
    21.48437520         -12.69531280          -0.97656240
    21.48437520         -12.69531280          -0.97656240
    22.46093760         -12.69531280           0.00000000
    22.46093760         -12.69531280           0.00000000
    22.46093760         -12.69531280           0.97656240
    23.43750000         -12.69531280           0.97656240
    23.43750000         -11.71875040           1.95312480
    23.43750000         -11.71875040           1.95312480
    24.41406240         -11.71875040           1.95312480
    24.41406240         -11.71875040           1.95312480
    24.41406240         -10.74218720           1.95312480
    24.41406240         -10.74218720           1.95312480
    23.43750000         -10.74218720           1.95312480
    23.43750000         -10.74218720           1.95312480
    22.46093760         -10.74218720           1.95312480
    22.46093760         -10.74218720           1.95312480
    21.48437520         -10.74218720           1.95312480
    20.50781280         -10.74218720           1.95312480
    19.53124960         -10.74218720           1.95312480
    18.55468720         -10.74218720           2.92968720
    18.55468720         -10.74218720           2.92968720
    17.57812480         -10.74218720           2.92968720
    16.60156240         -11.71875040           3.90624960
    16.60156240         -11.71875040           3.90624960
    16.60156240         -11.71875040           4.88281280
    16.60156240         -11.71875040           4.88281280
    15.62500000         -11.71875040           5.85937520
    15.62500000         -11.71875040           5.85937520
    15.62500000         -12.69531280           6.83593760
    14.64843760         -12.69531280           6.83593760
    14.64843760         -12.69531280           7.81250000
    14.64843760         -12.69531280           8.78906240
    13.67187520         -12.69531280           8.78906240
    12.69531280         -13.67187520           9.76562480
    12.69531280         -13.67187520           9.76562480
    11.71875040         -13.67187520          10.74218720
    11.71875040         -13.67187520          10.74218720
    11.71875040         -13.67187520          10.74218720
    11.71875040         -13.67187520           9.76562480
    11.71875040         -13.67187520           9.76562480
    11.71875040         -13.67187520           9.76562480
    11.71875040         -13.67187520           9.76562480
    12.69531280         -13.67187520           8.78906240
    12.69531280         -13.67187520           8.78906240
    13.67187520         -12.69531280           8.78906240
    14.64843760         -12.69531280           7.81250000
    15.62500000         -12.69531280           7.81250000
    16.60156240         -12.69531280           7.81250000
    17.57812480         -11.71875040           7.81250000
    19.53124960         -11.71875040           6.83593760
    20.50781280         -11.71875040           6.83593760
    21.48437520         -11.71875040           5.85937520
    23.43750000         -10.74218720           5.85937520
    23.43750000         -10.74218720           4.88281280
    24.41406240         -10.74218720           3.90624960
    25.39062480         -10.74218720           2.92968720
    25.39062480         -10.74218720           1.95312480
    25.39062480         -10.74218720           0.97656240
    25.39062480         -10.74218720           0.00000000
    25.39062480         -10.74218720          -1.95312480
    25.39062480         -10.74218720          -2.92968720
    24.41406240         -10.74218720          -3.90624960
    23.43750000         -10.74218720          -4.88281280
    23.43750000         -10.74218720          -5.85937520
    21.48437520         -10.74218720          -6.83593760
    20.50781280         -10.74218720          -6.83593760
    20.50781280         -11.71875040          -7.81250000
    19.53124960         -11.71875040          -7.81250000
    18.55468720         -12.69531280          -6.83593760
    19.53124960         -12.69531280          -6.83593760
    19.53124960         -12.69531280          -5.85937520
    19.53124960         -12.69531280          -4.88281280
    20.50781280         -12.69531280          -3.90624960
    21.48437520         -12.69531280          -2.92968720
    22.46093760         -12.69531280          -1.95312480
    24.41406240         -12.69531280          -0.97656240
    24.41406240         -12.69531280           0.97656240
    25.39062480         -12.69531280           1.95312480
    25.39062480         -12.69531280           2.92968720
    26.36718720         -12.69531280           3.90624960
    25.39062480         -12.69531280           5.85937520
    25.39062480         -12.69531280           6.83593760
    24.41406240         -12.69531280           7.81250000
    23.43750000         -12.69531280           9.76562480
    22.46093760         -13.67187520          10.74218720
    21.48437520         -13.67187520          11.71875040
    19.53124960         -13.67187520          12.69531280
    18.55468720         -13.67187520          12.69531280
    18.55468720         -13.67187520          13.67187520
    17.57812480         -13.67187520          13.67187520
    17.57812480         -13.67187520          14.64843760
    17.57812480         -13.67187520          15.62500000
    17.57812480         -14.64843760          15.62500000
    17.57812480         -14.64843760          16.60156240
    17.57812480         -13.67187520          17.57812480
    17.57812480         -13.67187520          18.55468720
    18.55468720         -13.67187520          18.55468720
    18.55468720         -13.67187520          18.55468720
    18.55468720         -13.67187520          19.53124960
    18.55468720         -13.67187520          20.50781280
    18.55468720         -12.69531280          20.50781280
    18.55468720         -12.69531280          20.50781280
    17.57812480         -12.69531280          21.48437520
    17.57812480         -12.69531280          20.50781280
    16.60156240         -12.69531280          20.50781280
    15.62500000         -11.71875040          20.50781280
    14.64843760         -11.71875040          19.53124960
    13.67187520         -11.71875040          18.55468720
    13.67187520         -11.71875040          17.57812480
    12.69531280         -11.71875040          16.60156240
    12.69531280         -11.71875040          14.64843760
    13.67187520         -11.71875040          12.69531280
    13.67187520         -11.71875040          10.74218720
    13.67187520         -11.71875040           8.78906240
    14.64843760         -11.71875040           7.81250000
    15.62500000         -10.74218720           5.85937520
    15.62500000         -10.74218720           4.88281280
    15.62500000         -10.74218720           3.90624960
    16.60156240         -10.74218720           1.95312480
    16.60156240         -10.74218720           0.97656240
    16.60156240         -10.74218720           0.00000000
    16.60156240         -10.74218720          -1.95312480
    16.60156240         -10.74218720          -3.90624960
    16.60156240         -10.74218720          -4.88281280
    16.60156240         -10.74218720          -6.83593760
    16.60156240         -10.74218720          -8.78906240
    16.60156240         -10.74218720         -10.74218720
    16.60156240         -10.74218720         -12.69531280
    15.62500000         -10.74218720         -13.67187520
    15.62500000         -10.74218720         -14.64843760
    15.62500000         -10.74218720         -14.64843760
    15.62500000         -10.74218720         -14.64843760
    15.62500000         -10.74218720         -14.64843760
    15.62500000         -10.74218720         -13.67187520
    15.62500000         -10.74218720         -12.69531280
    15.62500000         -10.74218720         -11.71875040
    15.62500000         -10.74218720          -9.76562480
    15.62500000         -10.74218720          -8.78906240
    15.62500000         -10.74218720          -6.83593760
    15.62500000         -10.74218720          -4.88281280
    16.60156240         -10.74218720          -2.92968720
    16.60156240         -10.74218720          -0.97656240
    16.60156240         -10.74218720           0.97656240
    16.60156240         -10.74218720           2.92968720
    17.57812480         -10.74218720           4.88281280
    17.57812480         -11.71875040           6.83593760
    18.55468720         -11.71875040           8.78906240
    18.55468720         -11.71875040           9.76562480
    18.55468720         -11.71875040          10.74218720
    19.53124960         -12.69531280          12.69531280
    20.50781280         -12.69531280          13.67187520
    20.50781280         -12.69531280          14.64843760
    21.48437520         -12.69531280          15.62500000
    21.48437520         -12.69531280          16.60156240
    22.46093760         -12.69531280          17.57812480
    22.46093760         -12.69531280          18.55468720
    23.43750000         -12.69531280          18.55468720
    24.41406240         -12.69531280          18.55468720
    24.41406240         -12.69531280          18.55468720
    25.39062480         -12.69531280          18.55468720
    25.39062480         -12.69531280          18.55468720
    26.36718720         -12.69531280          18.55468720
    26.36718720         -12.69531280          17.57812480
    26.36718720         -12.69531280          16.60156240
    26.36718720         -12.69531280          16.60156240
    25.39062480         -12.69531280          15.62500000
    25.39062480         -12.69531280          14.64843760
    25.39062480         -12.69531280          13.67187520
    24.41406240         -12.69531280          12.69531280
    24.41406240         -12.69531280          11.71875040
    23.43750000         -12.69531280          10.74218720
    23.43750000         -12.69531280           9.76562480
    23.43750000         -12.69531280           8.78906240
    22.46093760         -12.69531280           7.81250000
    22.46093760         -12.69531280           6.83593760
    22.46093760         -12.69531280           6.83593760
    22.46093760         -11.71875040           5.85937520
    22.46093760         -11.71875040           4.88281280
    22.46093760         -12.69531280           4.88281280
    22.46093760         -11.71875040           3.90624960
    22.46093760         -11.71875040           2.92968720
    21.48437520         -11.71875040           1.95312480
    21.48437520         -11.71875040           0.97656240
    20.50781280         -12.69531280           0.97656240
    20.50781280         -11.71875040           0.00000000
    19.53124960         -11.71875040           0.00000000
    18.55468720         -11.71875040          -0.97656240
    17.57812480         -11.71875040          -0.97656240
    16.60156240         -11.71875040          -1.95312480
    16.60156240         -11.71875040          -1.95312480
    15.62500000         -11.71875040          -1.95312480
    15.62500000         -11.71875040          -1.95312480
    14.64843760         -12.69531280          -1.95312480
    14.64843760         -12.69531280          -2.92968720
    14.64843760         -12.69531280          -2.92968720
    15.62500000         -12.69531280          -2.92968720
    15.62500000         -12.69531280          -2.92968720
    16.60156240         -12.69531280          -2.92968720
    16.60156240         -12.69531280          -2.92968720
    17.57812480         -12.69531280          -2.92968720
    18.55468720         -12.69531280          -1.95312480
    18.55468720         -12.69531280          -1.95312480
    19.53124960         -12.69531280           0.00000000
    20.50781280         -12.69531280           0.97656240
    20.50781280         -11.71875040           1.95312480
    20.50781280         -11.71875040           2.92968720
    20.50781280         -11.71875040           3.90624960
    20.50781280         -11.71875040           4.88281280
    20.50781280         -12.69531280           5.85937520
    20.50781280         -11.71875040           5.85937520
    19.53124960         -11.71875040           5.85937520
    18.55468720         -11.71875040           5.85937520
    17.57812480         -11.71875040           6.83593760
    17.57812480         -12.69531280           6.83593760
    16.60156240         -11.71875040           6.83593760
    16.60156240         -11.71875040           6.83593760
    15.62500000         -11.71875040           6.83593760
    15.62500000         -11.71875040           7.81250000
    14.64843760         -11.71875040           7.81250000
    15.62500000         -11.71875040           8.78906240
    15.62500000         -11.71875040           9.76562480
    16.60156240         -11.71875040          10.74218720
    16.60156240         -11.71875040          11.71875040
    17.57812480         -11.71875040          12.69531280
    18.55468720         -11.71875040          12.69531280
    19.53124960         -10.74218720          13.67187520
    20.50781280         -10.74218720          13.67187520
    21.48437520         -10.74218720          13.67187520
    21.48437520         -10.74218720          13.67187520
