SERVICIO GEOLOGICO COLOMBIANO- RED NACIONAL DE ACELEROGRAFOS DE COLOMBIA
SISMO DE CORDOBA (QUINDIO) 1999/01/25 18:19:17 ML=6.3
LATITUD DEL EVENTO(GRADOS): 4.439
LONGITUD DEL EVENTO(GRADOS): -75.698
PROFUNDIDAD DEL EVENTO (Km): 0
CODIGO DE LA ESTACION: CGUAD
Estacion:GUADUAS Geol:ROCA Topo:ONDULADA
LATITUD DE LA ESTACION (GRADOS): 5.067
LONGITUD DE LA ESTACION (GRADOS): -74.593
DISTANCIA EPICENTRAL: 141.08 km
DISTANCIA HIPOCENTRAL: 141.08 km
INTERVALO DE MUESTREO (SEGUNDOS): 0.005
NUMERO DE DATOS: 14800
DURACION (SEGUNDOS): 74
UNIDADES: cm/s^2
TIPO DE EQUIPO: ETNA
ESCALA MAXIMA (G): 2
CORRECCION DE LINEA BASE: LINEA BASE NO REMOVIDA
TIPO DE DATOS: NO CORREGIDO
         EW                  VER                  NS
[...]
     8.07523760          -3.49950800          11.08551040
     8.20970560          -3.41653840          10.96963920
     8.29648960          -3.41939920          10.82134240
     8.40091680          -3.44181040          10.70165600
     8.50629840          -3.44228720          10.61820960
     8.56065760          -3.50856800          10.52474960
     8.60404960          -3.58867680          10.46609840
     8.62741440          -3.66163280          10.43224320
     8.61930880          -3.72552880          10.38932800
     8.58831440          -3.78179520          10.38932800
     8.52680240          -3.82709520          10.41269280
     8.42189760          -3.87048720          10.43415040
     8.30602640          -3.88431520          10.50567600
     8.15248480          -3.90291200          10.56146640
     7.95698160          -3.93915200          10.64252880
     7.77101520          -3.91864800          10.75077040
     7.56978960          -3.91292560          10.83803200
     7.36045840          -3.90577280          10.96153280
     7.15446480          -3.87907040          11.08121840
     6.97898880          -3.82089600          11.22093200
     6.80017440          -3.75461600          11.34920160
     6.62422160          -3.70121040          11.46507280
     6.52170160          -3.58152400          11.62004480
     6.39200240          -3.48281840          11.75928080
     6.25514960          -3.38554400          11.89088800
     6.16025920          -3.25918160          11.99913040
     6.04200400          -3.13663520          12.09783520
     5.91802560          -3.00550480          12.18700400
     5.82599600          -2.87866560          12.23945600
     5.74493440          -2.75135040          12.28761680
     5.67436240          -2.65455280          12.32051840
     5.63669200          -2.55918480          12.34817520
     5.59568400          -2.49242800          12.36915600
     5.56087520          -2.43139280          12.37010960
     5.53560240          -2.34174720          12.35866560
     5.51176080          -2.29263280          12.34006880
     5.48172000          -2.24208800          12.30812080
     5.44261920          -2.21681600          12.25709920
     5.41067120          -2.21347840          12.21180000
     5.34772880          -2.22015360          12.11261760
     5.28049440          -2.27355920          12.01295840
     5.22851920          -2.30789200          11.94715520
     5.15031840          -2.37703360          11.83938960
     5.05924240          -2.46477120          11.72924080
     4.99105440          -2.52723680          11.63101200
     4.93001920          -2.61592880          11.54756560
     4.90903840          -2.68363920          11.47317920
     4.93574160          -2.73180000          11.43550880
     4.94956960          -2.78091440          11.40642160
     5.02014160          -2.80952480          11.38210320
     5.12933760          -2.81047840          11.39640800
     5.21707520          -2.82573680          11.38973200
     5.35154320          -2.86006960          11.41643520
     5.49840960          -2.86769840          11.46507280
     5.62763200          -2.87914240          11.50322000
     5.76877600          -2.89440160          11.53278320
     5.94186800          -2.87866560          11.57951360
     6.09302560          -2.87294400          11.63387280
     6.19745280          -2.89297120          11.64293280
     6.33430480          -2.85959280          11.68537120
     6.44969920          -2.80332560          11.70492160
     6.54268240          -2.78949760          11.67106640
     6.64281840          -2.76422480          11.62767440
     6.73198720          -2.73466080          11.58046720
     6.81829440          -2.72512400          11.51990880
     6.86407120          -2.71987920          11.43264800
     6.90364800          -2.73084640          11.34014160
     6.93273520          -2.78425200          11.23666800
     6.95133200          -2.86006960          11.15942000
     6.94990160          -2.94017760          11.05976080
     6.91461600          -3.03077680          10.95581040
     6.88219040          -3.09228880          10.88619200
     6.82878480          -3.13806560          10.79463920
     6.76345840          -3.17144400          10.71596160
     6.66713680          -3.18717920          10.62631600
     6.57415360          -3.19242480          10.54334640
     6.46638880          -3.19480880          10.46705280
     6.31380080          -3.23486320          10.35356560
     6.21080400          -3.23295600          10.28204000
     6.06346160          -3.22580320          10.23340240
     5.89847600          -3.25965920          10.15329360
     5.77020640          -3.27205680          10.07652320
     5.63001600          -3.30543520          10.02931600
     5.52177440          -3.36027120           9.99546080
     5.40924080          -3.43227360           9.95206800
     5.32531760          -3.51572000           9.91439840
     5.25379200          -3.59106080           9.88006560
     5.20086320          -3.67832160           9.85670080
     5.16748400          -3.79180880           9.82952080
     5.13696640          -3.90386560           9.85193280
     5.14221200          -4.02498240           9.93585600
     5.10883360          -4.18710720          10.00261280
     5.07640800          -4.36496720          10.12229920
     5.05208960          -4.51898560          10.30063600
     5.02967840          -4.62484320          10.51330560
     5.01298880          -4.74739040          10.74409520
     4.98914720          -4.83369840          11.01970640
     4.99153120          -4.83179120          11.33537280
     4.98437920          -4.81462480          11.61241520
     5.01060480          -4.75358960          11.90996160
     5.08308400          -4.66156000          12.21036880
     5.18274320          -4.56714640          12.49408720
     5.29766080          -4.46605680          12.76779200
     5.40351840          -4.38308720          13.02051520
     5.52415840          -4.29678000          13.27705360
     5.63669200          -4.20761120          13.51881040
     5.74254960          -4.12797920          13.73195680
     5.83696400          -4.03070480          13.93079760
     5.91278080          -3.92293920          14.13393040
     5.99718080          -3.79228560          14.30416080
     6.05869280          -3.61919440          14.44864240
     6.09159440          -3.43847280          14.56880560
     6.13737120          -3.25536720          14.65892800
     6.17885600          -3.06177120          14.71233360
     6.16931920          -2.88963280          14.67752480
     6.17790240          -2.71701840          14.64462320
     6.21557200          -2.54869440          14.59598560
     6.22558560          -2.44188320          14.45341120
     6.23750720          -2.36511200          14.30797600
     6.24322880          -2.31695200          14.13965200
     6.27088560          -2.31361360          13.93938080
     6.31189360          -2.34508480          13.73434080
     6.37292880          -2.40278240          13.47494160
     6.45732880          -2.48861280          13.19170000
     6.54792800          -2.57921200          12.87889520
     6.66236880          -2.66265840          12.52365120
     6.75296800          -2.74848960          12.15553280
     6.88552880          -2.78377520          11.74116160
     7.02905680          -2.83956560          11.28721200
     7.16209440          -2.89058720          10.84184640
     7.33232480          -2.90584560          10.39266560
     7.50112560          -2.94494640           9.95206800
     7.64846800          -2.98738480           9.51337840
     7.78293600          -3.04842000           9.05704480
     7.97462480          -3.06940080           8.65268720
     8.14485520          -3.12137600           8.24070000
     8.29601280          -3.22484960           7.79867200
     8.45480000          -3.31068000           7.40671120
     8.56447200          -3.40938560           7.02095040
     8.67557520          -3.49235520           6.61563840
     8.78095600          -3.56674160           6.23655280
     8.86964800          -3.62873040           5.89609120
     8.92639200          -3.66878480           5.58233280
     8.97598240          -3.71837600           5.31578080
     8.98838080          -3.77655040           5.09452800
     8.98504240          -3.81708160           4.94241680
     9.00173200          -3.84092320           4.85563280
     8.98122800          -3.85618240           4.81510160
     8.95595520          -3.85427440           4.83417520
     8.91780880          -3.83234000           4.92143600
     8.88633760          -3.78847120           5.09643520
     8.82101040          -3.77416640           5.29003120
     8.72612000          -3.77082800           5.53131120
     8.66556160          -3.74555600           5.86748160
     8.55684320          -3.75270880           6.19077680
     8.41331520          -3.77321280           6.51645680
     8.27360160          -3.76367600           6.87646880
     8.13293440          -3.73888000           7.24411040
     7.97510160          -3.71551520           7.60459920
     7.81011600          -3.65686400           7.93457040
     7.65419040          -3.55815920           8.26978720
     7.51400000          -3.47232800           8.60595680
     7.40909600          -3.35931760           8.91780880
     7.31134400          -3.27110320           9.20820240
     7.25126240          -3.20863760           9.49382800
     7.21216240          -3.12328320           9.75990320
     7.19118080          -3.07703040           9.99975200
     7.17401520          -3.03411520          10.22148160
     7.14921920          -3.00502800          10.40029520
     7.18450560          -2.99787520          10.57195680
     7.20834720          -3.03840640          10.69831840
     7.24744800          -3.11136240          10.81180560
     7.31229760          -3.16715280          10.93196880
     7.34424560          -3.28636160          10.98966560
     7.36618080          -3.40604800          11.02972000
     7.37619440          -3.49473920          11.02399840
     7.39336000          -3.59249120          10.98966560
     7.39192960          -3.67832160          10.95724080
     7.39479040          -3.76319920          10.92195520
     7.38573040          -3.82518800          10.89572880
     7.34806080          -3.86667280          10.86664160
     7.32898720          -3.89862080          10.85519760
     7.29370080          -3.92627680          10.85042960
     7.25364720          -3.94487360          10.88810000
     7.22265280          -3.95059600          10.95199600
     7.19070400          -3.97872960          11.00492480
     7.16352480          -4.01830640          11.09218560
     7.13205360          -4.04167200          11.17992400
     7.09342960          -4.07171280          11.24286640
     7.05432880          -4.09555440          11.31486880
     7.01952000          -4.10127600          11.38019600
     6.96516000          -4.12559520          11.40737520
     6.92510640          -4.10079920          11.43646240
     6.87932960          -4.04882400          11.47413280
     6.82306320          -3.98969680          11.48080800
     6.82115520          -3.89719040          11.49082160
     6.81161920          -3.79610080          11.52944560
     6.82115520          -3.65734080          11.57379120
     6.85739520          -3.53384000          11.63816480
     6.88600560          -3.39269600          11.73830000
     6.93655040          -3.26490400          11.84844960
     6.97612800          -3.18431840          11.97862640
     7.01999680          -3.10134880          12.12310800
     7.08007840          -3.03983680          12.27855680
     7.13014640          -2.99406080          12.44878800
     7.16686240          -2.98881520          12.61568080
     7.20405600          -2.98070880          12.81404480
     7.23075840          -2.98976880          12.99524320
     7.26366080          -3.00884240          13.16308960
     7.30085360          -3.03792960          13.37194480
     7.33947760          -3.08752080          13.56935520
     7.36522640          -3.14235680          13.73195680
     7.37333280          -3.21435920          13.91124720
     7.43103040          -3.24535360          14.12010160
     7.44533520          -3.32403200          14.25790800
     7.47299200          -3.38125200          14.42384720
     7.53736480          -3.38220560          14.61982720
     7.51400000          -3.42845920          14.72902320
     7.53498080          -3.40652480          14.90306880
     7.58647920          -3.32927680          15.10477040
     7.56454480          -3.29875920          15.23637760
     7.57265120          -3.25012240          15.42615920
     7.60221520          -3.16381440          15.66600800
     7.52210640          -3.14807920          15.84768320
     7.47108480          -3.09896480          16.06512080
     7.47585280          -3.01456480          16.33024240
     7.37619440          -3.01933280          16.53289760
     7.30609920          -2.98595440          16.74604400
     7.28511840          -2.91204480          16.98780080
     7.20310240          -2.89297120          17.17376720
     7.12633120          -2.87580480          17.30823520
     7.10392000          -2.80046480          17.43793520
     7.05909760          -2.76279440          17.49277120
     6.98566400          -2.75230400          17.44413360
     6.96086880          -2.67458000          17.37546960
     6.94704080          -2.62260400          17.23241840
     6.91938400          -2.59256400          16.99352240
     6.91795360          -2.56013840          16.71886480
     6.94751760          -2.55727760          16.40605920
     6.99520080          -2.57921200          16.06035200
     7.03764000          -2.64310800          15.69128000
     7.11202640          -2.70891200          15.29932000
     7.20882400          -2.78282160          14.91498960
     7.29179360          -2.90298480          14.54687120
     7.41243360          -3.02505520          14.20021040
     7.51543040          -3.16047680          13.86737840
     7.61556640          -3.29875920          13.56267920
     7.73382160          -3.40414080          13.31615440
     7.81345360          -3.49950800          13.07344400
     7.91406640          -3.54433040          12.89510720
     7.97176400          -3.56721840          12.76445360
     7.98320800          -3.58057040          12.62617120
     8.01754000          -3.56721840          12.57514960
     8.03566000          -3.55958960          12.55750640
     8.03566000          -3.56912640          12.54367840
     8.00561920          -3.60774960          12.56704320
     7.96031920          -3.66830800          12.60900480
     7.90023840          -3.73792640          12.66908640
     7.79676400          -3.78799440          12.74204240
     7.67183280          -3.84712240          12.82262800
     7.53450400          -3.91912480          12.90464400
     7.37380960          -3.99160400          13.02242240
     7.17258480          -4.07266640          13.17071920
     6.95276240          -4.15229760          13.34619520
     6.71911200          -4.22716160          13.54551280
     6.45971280          -4.28295120          13.74244720
     6.20031360          -4.34207920          13.95606960
     5.93948400          -4.38594800          14.16349440
     5.69009760          -4.40168400          14.38474640
     5.44357280          -4.39167040          14.60075360
     5.19990960          -4.33969520          14.78385920
     5.02252560          -4.24385040          14.98746880
     4.88233600          -4.11844240          15.15007040
     4.76789440          -3.98206720          15.25259040
     4.70924400          -3.81851200          15.33889760
     4.67109680          -3.64398960          15.37799840
     4.66632880          -3.47232800          15.34986480
     4.71782720          -3.33261520          15.23447040
     4.80365760          -3.22818720          15.04993440
     4.92429760          -3.15713920          14.81294640
     5.07736240          -3.12280640          14.51778400
     5.23376480          -3.10325600          14.16492480
     5.39064400          -3.09467280          13.75865920
     5.57899440          -3.05461920          13.34095040
     5.78880320          -3.00693520          12.90130640
     5.99479680          -2.95829760          12.45641680
     6.21986400          -2.89154080          12.04824480
     6.44445440          -2.83002880          11.66725120
     6.64949440          -2.78615920          11.29102720
     6.85453440          -2.73466080          10.93673680
     7.03620880          -2.67648720          10.63919040
     7.18355200          -2.69842160          10.36262480
     7.31086720          -2.73895280          10.13326640
     7.42483120          -2.78949760           9.96017440
     7.50541680          -2.90632240           9.81473920
     7.57026640          -3.03268400           9.72557040
     7.64322320          -3.17764320           9.64880000
     7.69090640          -3.33118400           9.57536720
     7.71856320          -3.48806400           9.51385520
     7.71808640          -3.65352640           9.44232960
     7.70092000          -3.77798080           9.37271120
     7.67660160          -3.86428800           9.28354240
     7.63273200          -3.93009200           9.17959200
     7.58790960          -3.97825280           9.09662240
     7.50637040          -4.01830640           9.02366640
     7.41672480          -4.04119520           8.98790320
     7.32660320          -4.08315680           8.99267200
     7.20548640          -4.16088080           9.00936160
     7.10630400          -4.21667120           9.09423840
     6.97994240          -4.26769280           9.21201680
     6.85882560          -4.29010400           9.33265680
     6.78586960          -4.25434080           9.51242480
     6.70385360          -4.20618080           9.67788720
     6.64091120          -4.13703920           9.84668720
     6.58416720          -4.03642640          10.04028320
     6.54554400          -3.92103200          10.18524160
     6.51359520          -3.81803520          10.30874240
     6.48880000          -3.72838960          10.39791120
     6.47878640          -3.65495680          10.45703920
     6.44922240          -3.60918080          10.49327840
     6.43348720          -3.58533840          10.47277440
     6.39867760          -3.57151040          10.40983200
     6.36911360          -3.53193280          10.28919200
     6.38103520          -3.50570640          10.12277600
     6.37674320          -3.49950800           9.92965680
     6.38198880          -3.47614320           9.69886800
     6.38580320          -3.46183760           9.43565360
     6.38866400          -3.44038000           9.16004160
     6.39390960          -3.43608880           8.87584720
     6.35576240          -3.45230080           8.54730640
     6.36434560          -3.44324080           8.26358800
     6.38675680          -3.45373120           8.03804400
