SERVICIO GEOLOGICO COLOMBIANO- RED NACIONAL DE ACELEROGRAFOS DE COLOMBIA
SISMO DE CORDOBA (QUINDIO) 1999/01/25 18:19:17 ML=6.3
LATITUD DEL EVENTO(GRADOS): 4.439
LONGITUD DEL EVENTO(GRADOS): -75.698
PROFUNDIDAD DEL EVENTO (Km): 0
CODIGO DE LA ESTACION: CANDE
Estacion:ANDES Geol:ROCA Topo:ONDULADA
LATITUD DE LA ESTACION (GRADOS): 5.663
LONGITUD DE LA ESTACION (GRADOS): -75.897
DISTANCIA EPICENTRAL: 137.648 km
DISTANCIA HIPOCENTRAL: 137.648 km
INTERVALO DE MUESTREO (SEGUNDOS): 0.005
NUMERO DE DATOS: 12800
DURACION (SEGUNDOS): 64
UNIDADES: cm/s^2
TIPO DE EQUIPO: SSA
ESCALA MAXIMA (G): 1
CORRECCION DE LINEA BASE: LINEA BASE NO REMOVIDA
TIPO DE DATOS: NO CORREGIDO
         EW                  VER                  NS
[...]
    -1.46484360          -2.92968760          -0.48828120
    -1.46484360          -2.92968760          -0.48828120
    -1.46484360          -2.92968760           0.00000000
    -1.46484360          -3.41796880           0.00000000
    -1.46484360          -3.90625000           0.00000000
    -1.95312480          -4.39453120           0.48828120
    -1.95312480          -4.39453120           0.48828120
    -1.95312480          -4.39453120           0.48828120
    -1.95312480          -4.39453120           0.48828120
    -1.95312480          -4.39453120           0.48828120
    -1.95312480          -3.90625000           0.00000000
    -1.95312480          -3.41796880           0.00000000
    -1.46484360          -2.92968760          -0.48828120
    -1.46484360          -2.44140640          -0.97656240
    -1.46484360          -1.95312480          -1.46484360
    -0.97656240          -1.95312480          -1.46484360
    -1.46484360          -1.95312480          -2.44140640
    -1.46484360          -2.44140640          -2.92968760
    -1.46484360          -2.44140640          -3.41796880
    -1.95312480          -2.92968760          -3.41796880
    -2.44140640          -3.41796880          -3.41796880
    -2.44140640          -3.41796880          -3.41796880
    -2.92968760          -3.90625000          -2.92968760
    -3.41796880          -3.90625000          -2.44140640
    -3.41796880          -4.39453120          -1.95312480
    -3.41796880          -4.39453120          -1.46484360
    -3.90625000          -4.88281240          -0.97656240
    -3.41796880          -4.88281240          -0.48828120
    -3.41796880          -4.88281240           0.00000000
    -2.92968760          -4.88281240           0.48828120
    -2.44140640          -4.88281240           0.97656240
    -1.95312480          -4.88281240           1.46484360
    -0.97656240          -4.39453120           1.46484360
    -0.48828120          -4.39453120           1.46484360
     0.00000000          -4.39453120           1.95312480
     0.48828120          -4.39453120           1.95312480
     0.97656240          -4.39453120           1.46484360
     0.97656240          -4.39453120           1.46484360
     0.48828120          -3.90625000           0.97656240
     0.48828120          -3.90625000           0.48828120
    -0.48828120          -3.90625000           0.00000000
    -0.48828120          -3.41796880          -0.48828120
    -1.46484360          -3.41796880          -0.97656240
    -1.46484360          -3.41796880          -1.46484360
    -1.95312480          -2.92968760          -2.44140640
    -2.44140640          -2.92968760          -2.92968760
    -2.44140640          -2.44140640          -3.41796880
    -2.44140640          -2.44140640          -4.39453120
    -2.92968760          -2.44140640          -4.39453120
    -2.92968760          -2.44140640          -4.39453120
    -2.92968760          -2.92968760          -4.39453120
    -2.92968760          -3.41796880          -4.39453120
    -2.92968760          -3.90625000          -3.41796880
    -2.92968760          -4.39453120          -2.92968760
    -2.92968760          -4.39453120          -2.44140640
    -2.92968760          -4.39453120          -1.46484360
    -2.92968760          -4.88281240          -0.97656240
    -2.44140640          -4.39453120          -0.48828120
    -2.44140640          -4.39453120           0.00000000
    -1.95312480          -4.39453120           0.48828120
    -1.46484360          -3.90625000           0.48828120
    -1.46484360          -3.90625000           0.48828120
    -1.46484360          -3.41796880           0.00000000
    -1.46484360          -3.41796880          -0.48828120
    -0.97656240          -3.41796880          -0.97656240
    -1.46484360          -3.41796880          -1.46484360
    -1.46484360          -3.41796880          -1.46484360
    -1.95312480          -2.92968760          -1.46484360
    -1.95312480          -2.92968760          -1.95312480
    -2.44140640          -2.92968760          -1.95312480
    -2.44140640          -2.92968760          -1.95312480
    -1.95312480          -2.92968760          -1.95312480
    -1.95312480          -2.92968760          -1.95312480
    -1.95312480          -2.92968760          -1.46484360
    -1.95312480          -2.92968760          -1.46484360
    -1.46484360          -2.92968760          -0.48828120
    -1.46484360          -2.92968760          -0.48828120
    -1.46484360          -3.41796880           0.48828120
    -0.97656240          -3.90625000           0.97656240
    -0.97656240          -3.90625000           1.46484360
    -0.48828120          -4.39453120           1.46484360
    -0.97656240          -4.88281240           1.95312480
    -0.48828120          -5.37109360           2.44140640
    -0.97656240          -5.37109360           2.44140640
    -1.46484360          -5.37109360           2.44140640
    -1.46484360          -5.37109360           1.95312480
    -1.95312480          -5.37109360           1.95312480
    -2.44140640          -5.37109360           1.46484360
    -2.44140640          -4.88281240           0.48828120
    -2.44140640          -4.88281240           0.00000000
    -1.95312480          -4.39453120          -0.97656240
    -1.95312480          -3.90625000          -1.46484360
    -1.95312480          -3.41796880          -2.44140640
    -1.95312480          -2.92968760          -2.92968760
    -1.95312480          -2.44140640          -3.41796880
    -1.46484360          -2.44140640          -3.41796880
    -1.46484360          -2.44140640          -3.90625000
    -1.46484360          -2.44140640          -3.90625000
    -0.97656240          -2.44140640          -3.41796880
    -1.46484360          -2.92968760          -2.92968760
    -1.46484360          -3.41796880          -2.44140640
    -1.46484360          -3.90625000          -1.46484360
    -1.95312480          -3.90625000          -0.48828120
    -1.95312480          -3.90625000           0.00000000
    -1.95312480          -3.90625000           0.48828120
    -1.95312480          -3.41796880           0.48828120
    -1.95312480          -3.41796880           0.97656240
    -1.46484360          -2.92968760           0.48828120
    -0.97656240          -2.92968760           0.48828120
    -0.97656240          -2.92968760           0.00000000
    -0.97656240          -3.41796880          -0.48828120
    -1.46484360          -4.39453120          -0.97656240
    -1.46484360          -4.88281240          -1.46484360
    -1.46484360          -5.85937520          -1.95312480
    -1.95312480          -6.83593760          -2.44140640
    -2.44140640          -7.32421880          -2.92968760
    -2.92968760          -7.81250000          -3.41796880
    -2.92968760          -7.81250000          -3.41796880
    -3.41796880          -7.32421880          -3.41796880
    -2.92968760          -6.34765640          -3.41796880
    -2.44140640          -4.88281240          -2.92968760
    -1.95312480          -3.90625000          -2.92968760
    -0.97656240          -2.92968760          -2.44140640
     0.00000000          -1.46484360          -2.44140640
     0.48828120          -0.48828120          -1.95312480
     0.97656240           0.48828120          -1.95312480
     1.46484360           0.97656240          -1.46484360
     0.97656240           0.97656240          -0.97656240
     0.48828120           1.46484360          -0.48828120
     0.00000000           0.97656240          -0.48828120
    -0.97656240           0.48828120          -0.48828120
    -2.44140640          -0.48828120           0.00000000
    -3.90625000          -1.95312480           0.00000000
    -4.88281240          -2.92968760           0.00000000
    -5.85937520          -4.39453120           0.48828120
    -6.34765640          -5.37109360           0.48828120
    -6.83593760          -6.34765640           0.48828120
    -6.34765640          -6.83593760           0.48828120
    -5.37109360          -6.83593760           0.48828120
    -4.39453120          -6.83593760           0.00000000
    -2.92968760          -6.34765640           0.00000000
    -1.46484360          -6.34765640           0.00000000
    -0.48828120          -5.37109360          -0.48828120
     0.48828120          -4.88281240          -0.97656240
     1.46484360          -4.88281240          -1.46484360
     1.95312480          -4.39453120          -1.46484360
     1.46484360          -3.90625000          -1.46484360
     1.46484360          -3.41796880          -1.46484360
     0.48828120          -2.92968760          -1.46484360
     0.00000000          -2.44140640          -1.46484360
    -0.48828120          -1.95312480          -0.97656240
    -0.97656240          -1.46484360          -0.48828120
    -1.95312480          -1.46484360          -0.48828120
    -2.44140640          -1.46484360          -0.48828120
    -2.44140640          -1.95312480          -0.97656240
    -2.92968760          -2.44140640          -0.97656240
    -2.92968760          -2.44140640          -0.97656240
    -3.41796880          -3.41796880          -0.97656240
    -3.41796880          -3.90625000          -0.48828120
    -3.41796880          -4.39453120           0.00000000
    -3.41796880          -5.37109360           0.48828120
    -3.41796880          -5.85937520           1.46484360
    -2.92968760          -6.34765640           1.95312480
    -2.44140640          -6.34765640           2.92968760
    -1.95312480          -6.34765640           3.41796880
    -1.46484360          -6.34765640           3.90625000
    -0.97656240          -5.85937520           3.41796880
    -0.48828120          -5.85937520           3.41796880
    -0.48828120          -5.37109360           2.44140640
     0.00000000          -5.37109360           1.46484360
     0.00000000          -5.37109360           0.48828120
     0.00000000          -5.37109360          -0.97656240
     0.00000000          -5.37109360          -2.44140640
    -0.48828120          -5.85937520          -3.90625000
    -0.97656240          -5.37109360          -5.37109360
    -1.95312480          -4.88281240          -6.34765640
    -2.44140640          -4.39453120          -6.83593760
    -3.41796880          -3.90625000          -7.32421880
    -3.90625000          -2.92968760          -6.83593760
    -3.90625000          -1.95312480          -6.34765640
    -3.90625000          -1.46484360          -5.37109360
    -3.90625000          -0.48828120          -4.39453120
    -3.41796880           0.00000000          -2.44140640
    -2.92968760           0.00000000          -0.97656240
    -2.92968760           0.00000000           0.48828120
    -1.95312480           0.48828120           1.95312480
    -1.46484360           0.00000000           3.41796880
    -0.97656240           0.00000000           3.41796880
    -0.48828120          -0.48828120           4.39453120
     0.00000000          -0.97656240           3.90625000
     0.00000000          -1.95312480           3.90625000
     0.00000000          -2.44140640           2.92968760
     0.00000000          -3.90625000           2.44140640
    -0.48828120          -4.88281240           0.97656240
    -1.46484360          -5.85937520           0.00000000
    -1.95312480          -6.83593760          -1.46484360
    -2.44140640          -7.32421880          -2.44140640
    -2.92968760          -7.32421880          -3.41796880
    -2.92968760          -7.32421880          -4.39453120
    -2.92968760          -7.32421880          -5.37109360
    -2.44140640          -6.83593760          -5.85937520
    -2.44140640          -6.34765640          -6.34765640
    -1.95312480          -5.37109360          -6.34765640
    -1.46484360          -4.39453120          -6.34765640
    -0.97656240          -3.41796880          -6.34765640
    -0.48828120          -2.44140640          -5.37109360
     0.00000000          -1.46484360          -4.88281240
     0.48828120          -0.97656240          -3.90625000
     0.00000000          -0.48828120          -2.92968760
     0.00000000          -0.48828120          -1.46484360
    -0.48828120          -0.48828120          -0.48828120
    -1.46484360          -0.48828120           0.97656240
    -1.95312480          -0.97656240           1.95312480
    -2.92968760          -1.95312480           2.92968760
    -3.41796880          -2.44140640           3.90625000
    -3.90625000          -3.41796880           4.39453120
    -3.90625000          -3.90625000           4.88281240
    -3.90625000          -4.39453120           5.37109360
    -3.90625000          -4.88281240           5.37109360
    -3.90625000          -4.88281240           5.37109360
    -3.41796880          -4.88281240           5.37109360
    -1.95312480          -4.88281240           4.39453120
    -1.46484360          -4.88281240           3.41796880
    -0.48828120          -4.39453120           2.44140640
     0.48828120          -4.39453120           0.97656240
     1.46484360          -3.90625000          -0.97656240
     1.46484360          -3.90625000          -2.44140640
     1.46484360          -3.41796880          -4.39453120
     0.97656240          -3.41796880          -6.34765640
     0.48828120          -2.92968760          -7.81250000
    -0.48828120          -2.44140640          -9.27734360
    -0.97656240          -2.44140640         -10.25390640
    -1.95312480          -2.44140640         -11.23046880
    -2.92968760          -2.44140640         -11.23046880
    -3.90625000          -2.44140640         -10.74218760
    -3.90625000          -2.44140640         -10.25390640
    -4.39453120          -2.44140640          -9.27734360
    -4.88281240          -2.44140640          -7.81250000
    -4.88281240          -2.44140640          -5.85937520
    -4.88281240          -2.44140640          -3.90625000
    -4.39453120          -2.44140640          -1.95312480
    -3.90625000          -2.92968760           0.48828120
    -3.41796880          -2.92968760           2.44140640
    -2.92968760          -3.41796880           4.39453120
    -1.95312480          -3.41796880           6.34765640
    -1.46484360          -3.90625000           7.32421880
    -0.97656240          -3.90625000           7.81250000
    -0.48828120          -3.90625000           7.32421880
     0.48828120          -4.39453120           7.32421880
     0.48828120          -4.39453120           6.34765640
     0.97656240          -4.39453120           4.88281240
     0.97656240          -4.88281240           2.92968760
     0.48828120          -4.88281240           0.97656240
     0.48828120          -5.37109360          -0.97656240
    -0.48828120          -5.37109360          -3.41796880
    -1.46484360          -5.85937520          -4.88281240
    -2.92968760          -6.34765640          -6.34765640
    -3.90625000          -6.83593760          -7.32421880
    -4.88281240          -7.32421880          -7.32421880
    -5.85937520          -7.32421880          -7.32421880
    -6.34765640          -7.32421880          -6.34765640
    -6.34765640          -7.32421880          -5.37109360
    -5.85937520          -6.83593760          -4.39453120
    -4.88281240          -6.34765640          -2.44140640
    -3.90625000          -5.85937520          -0.48828120
    -2.44140640          -4.88281240           1.46484360
    -0.97656240          -3.90625000           3.41796880
     0.97656240          -3.41796880           5.37109360
     2.44140640          -2.44140640           6.83593760
     3.41796880          -1.46484360           7.81250000
     4.39453120          -0.48828120           8.30078120
     4.39453120           0.00000000           8.30078120
     4.39453120           0.48828120           8.30078120
     3.41796880           0.48828120           7.32421880
     2.44140640           0.48828120           5.85937520
     0.48828120          -0.48828120           4.39453120
    -0.97656240          -1.46484360           2.44140640
    -2.44140640          -2.92968760           0.48828120
    -3.90625000          -3.90625000          -1.46484360
    -4.88281240          -4.88281240          -3.41796880
    -5.85937520          -5.37109360          -5.37109360
    -5.85937520          -5.85937520          -6.83593760
    -5.85937520          -5.37109360          -7.81250000
    -5.37109360          -4.88281240          -8.78906240
    -4.39453120          -4.39453120          -9.27734360
    -2.92968760          -3.41796880          -9.27734360
    -1.46484360          -2.44140640          -9.27734360
    -0.48828120          -1.95312480          -9.27734360
     0.48828120          -0.97656240          -8.78906240
     0.97656240          -0.97656240          -8.30078120
     0.97656240          -0.97656240          -7.81250000
     0.00000000          -0.97656240          -6.83593760
    -0.97656240          -1.46484360          -5.85937520
    -2.44140640          -1.95312480          -4.88281240
    -3.90625000          -2.92968760          -3.90625000
    -5.37109360          -3.90625000          -3.41796880
    -6.34765640          -4.39453120          -2.44140640
    -7.32421880          -4.88281240          -1.46484360
    -7.81250000          -5.37109360          -0.48828120
    -7.81250000          -5.37109360           0.97656240
    -7.81250000          -4.88281240           2.44140640
    -6.83593760          -4.88281240           3.41796880
    -5.37109360          -4.88281240           5.37109360
    -3.90625000          -4.39453120           6.34765640
    -2.44140640          -4.39453120           7.32421880
    -0.97656240          -4.88281240           7.81250000
     0.48828120          -4.88281240           8.30078120
     1.95312480          -4.39453120           7.81250000
     2.92968760          -4.39453120           7.32421880
     3.41796880          -3.90625000           6.34765640
     3.90625000          -2.92968760           4.88281240
     3.90625000          -2.44140640           2.92968760
     3.90625000          -1.46484360           0.97656240
     3.90625000          -0.97656240          -1.46484360
     3.90625000          -0.97656240          -3.90625000
     2.92968760          -1.46484360          -6.34765640
     2.44140640          -1.95312480          -7.81250000
     1.46484360          -2.92968760          -9.27734360
    -0.48828120          -3.90625000         -10.74218760
    -1.95312480          -4.39453120         -11.23046880
    -3.41796880          -5.37109360         -11.23046880
    -4.88281240          -5.85937520         -11.23046880
    -5.37109360          -5.85937520         -10.25390640
    -5.37109360          -5.37109360          -8.78906240
    -5.37109360          -4.88281240          -7.32421880
    -4.39453120          -4.39453120          -5.37109360
    -3.41796880          -3.41796880          -3.41796880
    -2.92968760          -2.92968760          -0.48828120
    -1.95312480          -2.44140640           1.46484360
    -0.48828120          -2.44140640           3.41796880
     0.48828120          -2.92968760           4.88281240
     0.97656240          -3.90625000           5.85937520
