SERVICIO GEOLOGICO COLOMBIANO- RED NACIONAL DE ACELEROGRAFOS DE COLOMBIA
SISMO DE CORDOBA (QUINDIO) 1999/01/25 18:19:17 ML=6.3
LATITUD DEL EVENTO(GRADOS): 4.439
LONGITUD DEL EVENTO(GRADOS): -75.698
PROFUNDIDAD DEL EVENTO (Km): 0
CODIGO DE LA ESTACION: CDAGU
Estacion:DAGUA Geol:ROCA Topo:ONDULADA
LATITUD DE LA ESTACION (GRADOS): 3.655
LONGITUD DE LA ESTACION (GRADOS): -76.705
DISTANCIA EPICENTRAL: 141.659 km
DISTANCIA HIPOCENTRAL: 141.659 km
INTERVALO DE MUESTREO (SEGUNDOS): 0.005
NUMERO DE DATOS: 14600
DURACION (SEGUNDOS): 73
UNIDADES: cm/s^2
TIPO DE EQUIPO: ETNA
ESCALA MAXIMA (G): 2
CORRECCION DE LINEA BASE: LINEA BASE NO REMOVIDA
TIPO DE DATOS: NO CORREGIDO
         EW                  VER                  NS
[...]
    -0.82683600          -1.63602800           0.64420720
    -0.83923360          -1.48773200           0.75292560
    -0.85687600          -1.23596160           0.84638560
    -0.85735360          -0.92458720           0.93746160
    -0.86879760          -0.60319920           1.04856480
    -0.87165840          -0.26845920           1.15919120
    -0.87404240           0.01382800           1.22165680
    -0.87785760           0.24223360           1.28316880
    -0.86402880           0.40435760           1.29842720
    -0.85067760           0.49161920           1.22880960
    -0.83971040           0.49734080           1.14727040
    -0.82969680           0.41818640           0.99897360
    -0.83208080           0.30612960           0.75626400
    -0.83494160           0.16498560           0.49114240
    -0.83494160           0.00238400           0.18262880
    -0.82302080          -0.17786000          -0.15640240
    -0.75674080          -0.35858160          -0.44202800
    -0.68330800          -0.54359440          -0.68950640
    -0.59413920          -0.73194480          -0.90360640
    -0.47636000          -0.89740720          -1.04379680
    -0.36334960          -1.06573120          -1.14584000
    -0.26130640          -1.21259680          -1.19352320
    -0.17929040          -1.31368640          -1.14870080
    -0.08440000          -1.37042960          -1.02186240
    -0.01621280          -1.41334560          -0.84590880
     0.05054480          -1.43528000          -0.62894800
     0.11920960          -1.40333200          -0.38957600
     0.14400480          -1.35088000          -0.13399120
     0.15544880          -1.26504880           0.11348720
     0.13113040          -1.14536320           0.30946720
     0.09393680          -1.01375600           0.48494320
     0.03242480          -0.87738000           0.59032480
    -0.04434560          -0.71191760           0.63276320
    -0.09346000          -0.52022960           0.63610080
    -0.16164800          -0.32043440           0.60892080
    -0.23222000          -0.11348720           0.59604640
    -0.31709680           0.04673040           0.60558320
    -0.41580240           0.16021760           0.67186320
    -0.51164640           0.21362320           0.73337520
    -0.62799440           0.21886800           0.75626400
    -0.72097760           0.23603440           0.75531040
    -0.78153600           0.25224720           0.73623680
    -0.81348400           0.27275120           0.70810320
    -0.81777600           0.30088400           0.65565120
    -0.80251680           0.31995760           0.57506560
    -0.77009200           0.31900400           0.46396240
    -0.75149520           0.32234160           0.35858160
    -0.73862080           0.30708320           0.27084320
    -0.72526960           0.26464480           0.22077600
    -0.72526960           0.19502640           0.26845920
    -0.69618240           0.04625360           0.36096560
    -0.61464320          -0.10442720           0.44345840
    -0.50973920          -0.24366400           0.51212320
    -0.34570720          -0.37717840           0.54645520
    -0.16117120          -0.48828160           0.55170080
     0.03624000          -0.59890720           0.51641440
     0.29802320          -0.68426160           0.48494320
     0.52595120          -0.80013280           0.41866320
     0.72097760          -0.92363360           0.30040720
     0.90837440          -0.99372880           0.20074880
     1.02949120          -1.01089440           0.08773840
     1.06096240          -0.97990000           0.01096720
     1.03950480          -0.92840160          -0.05149840
     0.95796560          -0.88787040          -0.11920960
     0.81443760          -0.87261200          -0.14543520
     0.65946560          -0.83446480          -0.18072160
     0.45776400          -0.79441040          -0.21505360
     0.25272400          -0.70190400          -0.17833680
     0.07200240          -0.55694560          -0.09489040
    -0.11968640          -0.41961680           0.02384160
    -0.29134720          -0.23841840           0.16546240
    -0.41675600          -0.09250640           0.26655200
    -0.50258640           0.00572240           0.31566640
    -0.58507920           0.05578960           0.27370480
    -0.63657760           0.05054480           0.20837760
    -0.66804880           0.02431840           0.12254720
    -0.72002400          -0.05197520          -0.01382800
    -0.74958800          -0.12922320          -0.14495840
    -0.74434320          -0.21314640          -0.29039360
    -0.72145440          -0.29611600          -0.39911280
    -0.68664560          -0.39863600          -0.51736800
    -0.64992880          -0.51116960          -0.64706800
    -0.60987440          -0.57268160          -0.74148160
    -0.54931680          -0.59509280          -0.83780320
    -0.48017520          -0.55313120          -0.91791120
    -0.39577520          -0.47731360          -0.98466880
    -0.30040720          -0.38671520          -1.01375600
    -0.19741040          -0.29182400          -1.01852400
    -0.06151200          -0.24128000          -1.03330640
     0.04673040          -0.23555760          -1.01995440
     0.14972720          -0.27418160          -0.95844240
     0.24461760          -0.39625200          -0.88739360
     0.29706960          -0.57744960          -0.79774880
     0.33330880          -0.82063680          -0.68855280
     0.33855440          -1.15823760          -0.62036480
     0.33569360          -1.49202320          -0.56982080
     0.29993040          -1.81674960          -0.52976640
     0.24700160          -2.11238880          -0.48637360
     0.14352800          -2.32553520          -0.40292720
    -0.00429120          -2.42328640          -0.26559840
    -0.09298320          -2.39086160          -0.06389600
    -0.20647040          -2.35223760           0.11539440
    -0.29754640          -2.26545360           0.29468560
    -0.27799600          -2.11477280           0.47922160
    -0.29945360          -2.00414640           0.57458880
    -0.34189200          -1.86634080           0.61702720
    -0.31518960          -1.65319440           0.65183600
    -0.35810480          -1.42383600           0.63419360
    -0.45633280          -1.18732480           0.55742240
    -0.53358080          -0.91552720           0.49495680
    -0.66709520          -0.69713600           0.38051600
    -0.82302080          -0.57268160           0.17070800
    -0.92935600          -0.42104720          -0.05292880
    -1.03044480          -0.29945360          -0.31662000
    -1.15537680          -0.26178320          -0.63562400
    -1.18255600          -0.17690640          -0.89168560
    -1.14679360          -0.11825600          -1.10578560
    -1.12819680          -0.13399120          -1.38473520
    -0.99086800          -0.10776480          -1.64604160
    -0.84209440          -0.06866480          -1.86491040
    -0.75435600          -0.04434560          -2.08091760
    -0.63467040           0.03767040          -2.22969040
    -0.56982080           0.15878640          -2.29406320
    -0.52833520           0.26702880          -2.31981280
    -0.45490240           0.37622480          -2.30646160
    -0.37574800           0.43106080          -2.29263280
    -0.28228720           0.40578880          -2.30121600
    -0.18024480           0.30517600          -2.30693840
    -0.09155280           0.12016320          -2.32553520
    -0.04911440          -0.10156640          -2.32982640
    -0.04053120          -0.34761440          -2.29167920
    -0.04720720          -0.56600560          -2.19249760
    -0.05245200          -0.71382560          -2.03704800
    -0.02718000          -0.79441040          -1.82104080
     0.03480880          -0.83589520          -1.53446160
     0.12016320          -0.88834800          -1.20973600
     0.21982160          -0.95796560          -0.86641280
     0.31662000          -1.04570400          -0.57554240
     0.38051600          -1.14774720          -0.37145600
     0.36811840          -1.23548480          -0.24032560
     0.30183760          -1.27792320          -0.18358240
     0.20027200          -1.29652000          -0.18024480
     0.07295600          -1.26647920          -0.19407280
    -0.00381440          -1.17731120          -0.19979440
    -0.09250640          -1.10197040          -0.17976800
    -0.20694720          -1.02424640          -0.13542160
    -0.32520320          -0.95891920          -0.04911440
    -0.45919440          -0.93936960           0.09822880
    -0.56219120          -0.92554080           0.24890880
    -0.67138640          -0.93030960           0.38003920
    -0.77199920          -0.93460080           0.44965760
    -0.86641280          -0.89454640           0.45394880
    -0.94270720          -0.82206720           0.42772320
    -0.98276160          -0.70810320           0.38480720
    -1.03664400          -0.56171440           0.36859520
    -1.07955920          -0.40769600           0.35858160
    -1.11246080          -0.25796880           0.35905840
    -1.12199760          -0.12207040           0.35572080
    -1.11246080          -0.04339200           0.31375920
    -1.08623520          -0.04863760           0.22840480
    -1.03616720          -0.12970000           0.07915520
    -0.97846960          -0.29420880          -0.10156640
    -0.93936960          -0.52261360          -0.31232800
    -0.93650800          -0.79250320          -0.57458880
    -0.91981920          -1.04236640          -0.82969680
    -0.90456000          -1.23119360          -1.05142560
    -0.88071840          -1.37996640          -1.20306000
    -0.79965600          -1.47867200          -1.22308720
    -0.66089600          -1.56545600          -1.15776080
    -0.45871760          -1.66559200          -1.02090800
    -0.20885440          -1.76763520          -0.85067760
     0.04720720          -1.87873840          -0.68330800
     0.25796880          -1.94072720          -0.50401680
     0.42009360          -1.93023680          -0.34284560
     0.52022960          -1.84726720          -0.17738320
     0.56314480          -1.66606880          -0.05245200
     0.56838960          -1.45101520           0.03814720
     0.55074720          -1.19018560           0.17547600
     0.51546080          -0.89216240           0.28991680
     0.44345840          -0.61845760           0.39434400
     0.38528480          -0.30231440           0.55217760
     0.27799600          -0.02336480           0.70095040
     0.11539440           0.17976800           0.83065040
    -0.04243840           0.35905840           0.94366080
    -0.25701520           0.47492960           0.96893280
    -0.47969840           0.57077440           0.90503680
    -0.67663200           0.63324000           0.80013280
    -0.86927440           0.63705440           0.67329440
    -1.02186240           0.56171440           0.56171440
    -1.13153440           0.41246400           0.46777760
    -1.20210640           0.22983520           0.36430320
    -1.21164320          -0.01192080           0.24700160
    -1.18017200          -0.26559840           0.13113040
    -1.12485920          -0.51689120           0.03147120
    -1.02281600          -0.77676800          -0.07915520
    -0.90885200          -0.99229840          -0.19931760
    -0.81348400          -1.17206560          -0.35572080
    -0.69522880          -1.31654720          -0.54550160
    -0.55074720          -1.42002080          -0.73051440
    -0.40626560          -1.48630160          -0.90265280
    -0.22411360          -1.51920320          -1.00421920
    -0.01812000          -1.53684640          -1.06859200
     0.20265600          -1.54113760          -1.06382400
     0.45537920          -1.55258160          -0.95987280
     0.70858000          -1.56021120          -0.79202640
     0.95844240          -1.58834480          -0.53262720
     1.14774720          -1.61933920          -0.23222000
     1.27029440          -1.61457040           0.11014960
     1.32989920          -1.60026560           0.51832160
     1.31082560          -1.53064720           0.96559520
     1.25789680          -1.40333200           1.44243280
     1.17063520          -1.21593440           1.93929680
     1.08051280          -0.98466880           2.39706000
     0.99229840          -0.72956080           2.77757680
     0.85592240          -0.46253200           3.07655360
     0.68712240          -0.20074880           3.25679760
     0.49734080           0.07200240           3.30877280
     0.26226080           0.30088400           3.21483600
    -0.03719360           0.47206880           2.98833840
    -0.37860880           0.56886640           2.60686880
    -0.71716320           0.58746320           2.06851920
    -1.05142560           0.60129200           1.42860400
    -1.34992560           0.58698640           0.67710880
    -1.59597360           0.57983360          -0.11587120
    -1.82676320           0.58794000          -0.90265280
    -2.02131280           0.55789920          -1.65128720
    -2.16341040           0.51927600          -2.32076640
    -2.26402320           0.40340400          -2.91681280
    -2.32124320           0.19264240          -3.40318640
    -2.32505760          -0.06723440          -3.77225840
    -2.29692480          -0.38290000          -4.04071840
    -2.24733360          -0.69332160          -4.20331920
    -2.15911840          -0.94986000          -4.23860560
    -2.05326080          -1.14870080          -4.15897360
    -1.89113600          -1.28316880          -3.95870240
    -1.67512880          -1.35946240          -3.64017520
    -1.40237840          -1.40476240          -3.26919520
    -1.06954560          -1.43337280          -2.82621360
    -0.74911120          -1.47676480          -2.36606560
    -0.46491600          -1.52540240          -1.91497840
    -0.25510800          -1.55067440          -1.42955760
    -0.10156640          -1.55830400          -0.98276160
     0.00810640          -1.51348080          -0.56934320
     0.04720720          -1.42812720          -0.18692000
     0.06008160          -1.34897200           0.13923680
     0.07486320          -1.26075760           0.43916720
     0.07534000          -1.21974960           0.70142720
     0.03624000          -1.25741920           0.93698480
     0.01049040          -1.31893120           1.15537680
    -0.01239760          -1.40857680           1.31559360
    -0.09965920          -1.47008880           1.42288240
    -0.17404560          -1.49345360           1.46818160
    -0.18930400          -1.44815440           1.45959840
    -0.20742400          -1.29270560           1.38044320
    -0.20027200          -1.06191600           1.23643840
    -0.13780560          -0.71430240           1.11961360
    -0.07295600          -0.31900400           0.96940960
     0.00286080           0.08583040           0.83971040
     0.09202960           0.50735440           0.76103200
     0.16307840           0.89168560           0.66232720
     0.23078880           1.20067600           0.56505200
     0.30374560           1.39427200           0.43392160
     0.36478080           1.49106960           0.26798240
     0.41866320           1.52397120           0.05245200
     0.48875840           1.49393120          -0.21743760
     0.54645520           1.38998000          -0.52642800
     0.57935680           1.23691520          -0.82540480
     0.60749040           1.02758400          -1.10292400
     0.59413920           0.75244880          -1.36423120
     0.54454800           0.41723280          -1.59835840
     0.46968480           0.04053120          -1.82914720
     0.36430320          -0.30231440          -2.01082240
     0.22029840          -0.64182320          -2.14767440
     0.03814720          -0.95558160          -2.21776960
    -0.10204320          -1.20639840          -2.15959520
    -0.21886800          -1.46436720          -1.99127200
    -0.32138800          -1.72233600          -1.73950160
    -0.39577520          -1.96218480          -1.38521200
    -0.42772320          -2.17723840          -0.93650800
    -0.42343120          -2.36225120          -0.41341760
    -0.42772320          -2.53772720           0.14543520
    -0.38909920          -2.69699120           0.69141360
    -0.33903120          -2.80427920           1.18446320
    -0.25939920          -2.85291680           1.58023840
    -0.13446800          -2.85100960           1.87635440
     0.01335120          -2.77614560           2.06518160
     0.16260160          -2.67362560           2.18629840
     0.26226080          -2.58159600           2.24113440
     0.33044800          -2.49481200           2.25734720
     0.30088400          -2.44426720           2.22396880
     0.20790080          -2.37464880           2.13289280
     0.06389600          -2.27975840           1.99747120
    -0.11730160          -2.16388720           1.80530560
    -0.31709680          -1.99079520           1.65700880
    -0.57315840          -1.81722640           1.48248640
    -0.82445120          -1.62792240           1.30939520
    -1.08146640          -1.44004800           1.16682080
    -1.32703760          -1.28221520           1.01852400
    -1.57451600          -1.15156160           0.91552720
    -1.78909280          -1.03282960           0.82206720
    -1.93929680          -0.91600400           0.77772160
    -2.03514080          -0.79917920           0.76484720
    -2.02608080          -0.63943840           0.76341600
    -1.96313840          -0.46634640           0.74434320
    -1.82533280          -0.24223360           0.71048720
    -1.61266320          -0.00619920           0.64277680
    -1.39379520           0.22792800           0.50449360
    -1.19018560           0.47588320           0.32806400
    -1.01804720           0.67472480           0.04100800
    -0.86593600           0.89025520          -0.32568000
    -0.74911120           1.11579920          -0.75578720
    -0.63848480           1.32751440          -1.22022640
    -0.52785840           1.50012960          -1.65844000
    -0.45585600           1.61981600          -2.08568560
    -0.38242320           1.70183200          -2.47812240
    -0.31089760           1.75666800          -2.81000160
    -0.27990320           1.78194080          -3.03077680
    -0.25939920           1.76048240          -3.15332400
    -0.28705600           1.70707680          -3.16143040
    -0.34618400           1.60503360          -3.07083120
    -0.36334960           1.49297680          -2.90822960
    -0.39052960           1.35517120          -2.68125520
    -0.36382640           1.21450400          -2.42853200
    -0.26845920           1.11484560          -2.11429600
    -0.13494480           0.97942320          -1.72376640
     0.08535360           0.78058240          -1.28936800
     0.35524400           0.52738160          -0.85306160
     0.67424800           0.24700160          -0.43201440
     0.99945040          -0.06437280          -0.07677040
     1.31750080          -0.37002560           0.27418160
     1.61743200          -0.66804880           0.62751760
     1.83725360          -0.99420560           0.91123600
