SERVICIO GEOLOGICO COLOMBIANO- RED NACIONAL DE ACELEROGRAFOS DE COLOMBIA
SISMO DE CORDOBA (QUINDIO) 1999/01/25 18:19:17 ML=6.3
LATITUD DEL EVENTO(GRADOS): 4.439
LONGITUD DEL EVENTO(GRADOS): -75.698
PROFUNDIDAD DEL EVENTO (Km): 0
CODIGO DE LA ESTACION: CFLOR
Estacion:FLORENCIA Geol:ROCA Topo:ONDULADA
LATITUD DE LA ESTACION (GRADOS): 1.585
LONGITUD DE LA ESTACION (GRADOS): -75.656
DISTANCIA EPICENTRAL: 316.828 km
DISTANCIA HIPOCENTRAL: 316.828 km
INTERVALO DE MUESTREO (SEGUNDOS): 0.005
NUMERO DE DATOS: 7600
DURACION (SEGUNDOS): 38
UNIDADES: cm/s^2
TIPO DE EQUIPO: ETNA
ESCALA MAXIMA (G): 2
CORRECCION DE LINEA BASE: LINEA BASE NO REMOVIDA
TIPO DE DATOS: NO CORREGIDO
         EW                  VER                  NS
[...]
     0.69046000          -3.75461600           4.55427200
     0.65231360          -3.70740880           4.50468080
     0.66471120          -3.69596480           4.44412240
     0.63085520          -3.67736800           4.33731040
     0.59509280          -3.63779040           4.20522720
     0.60415280          -3.64542000           4.03928720
     0.63419360          -3.64017520           3.85284400
     0.62561040          -3.59630560           3.69024240
     0.65088240          -3.59964400           3.48758720
     0.72097760          -3.60298160           3.28540800
     0.75578720          -3.58057040           3.09944160
     0.82922000          -3.59439840           2.87580480
     0.95510480          -3.63779040           2.64978400
     1.08385120          -3.63683680           2.43043920
     1.24645200          -3.63731360           2.20346480
     1.48868560          -3.67260000           1.98841120
     1.76477440          -3.66830800           1.81341200
     2.00176240          -3.61442560           1.66082400
     2.27880480          -3.57532480           1.56259520
     2.55203280          -3.58581520           1.50203680
     2.75039680          -3.53956240           1.50394400
     2.92587280          -3.52478000           1.58309920
     3.07798400          -3.57866320           1.64938000
     3.17525840          -3.57389440           1.78146400
     3.18813360          -3.60584240           1.93691280
     3.22437280          -3.67546080           2.08473200
     3.23009520          -3.73029680           2.26926800
     3.13663520          -3.75175440           2.45237360
     3.04794320          -3.81374320           2.63738640
     2.94685360          -3.92055520           2.79998800
     2.79712640          -3.94439680           2.98976880
     2.60877600          -3.99160400           3.14569440
     2.46238720          -4.06408320           3.27920880
     2.28500400          -4.08792480           3.42082960
     2.06565840          -4.10652160           3.50809120
     1.92070000          -4.14943680           3.58486160
     1.78003280          -4.18138480           3.63826720
     1.59931200          -4.16612640           3.67832160
     1.42622000          -4.21190240           3.66258640
     1.32322320          -4.23812880           3.63826720
     1.16968160          -4.20904160           3.60393520
     0.99706640          -4.24003600           3.49617040
     0.93030960          -4.27103040           3.40890880
     0.81300720          -4.27484480           3.29446800
     0.66947920          -4.25958640           3.17764320
     0.59461600          -4.26960000           3.07703040
     0.51736800          -4.28867360           2.98786160
     0.37384000          -4.27484480           2.92921040
     0.26130640          -4.28390480           2.86769840
     0.18978080          -4.32491280           2.83145920
     0.03480880          -4.33826480           2.79331200
    -0.06961840          -4.31394560           2.76756320
    -0.12779200          -4.34732400           2.74181360
    -0.22172960          -4.35400000           2.71987920
    -0.32234160          -4.32968160           2.69222240
    -0.37479440          -4.37498080           2.64835360
    -0.38003920          -4.38880960           2.61926640
    -0.48446640          -4.38213360           2.55155600
    -0.51975280          -4.39643840           2.49385840
    -0.47302240          -4.39977680           2.42233280
    -0.51260000          -4.34684720           2.34413120
    -0.51450720          -4.27770640           2.28452720
    -0.45919440          -4.23479120           2.20489520
    -0.41675600          -4.13084000           2.17390080
    -0.37670160          -3.99255760           2.14672080
    -0.26941280          -3.88765360           2.11954080
    -0.15592560          -3.78084160           2.09093120
    -0.07152560          -3.61776320           2.07138080
     0.05531280          -3.49235520           2.08330160
     0.20217920          -3.40890880           2.10142160
     0.31709680          -3.27158000           2.15959520
     0.40149680          -3.18384160           2.20489520
     0.53596480          -3.12900560           2.27785120
     0.64706800          -3.04889680           2.40373600
     0.71811680          -3.01218000           2.53868080
     0.85592240          -3.02219360           2.67028800
     1.00994080          -3.02267040           2.79712640
     1.14631680          -2.99978240           2.94828400
     1.32799120          -3.01790240           3.06606320
     1.55973440          -3.03602240           3.17955040
     1.74903840          -3.01027280           3.30352800
     1.91068640          -3.02839280           3.38411360
     2.12097200          -3.07321520           3.44276400
     2.33316400          -3.05557280           3.50427600
     2.45189680          -3.08418240           3.51858160
     2.53963440          -3.16953680           3.46136080
     2.66695040          -3.18336480           3.43227360
     2.69412960          -3.20768320           3.37457680
     2.66742720          -3.29208400           3.23629360
     2.69985200          -3.34596640           3.13568080
     2.63404880          -3.37457680           3.05175760
     2.48527520          -3.44371760           2.93731680
     2.43330000          -3.50284560           2.87199040
     2.34079360          -3.51333600           2.85339360
     2.14147600          -3.54003920           2.81286240
     2.07185760          -3.55672800           2.80427920
     2.03847920          -3.51858160           2.85339360
     1.89399680          -3.49807760           2.85291680
     1.84249840          -3.47089760           2.85720800
     1.87826160          -3.39031200           2.91013680
     1.81102720          -3.31735600           2.92778000
     1.76477440          -3.23200240           2.97069520
     1.81293520          -3.17239760           3.04555920
     1.78909280          -3.10802480           3.15189360
     1.74903840          -3.01027280           3.27205680
     1.73997840          -2.97737120           3.38172880
     1.68180480          -2.93207200           3.53622400
     1.59120560          -2.87771200           3.68452080
     1.47533440          -2.88486480           3.80182240
     1.37090720          -2.88486480           3.89480560
     1.22022640          -2.86340720           3.95202640
     1.01137200          -2.89630880           3.92770800
     0.87022800          -2.95972800           3.86476480
     0.73242160          -2.97546400           3.78990160
     0.55980720          -2.99739840           3.66067920
     0.43582880          -3.06034080           3.50809120
     0.35762800          -3.10277920           3.34596640
     0.26893600          -3.13425040           3.20386880
     0.19979440          -3.22294240           3.03363840
     0.20742400          -3.33213840           2.87056000
     0.20790080          -3.42178320           2.73466080
     0.24938560          -3.54003920           2.57539760
     0.41484800          -3.69834880           2.44236000
     0.57172800          -3.82280320           2.30836880
     0.74863440          -3.93629040           2.17103920
     1.02567680          -4.08411040           2.03800240
     1.32513040          -4.18663040           1.95264800
     1.59120560          -4.25338720           1.92070000
     1.86109520          -4.34112560           1.93738960
     2.16484080          -4.41503520           2.05802880
     2.37512560          -4.45032080           2.23159760
     2.52676000          -4.48846800           2.46048000
     2.71463360          -4.54044320           2.73180000
     2.83622720          -4.56810000           3.01361120
     2.85482400          -4.58765040           3.31163440
     2.84194960          -4.62388960           3.57532480
     2.80332560          -4.65059280           3.77941120
     2.61688240          -4.64057920           3.94058240
     2.38895440          -4.63294960           4.06026880
     2.17294720          -4.62532080           4.10461440
     1.83820720          -4.56190080           4.07505040
     1.52921680          -4.48226960           3.98063680
     1.30558000          -4.42028080           3.79657760
     1.08814240          -4.30345520           3.55434400
     0.89550000          -4.13322480           3.25727440
     0.79917920          -3.99446480           2.89726240
     0.75960160          -3.84092320           2.54011120
     0.70285760          -3.64303600           2.19440480
     0.68521520          -3.49092480           1.88589120
     0.68855280          -3.36074800           1.65081040
     0.66661840          -3.19576240           1.48057920
     0.63467040          -3.07321520           1.35898560
     0.64563760          -2.99882880           1.30748720
     0.65135920          -2.92921040           1.33419040
     0.62274960          -2.88343440           1.38664240
     0.66041920          -2.88152720           1.48582480
     0.68187680          -2.92015040           1.63364400
     0.63419360          -2.95114480           1.81007360
     0.62847120          -3.05557280           1.98173520
     0.65755840          -3.18622560           2.20298800
     0.64134560          -3.26776480           2.47621520
     0.60415280          -3.40890880           2.71511040
     0.63276320          -3.56960320           3.01408800
     0.66614160          -3.70073280           3.32593920
     0.66900240          -3.83281680           3.60441200
     0.74529680          -4.01067760           3.86810320
     0.84400160          -4.17470960           4.09889200
     0.91886560          -4.31489920           4.28867360
     1.04856480          -4.50849520           4.41026720
     1.22070320          -4.68826320           4.51326400
     1.35803200          -4.84275840           4.54998000
     1.49297680          -4.99105440           4.51803200
     1.70183200          -5.14984160           4.44316880
     1.88255280          -5.28001760           4.30965440
     1.99794800          -5.35917280           4.12654880
     2.17103920          -5.46646080           3.89194480
     2.34699280          -5.54656960           3.65352640
     2.46000320          -5.55753680           3.41892240
     2.59399440          -5.57470320           3.19480880
     2.75754960          -5.58710080           3.01980960
     2.87389760          -5.52845040           2.89630880
     2.94923760          -5.48362720           2.80714000
     3.10468640          -5.45072560           2.78854400
     3.22055840          -5.35488160           2.83193600
     3.20911440          -5.28240240           2.88677200
     3.25679760          -5.23853280           2.97975520
     3.26252000          -5.18512720           3.07703040
     3.15237040          -5.12409200           3.18431840
     3.03173040          -5.10072720           3.29685200
     2.87675840          -5.11312480           3.39365040
     2.66838080          -5.08165360           3.52001200
     2.40659680          -5.07164000           3.61490240
     2.17247040          -5.10358800           3.70931600
     1.93977360          -5.09882000           3.83949280
     1.68180480          -5.08737600           3.92961520
     1.51824960          -5.10501840           4.00352480
     1.38187440          -5.10978720           4.06599040
     1.25408160          -5.07354720           4.09364720
     1.21402720          -5.06210320           4.08983200
     1.20496720          -5.08737600           4.06169920
     1.17588080          -5.05733520           4.05979120
     1.14250160          -5.05590400           4.03213520
     1.13964080          -5.09786640           3.97872960
     1.11436880          -5.08642160           3.96871600
     1.02710720          -5.08594480           3.92580000
     0.94556800          -5.13267520           3.87048720
     0.86259840          -5.17368320           3.83567840
     0.72145440          -5.17416000           3.78036480
     0.60749040          -5.22708880           3.69787200
     0.54168720          -5.29766080           3.60250480
     0.43869040          -5.30099840           3.50141520
     0.39243680          -5.31244240           3.36313280
     0.44107440          -5.34152960           3.20625280
     0.50926240          -5.34152960           3.05271120
     0.60510640          -5.29098480           2.89058720
     0.79393360          -5.26523600           2.71701840
     1.04570400          -5.21230720           2.54297280
     1.24406800          -5.10311120           2.36463520
     1.48725520          -5.03158560           2.16150320
     1.78050960          -4.94289360           1.95026400
     2.00033200          -4.82892960           1.70803040
     2.19154320          -4.77314000           1.41906720
     2.43949920          -4.74500640           1.11913680
     2.66122800          -4.66394400           0.82540480
     2.76422480          -4.61244560           0.49686400
     2.90298480          -4.60481680           0.13971360
     3.02600880          -4.55856320          -0.16021760
     3.02696240          -4.49705120          -0.42820000
     3.02553200          -4.44507600          -0.69618240
     3.03745280          -4.38737840          -0.91266640
     2.97164880          -4.28867360          -1.07002240
     2.84194960          -4.20284240          -1.18112560
     2.77376160          -4.12893280          -1.23405440
     2.64024720          -4.02021440          -1.19924560
     2.40516640          -3.93009200          -1.08718880
     2.23064400          -3.87668640          -0.89406960
     2.01892880          -3.82900240          -0.60033760
     1.70278560          -3.79085520          -0.25653840
     1.42955760          -3.81708160           0.15640240
     1.20925920          -3.88097760           0.62370320
     0.93793840          -3.96156320           1.09386480
     0.70190400          -4.07695760           1.55830400
     0.57983360          -4.23765200           1.98554960
     0.48494320          -4.42838640           2.39658320
     0.38051600          -4.60386240           2.75707280
     0.37288640          -4.84561920           3.04555920
     0.42390800          -5.11980080           3.31211120
     0.41961680          -5.34772880           3.58200080
     0.49304960          -5.61857200           3.83758560
     0.63085520          -5.89847600           4.09555440
     0.70714960          -6.12735760           4.38308720
     0.81014640          -6.34145760           4.65726880
     0.96082720          -6.55555760           4.90999200
     1.08814240          -6.70576080           5.14316560
     1.17921840          -6.79779040           5.32054880
     1.28269200          -6.91032400           5.40399520
     1.38425840          -6.97040560           5.43069840
     1.41000720          -6.95037840           5.39350480
     1.43861760          -6.91509280           5.27238880
     1.50871280          -6.81877120           5.11264800
     1.52874000          -6.64281840           4.91571440
     1.53493920          -6.41155280           4.70685920
     1.60503360          -6.12592720           4.50372720
     1.65414800          -5.79309440           4.30202480
     1.64222720          -5.41257840           4.08363360
     1.66988400          -5.04636800           3.84616880
     1.69754000          -4.68015680           3.61394880
     1.64365760          -4.28390480           3.36980800
     1.60598720          -3.95584080           3.12376000
     1.59263600          -3.65400320           2.88486480
     1.49345360          -3.34548960           2.67314880
     1.35564800          -3.10277920           2.48384480
     1.27410880          -2.91299840           2.31838240
     1.16777440          -2.75516480           2.21061680
     1.00135840          -2.64263120           2.12717040
     0.89883840          -2.59876240           2.07042720
     0.82016000          -2.59685520           2.04896960
     0.71573280          -2.59923920           2.04038640
     0.67043280          -2.66981120           2.04849280
     0.68187680          -2.80094160           2.09808320
     0.66661840          -2.92634960           2.19202080
     0.64611440          -3.09944160           2.31981280
     0.71620960          -3.30781920           2.51531600
     0.76484720          -3.51095200           2.76136400
     0.77867520          -3.72695920           3.02362480
     0.87070480          -3.94248960           3.31258800
     0.94318400          -4.14991360           3.61442560
     0.96273440          -4.31966800           3.88431520
     0.99992720          -4.47702400           4.12607200
     1.04141200          -4.64582480           4.35876880
     1.00135840          -4.75454320           4.55236400
     0.93603120          -4.84561920           4.69017040
     0.90503680          -4.93001920           4.78935280
     0.82111360          -4.94337120           4.87232240
     0.70047360          -4.93764880           4.89378000
     0.58889360          -4.93669520           4.84609600
     0.48637360          -4.91237680           4.77647760
     0.36096560          -4.84514240           4.66585120
     0.28371840          -4.79984320           4.52041600
     0.28800960          -4.78458400           4.38308720
     0.25224720          -4.72545600           4.25577200
     0.24986240          -4.70972080           4.11558160
     0.33569360          -4.72831760           4.00495520
     0.42724640          -4.71210480           3.95059600
     0.52070640          -4.69541520           3.91674080
     0.70047360          -4.71067440           3.88813040
     0.94270720          -4.72307200           3.89003760
     1.13868720          -4.68587840           3.89671360
     1.38235120          -4.66775920           3.85236720
     1.69134160          -4.62722800           3.80659120
     1.97124480          -4.51374080           3.73506560
     2.25448640          -4.40835920           3.59058400
     2.57158240          -4.29916400           3.43513520
     2.85530080          -4.12750240           3.27444080
     3.06701680          -3.91721760           3.09276560
     3.28397760          -3.72552880           2.93064080
     3.44705600          -3.52478000           2.81095520
     3.47042080          -3.29971280           2.72130960
     3.47232800          -3.10945520           2.65836720
     3.45134720          -2.95448320           2.61354480
     3.31735600          -2.79664960           2.58493440
     3.14760240          -2.66075120           2.55012480
     2.98881520          -2.60114640           2.51579280
     2.78949760          -2.52580640           2.49433520
     2.54297280          -2.45237360           2.45475760
     2.34556160          -2.47812240           2.41661040
     2.19440480          -2.49052080           2.39229200
     1.98650400          -2.52103840           2.36558880
     1.82771680          -2.61926640           2.36129760
     1.77145040          -2.70271280           2.35939040
     1.69849360          -2.78043760           2.32315040
     1.64175040          -2.86579120           2.28929520
