SERVICIO GEOLOGICO COLOMBIANO- RED NACIONAL DE ACELEROGRAFOS DE COLOMBIA
SISMO DE CORDOBA (QUINDIO) 1999/01/25 18:19:17 ML=6.3
LATITUD DEL EVENTO(GRADOS): 4.439
LONGITUD DEL EVENTO(GRADOS): -75.698
PROFUNDIDAD DEL EVENTO (Km): 0
CODIGO DE LA ESTACION: CCALI
Estacion:CALI Geol:SUELO Topo:PLANA
LATITUD DE LA ESTACION (GRADOS): 3.4941
LONGITUD DE LA ESTACION (GRADOS): -76.517
DISTANCIA EPICENTRAL: 138.799 km
DISTANCIA HIPOCENTRAL: 138.799 km
INTERVALO DE MUESTREO (SEGUNDOS): 0.005
NUMERO DE DATOS: 18432
DURACION (SEGUNDOS): 92.16
UNIDADES: cm/s^2
TIPO DE EQUIPO: SSA
ESCALA MAXIMA (G): 1
CORRECCION DE LINEA BASE: LINEA BASE NO REMOVIDA
TIPO DE DATOS: NO CORREGIDO
         EW                  VER                  NS
[...]
    -4.39453120          -3.90625000           2.44140640
    -5.37109360          -3.41796880           2.44140640
    -6.34765640          -2.92968760           1.95312480
    -7.32421880          -2.92968760           1.46484360
    -8.30078120          -2.92968760           0.97656240
    -8.78906240          -3.41796880           0.00000000
    -9.27734360          -3.90625000          -0.97656240
    -9.76562480          -4.39453120          -1.95312480
    -9.76562480          -4.39453120          -2.92968760
    -9.76562480          -4.88281240          -4.39453120
    -9.27734360          -4.88281240          -5.37109360
    -8.78906240          -4.39453120          -6.34765640
    -8.30078120          -4.39453120          -7.32421880
    -7.81250000          -3.90625000          -7.81250000
    -6.83593760          -3.41796880          -7.81250000
    -5.85937520          -2.92968760          -7.81250000
    -4.88281240          -1.95312480          -7.81250000
    -3.90625000          -0.97656240          -7.32421880
    -3.41796880          -0.48828120          -6.34765640
    -2.92968760           0.48828120          -5.37109360
    -2.44140640           0.97656240          -4.39453120
    -2.44140640           1.46484360          -2.92968760
    -2.92968760           1.46484360          -1.95312480
    -2.92968760           1.95312480          -0.48828120
    -3.41796880           1.95312480           0.97656240
    -3.90625000           1.95312480           1.46484360
    -4.39453120           1.95312480           2.44140640
    -4.88281240           1.95312480           2.92968760
    -4.88281240           1.95312480           3.41796880
    -5.37109360           1.95312480           3.90625000
    -5.37109360           2.44140640           4.39453120
    -4.88281240           2.44140640           4.88281240
    -4.88281240           2.44140640           5.37109360
    -4.39453120           2.92968760           5.85937520
    -4.39453120           2.44140640           6.34765640
    -4.39453120           2.44140640           6.83593760
    -3.90625000           1.95312480           7.32421880
    -3.41796880           1.46484360           7.32421880
    -3.41796880           0.97656240           7.81250000
    -2.92968760           0.48828120           7.81250000
    -2.44140640          -0.48828120           7.32421880
    -1.95312480          -1.46484360           7.32421880
    -1.46484360          -2.44140640           7.32421880
    -0.97656240          -2.92968760           6.83593760
    -0.48828120          -3.90625000           6.34765640
     0.00000000          -4.39453120           5.37109360
     0.48828120          -4.88281240           4.88281240
     0.97656240          -5.37109360           4.39453120
     1.46484360          -5.37109360           3.41796880
     1.95312480          -5.37109360           3.41796880
     1.95312480          -5.37109360           2.44140640
     1.95312480          -4.88281240           1.95312480
     2.44140640          -4.88281240           1.46484360
     2.44140640          -4.39453120           0.97656240
     2.44140640          -4.39453120           0.97656240
     2.44140640          -4.39453120           0.00000000
     2.92968760          -3.90625000          -0.48828120
     2.92968760          -3.90625000          -0.97656240
     3.41796880          -3.41796880          -1.46484360
     3.90625000          -2.92968760          -2.44140640
     4.39453120          -2.44140640          -3.41796880
     4.88281240          -2.44140640          -3.90625000
     5.37109360          -1.95312480          -4.88281240
     5.85937520          -1.95312480          -5.85937520
     6.34765640          -1.95312480          -6.34765640
     7.32421880          -1.95312480          -7.32421880
     7.81250000          -1.95312480          -7.81250000
     8.30078120          -2.44140640          -8.30078120
     8.78906240          -2.92968760          -8.30078120
     9.27734360          -3.41796880          -8.78906240
     9.76562480          -3.90625000          -8.78906240
    10.74218760          -4.88281240          -9.27734360
    10.74218760          -5.37109360          -9.76562480
    11.23046880          -6.34765640         -10.25390640
    11.23046880          -7.32421880         -10.25390640
    11.23046880          -8.30078120         -11.23046880
    10.74218760          -8.78906240         -11.23046880
     9.76562480          -8.78906240         -11.71875000
     8.78906240          -8.78906240         -12.20703120
     7.81250000          -8.78906240         -12.69531240
     5.85937520          -8.78906240         -13.18359360
     4.39453120          -8.78906240         -13.18359360
     1.95312480          -8.78906240         -13.18359360
    -0.48828120          -8.78906240         -13.18359360
    -2.92968760          -8.78906240         -13.18359360
    -5.37109360          -8.78906240         -13.18359360
    -7.81250000          -8.30078120         -12.69531240
    -9.76562480          -8.30078120         -12.20703120
   -11.71875000          -7.81250000         -12.20703120
   -13.18359360          -7.32421880         -11.23046880
   -14.64843760          -7.32421880         -10.74218760
   -15.62500000          -6.34765640          -9.76562480
   -16.11328120          -5.85937520          -8.78906240
   -16.60156240          -5.37109360          -7.81250000
   -16.60156240          -4.39453120          -6.34765640
   -17.08984360          -3.90625000          -5.37109360
   -16.60156240          -3.41796880          -3.41796880
   -16.11328120          -2.92968760          -1.95312480
   -15.62500000          -2.92968760           0.00000000
   -14.64843760          -2.44140640           1.46484360
   -13.67187520          -2.44140640           2.92968760
   -12.69531240          -1.95312480           4.39453120
   -11.71875000          -1.46484360           4.88281240
   -10.25390640          -0.97656240           5.37109360
    -9.27734360           0.00000000           5.85937520
    -8.30078120           0.48828120           5.85937520
    -6.83593760           0.48828120           5.85937520
    -5.85937520           0.97656240           5.37109360
    -4.88281240           0.48828120           4.88281240
    -3.90625000           0.48828120           3.90625000
    -2.92968760           0.48828120           2.92968760
    -1.95312480           0.48828120           2.44140640
    -0.97656240           0.48828120           1.46484360
     0.00000000           0.00000000           0.00000000
     0.97656240           0.00000000          -0.97656240
     1.95312480          -0.48828120          -2.44140640
     2.92968760          -0.48828120          -3.41796880
     3.90625000          -0.48828120          -4.39453120
     4.88281240          -0.48828120          -5.85937520
     5.85937520          -0.48828120          -6.83593760
     6.83593760          -0.48828120          -8.30078120
     7.81250000           0.00000000          -9.27734360
     8.30078120           0.00000000         -10.25390640
     9.27734360           0.48828120         -11.23046880
     9.76562480           0.48828120         -12.20703120
     9.76562480           0.48828120         -13.18359360
     9.76562480           0.97656240         -14.16015640
     9.27734360           0.97656240         -14.64843760
     9.27734360           0.48828120         -15.13671880
     8.78906240           0.48828120         -15.62500000
     8.30078120           0.48828120         -16.11328120
     8.30078120           0.48828120         -16.11328120
     8.30078120           0.48828120         -16.60156240
     7.81250000           0.00000000         -16.60156240
     8.30078120           0.00000000         -17.08984360
     8.30078120          -0.48828120         -17.08984360
     8.30078120          -0.97656240         -17.08984360
     8.30078120          -1.46484360         -17.08984360
     8.30078120          -2.44140640         -17.08984360
     7.81250000          -3.41796880         -16.60156240
     7.81250000          -4.39453120         -15.62500000
     6.83593760          -5.85937520         -15.13671880
     6.34765640          -6.83593760         -14.16015640
     5.85937520          -7.81250000         -13.18359360
     5.37109360          -8.30078120         -12.20703120
     4.88281240          -9.27734360         -11.23046880
     4.39453120          -9.76562480         -10.25390640
     3.90625000         -10.25390640          -8.78906240
     3.41796880         -10.74218760          -7.81250000
     2.92968760         -10.74218760          -6.34765640
     2.44140640         -10.74218760          -5.37109360
     2.44140640         -10.74218760          -3.90625000
     1.95312480         -10.74218760          -2.92968760
     1.46484360         -11.23046880          -1.95312480
     1.46484360         -11.23046880          -0.97656240
     0.48828120         -11.23046880          -0.48828120
     0.48828120         -11.23046880           0.48828120
     0.00000000         -11.23046880           0.48828120
    -0.97656240         -11.23046880           0.97656240
    -1.46484360         -11.23046880           1.46484360
    -1.95312480         -11.23046880           1.46484360
    -2.44140640         -10.74218760           1.46484360
    -2.92968760         -10.25390640           1.95312480
    -3.41796880          -9.76562480           1.46484360
    -3.90625000          -9.27734360           1.46484360
    -3.90625000          -8.78906240           1.46484360
    -3.90625000          -8.30078120           0.97656240
    -3.90625000          -7.81250000           0.00000000
    -3.90625000          -7.32421880          -0.48828120
    -3.90625000          -6.83593760          -1.46484360
    -3.90625000          -6.83593760          -1.95312480
    -3.90625000          -6.83593760          -2.92968760
    -3.90625000          -6.83593760          -3.41796880
    -3.90625000          -7.32421880          -3.41796880
    -4.39453120          -7.32421880          -3.90625000
    -4.88281240          -7.81250000          -3.90625000
    -5.37109360          -7.32421880          -3.90625000
    -5.85937520          -7.32421880          -3.90625000
    -6.34765640          -7.32421880          -3.90625000
    -6.83593760          -6.83593760          -3.90625000
    -7.32421880          -6.83593760          -3.90625000
    -7.81250000          -6.83593760          -4.39453120
    -8.30078120          -6.83593760          -4.39453120
    -8.78906240          -6.34765640          -4.88281240
    -9.27734360          -5.85937520          -5.37109360
    -9.76562480          -5.37109360          -6.34765640
    -9.76562480          -4.88281240          -7.32421880
   -10.25390640          -4.39453120          -7.81250000
   -10.25390640          -3.41796880          -8.30078120
   -10.25390640          -2.92968760          -9.27734360
   -10.74218760          -2.44140640          -9.76562480
   -10.74218760          -2.44140640         -10.25390640
   -10.74218760          -2.44140640         -10.25390640
   -10.74218760          -2.44140640         -10.25390640
   -10.74218760          -2.44140640         -10.25390640
   -10.25390640          -2.44140640         -10.25390640
   -10.25390640          -2.92968760         -10.25390640
   -10.25390640          -2.92968760         -10.25390640
    -9.76562480          -2.92968760          -9.76562480
    -9.76562480          -2.44140640          -9.76562480
    -9.27734360          -1.95312480          -9.27734360
    -9.27734360          -1.95312480          -8.78906240
    -8.30078120          -1.46484360          -8.30078120
    -7.81250000          -1.46484360          -7.81250000
    -7.32421880          -1.46484360          -6.83593760
    -6.83593760          -1.46484360          -5.85937520
    -6.34765640          -0.97656240          -4.88281240
    -5.85937520          -0.97656240          -3.90625000
    -5.85937520          -0.48828120          -2.44140640
    -5.37109360          -0.48828120          -0.97656240
    -4.88281240           0.00000000           0.48828120
    -4.88281240           0.00000000           1.46484360
    -4.39453120           0.48828120           2.44140640
    -4.39453120           0.48828120           2.92968760
    -3.90625000           0.48828120           3.41796880
    -2.92968760           0.97656240           3.41796880
    -2.44140640           0.97656240           2.92968760
    -1.46484360           1.46484360           2.44140640
     0.48828120           1.46484360           1.46484360
     1.95312480           1.95312480           0.97656240
     3.41796880           2.44140640          -0.48828120
     5.37109360           2.44140640          -1.46484360
     7.32421880           2.44140640          -2.92968760
     9.27734360           2.44140640          -4.39453120
    11.71875000           1.95312480          -5.85937520
    13.67187520           1.46484360          -7.32421880
    15.13671880           0.97656240          -9.27734360
    17.08984360           0.00000000         -10.74218760
    18.55468760          -0.97656240         -12.20703120
    19.53125000          -1.46484360         -14.16015640
    20.50781240          -2.44140640         -15.62500000
    21.48437520          -2.92968760         -16.60156240
    21.97265640          -2.92968760         -18.06640640
    21.97265640          -2.92968760         -19.04296880
    21.97265640          -2.92968760         -20.01953120
    21.48437520          -2.92968760         -20.50781240
    20.99609360          -2.92968760         -20.99609360
    20.01953120          -2.92968760         -20.99609360
    19.04296880          -3.41796880         -20.99609360
    17.57812480          -3.90625000         -20.99609360
    16.11328120          -3.90625000         -20.50781240
    14.16015640          -4.39453120         -19.53125000
    12.69531240          -3.90625000         -18.55468760
    10.74218760          -3.90625000         -17.57812480
     8.78906240          -3.41796880         -16.11328120
     6.83593760          -2.92968760         -14.64843760
     4.88281240          -2.44140640         -13.18359360
     3.41796880          -1.95312480         -11.23046880
     1.95312480          -1.46484360          -9.27734360
     0.48828120          -1.46484360          -7.32421880
    -0.97656240          -1.95312480          -5.85937520
    -1.95312480          -1.95312480          -4.39453120
    -2.92968760          -2.44140640          -2.44140640
    -3.41796880          -2.44140640          -0.97656240
    -4.39453120          -2.44140640           0.00000000
    -4.88281240          -2.44140640           0.97656240
    -5.37109360          -2.92968760           1.95312480
    -5.85937520          -2.44140640           2.44140640
    -6.34765640          -2.92968760           2.92968760
    -6.83593760          -2.92968760           2.92968760
    -7.32421880          -2.92968760           2.44140640
    -7.81250000          -2.92968760           2.44140640
    -7.81250000          -2.92968760           1.95312480
    -7.81250000          -2.92968760           1.46484360
    -8.30078120          -2.92968760           0.97656240
    -8.30078120          -2.92968760           0.48828120
    -8.30078120          -2.92968760           0.00000000
    -8.78906240          -2.92968760          -0.48828120
    -8.78906240          -2.92968760          -1.46484360
    -8.78906240          -2.92968760          -2.44140640
    -8.78906240          -2.92968760          -3.41796880
    -8.78906240          -3.41796880          -4.39453120
    -8.78906240          -3.41796880          -5.37109360
    -9.27734360          -3.41796880          -6.34765640
    -9.27734360          -3.41796880          -7.81250000
    -9.27734360          -3.41796880          -8.30078120
    -9.27734360          -2.92968760          -9.27734360
    -9.27734360          -2.44140640         -10.25390640
    -9.76562480          -2.44140640         -10.74218760
   -10.25390640          -1.95312480         -11.23046880
   -10.25390640          -1.95312480         -11.71875000
   -10.74218760          -1.95312480         -11.71875000
   -10.74218760          -1.95312480         -11.71875000
   -11.23046880          -2.44140640         -11.71875000
   -11.23046880          -2.44140640         -11.71875000
   -11.23046880          -2.44140640         -11.71875000
   -10.74218760          -2.44140640         -11.23046880
   -10.25390640          -2.44140640         -11.23046880
    -9.27734360          -2.92968760         -10.74218760
    -8.78906240          -2.92968760         -10.25390640
    -7.81250000          -2.92968760         -10.25390640
    -6.83593760          -2.92968760          -9.76562480
    -5.85937520          -2.92968760          -9.27734360
    -4.39453120          -2.44140640          -8.78906240
    -3.41796880          -2.44140640          -8.78906240
    -2.44140640          -1.95312480          -8.30078120
    -1.46484360          -1.46484360          -8.30078120
     0.00000000          -0.48828120          -7.81250000
     1.46484360           0.48828120          -7.81250000
     2.44140640           0.97656240          -8.30078120
     3.90625000           1.46484360          -8.30078120
     5.37109360           1.95312480          -8.78906240
     6.34765640           2.44140640          -9.27734360
     7.32421880           1.95312480          -9.27734360
     8.30078120           1.95312480          -9.76562480
     9.27734360           0.97656240         -10.25390640
     9.27734360           0.48828120         -10.25390640
     9.76562480           0.00000000         -10.74218760
    10.25390640          -0.97656240         -10.74218760
    10.25390640          -1.46484360         -10.74218760
    10.74218760          -1.95312480         -10.25390640
    11.23046880          -2.44140640          -9.27734360
    11.23046880          -2.92968760          -8.30078120
    12.20703120          -3.41796880          -7.32421880
    12.69531240          -3.41796880          -6.34765640
    13.67187520          -3.41796880          -5.37109360
    14.64843760          -3.41796880          -3.90625000
    16.11328120          -3.41796880          -2.44140640
    17.08984360          -3.41796880          -1.46484360
    18.06640640          -3.41796880           0.00000000
    18.55468760          -3.41796880           0.97656240
    19.04296880          -3.41796880           1.95312480
    19.53125000          -3.90625000           2.92968760
    19.53125000          -4.39453120           3.41796880
    19.04296880          -4.88281240           3.90625000
    19.04296880          -4.88281240           3.90625000
    18.06640640          -4.88281240           3.90625000
    17.57812480          -4.88281240           3.90625000
    16.60156240          -4.39453120           3.41796880
    16.11328120          -4.39453120           2.44140640
    15.13671880          -4.39453120           1.95312480
    14.16015640          -4.39453120           1.46484360
