SERVICIO GEOLOGICO COLOMBIANO- RED NACIONAL DE ACELEROGRAFOS DE COLOMBIA
SISMO DE CORDOBA (QUINDIO) 1999/01/25 18:19:17 ML=6.3
LATITUD DEL EVENTO(GRADOS): 4.439
LONGITUD DEL EVENTO(GRADOS): -75.698
PROFUNDIDAD DEL EVENTO (Km): 0
CODIGO DE LA ESTACION: CROSA
Estacion:EL  ROSAL Geol:ROCA Topo:ONDULADA
LATITUD DE LA ESTACION (GRADOS): 4.848
LONGITUD DE LA ESTACION (GRADOS): -74.321
DISTANCIA EPICENTRAL: 159.447 km
DISTANCIA HIPOCENTRAL: 159.447 km
INTERVALO DE MUESTREO (SEGUNDOS): 0.005
NUMERO DE DATOS: 4200
DURACION (SEGUNDOS): 21
UNIDADES: cm/s^2
TIPO DE EQUIPO: ETNA
ESCALA MAXIMA (G): 2
CORRECCION DE LINEA BASE: LINEA BASE NO REMOVIDA
TIPO DE DATOS: NO CORREGIDO
         EW                  VER                  NS
[...]
    -1.68180480           1.43861760           2.37274160
    -1.63650480           1.41954400           2.34651600
    -1.61504720           1.42049760           2.33411760
    -1.59740480           1.39904000           2.31933600
    -1.55496560           1.40380880           2.30455360
    -1.54018400           1.39141120           2.26736080
    -1.51729600           1.35135680           2.24494960
    -1.45149200           1.37853600           2.25400960
    -1.42002080           1.37805920           2.23970400
    -1.40333200           1.35278720           2.23588960
    -1.37329120           1.35707840           2.21633920
    -1.36995280           1.34229680           2.19154320
    -1.34420400           1.33943520           2.21586240
    -1.30319600           1.34086640           2.21252480
    -1.28078480           1.34468080           2.22015360
    -1.27124800           1.35469440           2.22730640
    -1.26075760           1.35183360           2.22396880
    -1.24216080           1.34658800           2.24971760
    -1.21641120           1.36375440           2.26259200
    -1.21116640           1.37519840           2.27594400
    -1.21068960           1.37042960           2.28834160
    -1.17635760           1.40190160           2.32696560
    -1.18064880           1.41000720           2.35462160
    -1.17683440           1.41763680           2.37321840
    -1.15966800           1.44577040           2.41136560
    -1.17588080           1.44195520           2.42424000
    -1.19256960           1.45435360           2.44140640
    -1.20782880           1.48630160           2.48241440
    -1.20019920           1.51109680           2.52866720
    -1.21688880           1.52349440           2.55441680
    -1.24406800           1.53398480           2.57539760
    -1.25646560           1.55019760           2.60353120
    -1.27220160           1.54733680           2.63118720
    -1.26791040           1.56354880           2.68697760
    -1.28412240           1.58071520           2.71940240
    -1.33132960           1.56688720           2.71606480
    -1.35088000           1.58596000           2.74372080
    -1.36661520           1.58977520           2.77948400
    -1.40714640           1.55878080           2.78949760
    -1.41811360           1.55687360           2.80952480
    -1.42335920           1.57022480           2.84481040
    -1.45101520           1.56593360           2.85100960
    -1.45053840           1.56497920           2.89058720
    -1.45530720           1.56259520           2.93064080
    -1.46961200           1.55592000           2.93874720
    -1.47485760           1.57737760           2.97069520
    -1.48725520           1.57117840           2.96878800
    -1.48248640           1.55305840           2.98166240
    -1.48868560           1.55448880           3.00502800
    -1.48773200           1.55639680           3.00502800
    -1.50108320           1.54829040           3.00836560
    -1.49202320           1.56784080           3.04126720
    -1.45673760           1.59025200           3.06320160
    -1.47819520           1.56688720           3.03077680
    -1.47056560           1.57499280           3.04460560
    -1.47247280           1.56641040           3.03649920
    -1.46579760           1.55496560           3.01790240
    -1.43909440           1.57356240           3.03840640
    -1.44672400           1.56927120           3.01742560
    -1.42335920           1.56211840           3.01027280
    -1.40285520           1.56497920           3.01218000
    -1.39379520           1.56307200           2.98786160
    -1.37662880           1.55687360           2.98213920
    -1.35326400           1.56641040           2.96878800
    -1.35040320           1.55115120           2.93493280
    -1.33991280           1.53636960           2.93064080
    -1.30414960           1.55067440           2.92158160
    -1.29032160           1.55687360           2.90775280
    -1.25789680           1.56354880           2.90107760
    -1.23500800           1.56497920           2.88200400
    -1.21593440           1.57022480           2.88200400
    -1.20496720           1.56068800           2.84719440
    -1.20687520           1.54924400           2.81381600
    -1.17540320           1.56688720           2.81763040
    -1.17158880           1.57690080           2.79331200
    -1.15823760           1.57976160           2.78568240
    -1.14202480           1.58596000           2.77137760
    -1.15251520           1.58071520           2.74324400
    -1.14679360           1.57213200           2.73466080
    -1.13964080           1.58643760           2.71701840
    -1.12056720           1.59835840           2.71892560
    -1.12676640           1.58882160           2.70605120
    -1.14631680           1.58739120           2.66790400
    -1.16872800           1.56879440           2.64549280
    -1.18255600           1.55687360           2.63261760
    -1.16920480           1.57737760           2.61926640
    -1.19018560           1.56402560           2.59351760
    -1.18112560           1.55448880           2.61068320
    -1.18637120           1.56021120           2.61020640
    -1.24502160           1.52111040           2.56300000
    -1.24359120           1.50823600           2.56919840
    -1.24740640           1.51014320           2.56347680
    -1.27696960           1.46961200           2.54917120
    -1.26981760           1.46055200           2.55394000
    -1.26791040           1.46722800           2.54440320
    -1.27410880           1.43814080           2.55203280
    -1.27172480           1.43051120           2.55489360
    -1.29938160           1.40619280           2.55107840
    -1.31750080           1.36375440           2.54631040
    -1.31988560           1.37472160           2.55060160
    -1.32560720           1.36423120           2.56252320
    -1.31320960           1.34849520           2.57301360
    -1.33419040           1.34372720           2.57253680
    -1.34658800           1.32799120           2.58016560
    -1.34038960           1.33848160           2.60734560
    -1.36137040           1.31416320           2.59685520
    -1.36041680           1.29985840           2.61163680
    -1.36518480           1.30271920           2.63309440
    -1.38044320           1.28650640           2.62975680
    -1.38473520           1.29508960           2.64501600
    -1.40905360           1.28650640           2.63929360
    -1.42955760           1.28507600           2.64072400
    -1.43766400           1.29795040           2.65502960
    -1.44815440           1.30987200           2.66885760
    -1.46579760           1.32799120           2.68411600
    -1.48963920           1.32131600           2.66790400
    -1.51586560           1.32131600           2.64453920
    -1.53636960           1.32226960           2.62832640
    -1.54256800           1.33800480           2.63071040
    -1.54495200           1.36661520           2.65121440
    -1.56021120           1.36041680           2.61163680
    -1.59788160           1.36613840           2.58541120
    -1.61123280           1.38521200           2.61020640
    -1.61838560           1.39999360           2.57873520
    -1.64318080           1.42288240           2.55632400
    -1.63316720           1.43528000           2.55727760
    -1.63793600           1.44863120           2.53868080
    -1.67083760           1.45053840           2.51722320
    -1.67036080           1.45912160           2.50053440
    -1.66654560           1.49822240           2.51674640
    -1.67608240           1.51157360           2.52151520
    -1.67798960           1.51968000           2.51150160
    -1.68657280           1.53636960           2.50530240
    -1.67369840           1.54542960           2.50244160
    -1.66273120           1.56641040           2.51293200
    -1.66320800           1.58166880           2.51340880
    -1.64604160           1.59597360           2.53009760
    -1.66559200           1.58643760           2.52628320
    -1.66416160           1.58882160           2.52056160
    -1.63984320           1.62792240           2.55727760
    -1.63459760           1.63412080           2.55918480
    -1.59692800           1.65128720           2.57396720
    -1.59549680           1.66273120           2.58874880
    -1.58357600           1.66797600           2.59208640
    -1.54018400           1.70898400           2.63690960
    -1.53684640           1.70946160           2.64692320
    -1.50108320           1.71184560           2.66408960
    -1.48677840           1.72376640           2.68173200
    -1.48677840           1.70373920           2.67696400
    -1.44624720           1.72328960           2.69794480
    -1.42478960           1.74093280           2.71940240
    -1.41096080           1.72519680           2.72417040
    -1.40380880           1.72805760           2.70938880
    -1.35374080           1.74236320           2.74515120
    -1.30176560           1.74856160           2.75230400
    -1.31607040           1.72853440           2.71129600
    -1.28650640           1.71995200           2.71892560
    -1.23691520           1.72424320           2.71272640
    -1.23739280           1.70087840           2.69412960
    -1.22547120           1.69372560           2.69079200
    -1.19209280           1.68561920           2.68602400
    -1.18780160           1.65367120           2.65979760
    -1.17254240           1.65319440           2.65359840
    -1.17349600           1.63173680           2.63214080
    -1.17635760           1.59263600           2.60114640
    -1.13773360           1.60884880           2.64263120
    -1.14202480           1.58977520           2.62928000
    -1.15394560           1.54304480           2.59351760
    -1.16634400           1.52826320           2.59160960
    -1.15871440           1.51824960           2.59351760
    -1.15823760           1.50299040           2.61640560
    -1.18732480           1.47771840           2.61354480
    -1.19686160           1.45912160           2.61974320
    -1.21879600           1.43909440           2.63929360
    -1.23834640           1.42240560           2.64549280
    -1.29175200           1.38425840           2.64692320
    -1.32036240           1.35612480           2.64930720
    -1.33657440           1.35564800           2.67553360
    -1.37615200           1.32799120           2.70175920
    -1.39427200           1.31893120           2.71606480
    -1.43241920           1.30510320           2.74038320
    -1.44863120           1.28841440           2.76947040
    -1.47676480           1.28507600           2.79283520
    -1.51920320           1.26314160           2.80189520
    -1.52397120           1.27506240           2.81906160
    -1.54542960           1.27363200           2.84576400
    -1.57594720           1.25598880           2.87103680
    -1.58929840           1.26504880           2.89154080
    -1.60884880           1.26552560           2.90441520
    -1.60837200           1.28412240           2.93254880
    -1.61027920           1.29938160           2.95543680
    -1.61647760           1.30701040           2.98404720
    -1.60551040           1.32513040           2.99119920
    -1.60169600           1.35469440           3.00216640
    -1.57833120           1.38139760           3.02839280
    -1.57880800           1.37233760           3.01218000
    -1.58166880           1.38616560           3.02886960
    -1.53398480           1.42383600           3.04651280
    -1.50251360           1.44910800           3.04222080
    -1.48773200           1.46341360           3.04126720
    -1.46102880           1.47438080           3.02696240
    -1.43575680           1.49726880           3.02171680
    -1.40666960           1.50585200           3.01742560
    -1.38473520           1.51205040           3.00121280
    -1.35660160           1.53589280           2.99310720
    -1.32846800           1.53827680           2.98404720
    -1.31464000           1.54876720           2.95019120
    -1.29222880           1.57260880           2.92491920
    -1.27935440           1.57976160           2.90298480
    -1.27363200           1.58786800           2.86006960
    -1.27935440           1.57833120           2.80952480
    -1.25885040           1.60837200           2.78902080
    -1.26266480           1.62506080           2.73799920
    -1.27744640           1.60932560           2.67648720
    -1.26934080           1.62935280           2.65026080
    -1.30367280           1.61266320           2.57730480
    -1.30367280           1.60884880           2.52580640
    -1.29318240           1.63650480           2.49433520
    -1.31845440           1.63650480           2.42614720
    -1.32656080           1.63316720           2.38609280
    -1.32560720           1.63602800           2.35509840
    -1.36041680           1.62887600           2.27355920
    -1.38092080           1.63459760           2.23302880
    -1.40047040           1.61838560           2.19535840
    -1.42145120           1.59692800           2.13384640
    -1.41191520           1.62506080           2.13623040
    -1.45053840           1.61409360           2.09331520
    -1.47199600           1.59788160           2.04658480
    -1.46961200           1.61647760           2.04420080
    -1.49393120           1.60551040           2.02178960
    -1.51777280           1.59311280           2.01034560
    -1.52540240           1.59692800           2.01368320
    -1.56116480           1.58309920           1.99365600
    -1.59120560           1.57308560           2.00176240
    -1.58691440           1.57022480           2.02274320
    -1.62315360           1.56593360           2.02608080
    -1.61361680           1.57356240           2.08187120
    -1.60837200           1.56688720           2.08997760
    -1.63745920           1.57070160           2.11143520
    -1.63650480           1.56736400           2.18296080
    -1.65271760           1.54638320           2.20251120
    -1.65462480           1.54733680           2.25305520
    -1.65796240           1.54066080           2.29072560
    -1.65271760           1.53827680           2.33650240
    -1.64222720           1.53970720           2.40373600
    -1.64651840           1.53350800           2.43616080
    -1.62315360           1.52397120           2.49719600
    -1.58452960           1.53446160           2.56776800
    -1.56927120           1.52683280           2.61116000
    -1.56688720           1.50156000           2.65073760
    -1.53207760           1.51395760           2.69794480
    -1.52111040           1.47914880           2.72417040
    -1.49631520           1.48105600           2.77853040
    -1.45053840           1.49345360           2.82430640
    -1.42812720           1.46341360           2.84767120
    -1.37710560           1.48487120           2.90060080
    -1.35231040           1.47104240           2.90346160
    -1.31654720           1.46865840           2.94065440
    -1.26171120           1.48439440           2.98595440
    -1.24216080           1.46102880           2.96688080
    -1.21021280           1.45101520           2.97927840
    -1.15919120           1.46579760           3.00693520
    -1.15442240           1.46150560           2.99739840
    -1.13678000           1.44815440           2.99167600
    -1.07479120           1.45196880           2.99930560
    -1.05857840           1.44910800           2.99024560
    -1.03664400           1.45483040           2.98213920
    -1.02853760           1.44338640           2.96163520
    -1.02329280           1.43861760           2.95162240
    -1.01709360           1.42335920           2.93016400
    -1.01184880           1.41477600           2.91252160
    -0.97560880           1.43718720           2.91919680
    -1.00564960           1.40714640           2.88724880
    -1.00326560           1.41763680           2.88057360
    -0.98419200           1.44243280           2.88391120
    -1.01137200           1.42240560           2.85959280
    -1.01470960           1.42145120           2.84242640
    -1.02853760           1.42908080           2.83241280
    -1.04236640           1.45721440           2.83193600
    -1.07049920           1.45340000           2.80570960
    -1.09958640           1.43861760           2.77805360
    -1.10673920           1.46245920           2.77710000
    -1.13964080           1.45578400           2.75135040
    -1.18017200           1.45387680           2.71654160
    -1.19829200           1.48820880           2.71844880
    -1.21831920           1.49440800           2.71606480
    -1.25980400           1.49106960           2.70175920
    -1.29795040           1.50299040           2.69651440
    -1.32465360           1.50823600           2.66885760
    -1.34515760           1.52063360           2.66504320
    -1.36184720           1.55401200           2.68173200
    -1.40428560           1.54972080           2.64310800
    -1.44147840           1.53970720           2.63357200
    -1.45053840           1.57117840           2.65121440
    -1.48439440           1.57117840           2.62832640
    -1.50394400           1.57690080           2.63977040
    -1.52683280           1.56784080           2.64501600
    -1.55830400           1.56736400           2.63977040
    -1.56164160           1.58882160           2.65121440
    -1.58357600           1.56402560           2.64978400
    -1.59597360           1.57451600           2.65502960
    -1.61314000           1.57117840           2.65932080
    -1.63078320           1.55878080           2.66790400
    -1.63602800           1.56927120           2.66933440
    -1.66320800           1.55067440           2.66361200
    -1.67846640           1.54590640           2.67028800
    -1.66606880           1.56164160           2.69794480
    -1.67083760           1.54161440           2.68936160
    -1.70183200           1.51920320           2.68459360
    -1.70612320           1.53589280           2.71892560
    -1.69992480           1.53398480           2.71654160
    -1.69754000           1.54399840           2.73895280
    -1.70660000           1.54018400           2.74658240
    -1.71279920           1.51920320           2.73084640
    -1.70278560           1.52778640           2.73895280
    -1.69134160           1.52826320           2.74038320
    -1.67894400           1.53350800           2.74801280
    -1.69467920           1.51014320           2.73799920
    -1.69229520           1.48630160           2.72512400
    -1.66559200           1.50299040           2.73275360
    -1.65987040           1.49965280           2.73036960
    -1.65176400           1.48296320           2.71272640
    -1.62601440           1.49297680           2.72703200
    -1.61314000           1.47342720           2.71320320
    -1.61218640           1.43718720           2.68745440
    -1.57880800           1.46293680           2.72083280
    -1.56259520           1.45530720           2.70986560
    -1.55687360           1.42812720           2.68888480
    -1.52015680           1.44386320           2.69556080
    -1.51443520           1.41859040           2.67028800
    -1.50060640           1.40762320           2.67505680
    -1.47247280           1.42049760           2.68507040
