SERVICIO GEOLOGICO COLOMBIANO- RED NACIONAL DE ACELEROGRAFOS DE COLOMBIA
SISMO DE CORDOBA (QUINDIO) 1999/01/25 18:19:17 ML=6.3
LATITUD DEL EVENTO(GRADOS): 4.439
LONGITUD DEL EVENTO(GRADOS): -75.698
PROFUNDIDAD DEL EVENTO (Km): 0
CODIGO DE LA ESTACION: CTOCH
Estacion:EL TOCHE Geol:ROCA Topo:PLANA
LATITUD DE LA ESTACION (GRADOS): 3.621
LONGITUD DE LA ESTACION (GRADOS): -76.088
DISTANCIA EPICENTRAL: 100.59 km
DISTANCIA HIPOCENTRAL: 100.59 km
INTERVALO DE MUESTREO (SEGUNDOS): 0.005
NUMERO DE DATOS: 13400
DURACION (SEGUNDOS): 67
UNIDADES: cm/s^2
TIPO DE EQUIPO: ETNA
ESCALA MAXIMA (G): 2
CORRECCION DE LINEA BASE: LINEA BASE NO REMOVIDA
TIPO DE DATOS: NO CORREGIDO
         EW                  VER                  NS
[...]
    -0.68140000           0.54311760          -0.60224560
    -0.82826640           0.63085520          -0.42200080
    -0.98276160           0.76770800          -0.27608880
    -1.11246080           0.94223040          -0.15306480
    -1.24502160           1.07526800          -0.22077600
    -1.33371360           1.19733840          -0.30565280
    -1.37186080           1.27983120          -0.46348560
    -1.39665600           1.29604320          -0.62322640
    -1.43003440           1.24168400          -0.73528320
    -1.47724160           1.10530880          -0.86021440
    -1.56354880           0.92363360          -0.89073200
    -1.66416160           0.66566480          -0.92220320
    -1.73473360           0.36239600          -0.91362000
    -1.73854800           0.01764320          -0.88500960
    -1.63364400          -0.39339040          -0.88834800
    -1.43766400          -0.83398800          -0.87499600
    -1.21641120          -1.25074400          -0.85687600
    -0.99182160          -1.60360320          -0.77962880
    -0.76770800          -1.84869760          -0.66566480
    -0.62465680          -1.94120400          -0.55408480
    -0.53834880          -1.87158560          -0.51498400
    -0.48017520          -1.66177760          -0.52690480
    -0.47397600          -1.41572960          -0.59461600
    -0.48255920          -1.19972240          -0.76484720
    -0.50687760          -1.02090800          -0.92363360
    -0.55170080          -0.85926080          -1.08861920
    -0.58412560          -0.70571920          -1.26457200
    -0.62942480          -0.52738160          -1.45578400
    -0.71382560          -0.31232800          -1.68228160
    -0.81920640          -0.11587120          -1.87444720
    -0.97560880           0.10871920          -2.03847920
    -1.16157520           0.33712400          -2.10046800
    -1.36327760           0.56695920          -2.01940560
    -1.55210480           0.79441040          -1.83534640
    -1.69420240           0.92887840          -1.52969360
    -1.78813920           1.00612640          -1.17444960
    -1.76906560           1.03282960          -0.82826640
    -1.67655920           1.00088080          -0.51879920
    -1.55019760           0.94175360          -0.31805040
    -1.41525280           0.89359280          -0.19407280
    -1.29604320           0.84877040          -0.15926400
    -1.17874160           0.78392000          -0.24557120
    -1.06191600           0.72956080          -0.40674240
    -0.86164480           0.65469760          -0.58174160
    -0.55646880           0.55074720          -0.71191760
    -0.20504000           0.42438480          -0.79202640
     0.18262880           0.28991680          -0.78773520
     0.56362160           0.19264240          -0.71048720
     0.90599040           0.19168880          -0.59127840
     1.18875520           0.31471280          -0.44536560
     1.42002080           0.49161920          -0.34046160
     1.65891680           0.70428880          -0.28705600
     1.90734880           0.93746160          -0.26226080
     2.13956800           1.12056720          -0.24843200
     2.32601200           1.23453120          -0.19931760
     2.42233280           1.23930000          -0.11920960
     2.39896800           1.10673920          -0.02908720
     2.24733360           0.90360640           0.06866480
     2.02274320           0.73289840           0.14448160
     1.76811200           0.66328080           0.21934480
     1.47104240           0.70571920           0.27132000
     1.20162960           0.82254400           0.30183760
     0.95462800           0.96988640           0.31375920
     0.72717680           1.08242000           0.24795520
     0.53548800           1.11818320           0.16880000
     0.30374560           1.09243360           0.08153920
     0.08058560           1.00135840          -0.00619920
    -0.11873280           0.87261200          -0.05245200
    -0.29563920           0.75292560          -0.09679760
    -0.44870400           0.61988800          -0.12731520
    -0.58221840           0.48971200          -0.17547600
    -0.72479280           0.37765520          -0.25939920
    -0.86069120           0.27370480          -0.34570720
    -0.93030960           0.19454960          -0.44775040
    -0.96702560           0.10013600          -0.54597840
    -0.94604480          -0.02050400          -0.65422080
    -0.92983280          -0.15020400          -0.78010560
    -0.90312960          -0.28896320          -0.86784400
    -0.84877040          -0.43201440          -0.92792480
    -0.83255760          -0.53024320          -0.95987280
    -0.83017360          -0.53787200          -0.98037680
    -0.88357920          -0.47683680          -1.00994080
    -0.97846960          -0.35190560          -1.06096240
    -1.11246080          -0.19550320          -1.16872800
    -1.29508960          -0.03385520          -1.28221520
    -1.47628800           0.11205680          -1.40285520
    -1.62839920           0.24509440          -1.51920320
    -1.70278560           0.36478080          -1.56974800
    -1.71709040           0.44727360          -1.55353520
    -1.68800320           0.50544720          -1.48439440
    -1.60694160           0.51927600          -1.38330480
    -1.54686000           0.48303600          -1.29318240
    -1.48582480           0.37193280          -1.25217440
    -1.42622000           0.23412720          -1.21831920
    -1.43146480           0.10728800          -1.14870080
    -1.42717360           0.00476800          -1.04188880
    -1.43384960           0.02574960          -0.88453280
    -1.50251360           0.10967280          -0.67234000
    -1.58214560           0.29182400          -0.47111520
    -1.64890320           0.56552880          -0.33092480
    -1.71136880           0.77390640          -0.27465840
    -1.76906560           0.95605840          -0.31852720
    -1.81818000           1.06525440          -0.40769600
    -1.84488320           1.07240640          -0.51450720
    -1.83057760           1.04808800          -0.61321280
    -1.76954240           0.98371520          -0.70858000
    -1.64651840           0.95224400          -0.78821200
    -1.46818160           0.94604480          -0.83351120
    -1.26504880           0.91934240          -0.88071840
    -1.07240640           0.93555440          -0.84161760
    -0.91648080           0.95844240          -0.75101840
    -0.76961520           0.98609920          -0.63991520
    -0.57411200           1.06668480          -0.46777760
    -0.35238240           1.15633040          -0.31375920
    -0.10252000           1.24120720          -0.10347360
     0.14877280           1.32322320           0.14019040
     0.33664720           1.40476240           0.39243680
     0.47969840           1.48153280           0.69570560
     0.52690480           1.51300400           0.99468240
     0.52022960           1.51586560           1.27840080
     0.49829520           1.49631520           1.50251360
     0.44631920           1.41239200           1.63221360
     0.40721920           1.32942160           1.63984320
     0.36621120           1.24645200           1.54113760
     0.33950800           1.11150720           1.30748720
     0.28944000           0.97274800           0.97417840
     0.25415440           0.81443760           0.61702720
     0.26035280           0.65994240           0.20313280
     0.26845920           0.52070640          -0.22172960
     0.34952160           0.38051600          -0.63085520
     0.45871760           0.27990320          -0.99849680
     0.59270880           0.20933120          -1.33943520
     0.75817120           0.16880000          -1.64175040
     0.91409680           0.14877280          -1.88732160
     1.06573120           0.11491760          -2.12526320
     1.19400000           0.06341920          -2.31266000
     1.36566160          -0.00143040          -2.44188320
     1.57308560          -0.07724800          -2.53629680
     1.77860240          -0.18501280          -2.58255040
     1.99508640          -0.35572080          -2.58827200
     2.15482720          -0.56028400          -2.53725040
     2.20823280          -0.79774880          -2.40421280
     2.15339680          -1.04475040          -2.22206080
     1.99747120          -1.25932720          -2.00939200
     1.75523760          -1.45864480          -1.79767600
     1.46579760          -1.60694160          -1.60360320
     1.11293760          -1.76382080          -1.43051120
     0.70381200          -1.95550880          -1.27935440
     0.29659280          -2.10618960          -1.11150720
    -0.07581680          -2.20203360          -0.97799280
    -0.39052960          -2.20394160          -0.87022800
    -0.64325360          -2.12049520          -0.79727200
    -0.84877040          -1.94835680          -0.74243520
    -1.01947760          -1.71899760          -0.68378480
    -1.16634400          -1.46675120          -0.67806240
    -1.28030800          -1.18398640          -0.65851200
    -1.32513040          -0.92792480          -0.66852560
    -1.29318240          -0.66328080          -0.66947920
    -1.13725680          -0.39768240          -0.58269520
    -0.90122240          -0.15830960          -0.40864960
    -0.67043280           0.04339200          -0.14019040
    -0.44679680           0.13542160           0.15115760
    -0.30040720           0.15974080           0.47349920
    -0.23365040           0.12779200           0.74720400
    -0.22268320           0.08010880           0.94699840
    -0.27465840           0.05292880           1.07336080
    -0.36764160           0.00953680           1.08671200
    -0.49161920          -0.01525840           1.04808800
    -0.61845760          -0.05435920           0.92697120
    -0.73432960          -0.08916880           0.77199920
    -0.88214880          -0.09107600           0.60129200
    -1.05524080          -0.08296960           0.46062480
    -1.25312800          -0.06818800           0.40245040
    -1.46579760          -0.08678400           0.33712400
    -1.60980240          -0.12922320           0.33330880
    -1.70183200          -0.21982160           0.35953520
    -1.72233600          -0.31852720           0.41627920
    -1.62506080          -0.36382640           0.57077440
    -1.40905360          -0.39339040           0.77819840
    -1.08480480          -0.38242320           1.02520000
    -0.68330800          -0.31948080           1.23167040
    -0.25796880          -0.22459040           1.37805920
     0.08678400          -0.11539440           1.46245920
     0.33283200          -0.00524560           1.46436720
     0.44298160           0.12826880           1.40190160
     0.47397600           0.29516240           1.29604320
     0.49781760           0.48160560           1.15156160
     0.54168720           0.66661840           0.96416480
     0.65279040           0.84304800           0.74911120
     0.77867520           1.00755680           0.51593760
     0.94080000           1.10960000           0.26321440
     1.09863280           1.13487280          -0.05626640
     1.28746000           1.11770640          -0.40340400
     1.50108320           1.01518640          -0.76675440
     1.62363040           0.84352480          -1.14154800
     1.71279920           0.70905680          -1.42478960
     1.74951520           0.65612800          -1.56831760
     1.71661360           0.72050080          -1.56068800
     1.62935280           0.91171280          -1.40428560
     1.50871280           1.18207920          -1.11675280
     1.38092080           1.42955760          -0.79393360
     1.26838720           1.60264960          -0.48446640
     1.19495360           1.68228160          -0.20694720
     1.13344160           1.64079680           0.01621280
     1.07812880           1.53636960           0.24223360
     0.98228480           1.35707840           0.46062480
     0.81968320           1.12295120           0.64849840
     0.56314480           0.86879760           0.81682240
     0.20313280           0.57315840           0.94699840
    -0.21457680           0.24890880           1.00755680
    -0.64325360          -0.11491760           1.02090800
    -1.01375600          -0.41866320           1.06143920
    -1.31797760          -0.62465680           1.08098960
    -1.54590640          -0.74052800           1.06048560
    -1.66749920          -0.73671360           1.02329280
    -1.67894400          -0.66232720           0.89406960
    -1.60884880          -0.51927600           0.69046000
    -1.44863120          -0.33521680           0.44107440
    -1.18732480          -0.17404560           0.15306480
    -0.85163120          -0.05483600          -0.11110320
    -0.40864960           0.02861040          -0.32663360
     0.05722080           0.10204320          -0.48398960
     0.51736800           0.20122560          -0.60606000
     0.94413760           0.30517600          -0.71716320
     1.28221520           0.37145600          -0.81920640
     1.61218640           0.41961680          -0.90312960
     1.91736240           0.42200080          -0.96511840
     2.22396880           0.40197360          -1.00708000
     2.51770000           0.37527120          -1.00946400
     2.79951120           0.35238240          -0.95939600
     3.07655360           0.39100640          -0.81968320
     3.23152560           0.36859520          -0.67663200
     3.27491760           0.28133360          -0.59890720
     3.19480880           0.16355520          -0.57029760
     2.95591360          -0.01144400          -0.66232720
     2.56729120          -0.13876000          -0.84734000
     2.11429600          -0.19788720          -1.08623520
     1.63507440          -0.18978080          -1.32274640
     1.15966800          -0.12922320          -1.50251360
     0.77152240          -0.04434560          -1.62744560
     0.44441200           0.04005440          -1.65605520
     0.25081600           0.13446800          -1.63459760
     0.18072160           0.25224720          -1.55496560
     0.20551680           0.34284560          -1.44720080
     0.30136080           0.40483440          -1.34182000
     0.37336320           0.39958960          -1.20306000
     0.42438480           0.31900400          -1.11627600
     0.39339040           0.19121200          -1.00994080
     0.30660640           0.05245200          -0.87404240
     0.18930400          -0.05865120          -0.74625040
     0.02336480          -0.15544880          -0.53501120
    -0.16927680          -0.25558480          -0.30851360
    -0.35953520          -0.36478080          -0.04005440
    -0.51307680          -0.46873120           0.21314640
    -0.63943840          -0.58364880           0.36764160
    -0.64945200          -0.65040560           0.50449360
    -0.62561040          -0.64754480           0.53262720
    -0.65803520          -0.62179600           0.46682320
    -0.63657760          -0.57506560           0.38909920
    -0.64134560          -0.59843040           0.23746480
    -0.71764000          -0.75912480           0.00286080
    -0.70190400          -0.93698480          -0.17356880
    -0.62084160          -1.11770640          -0.24747840
    -0.57840320          -1.32465360          -0.25653840
    -0.48398960          -1.39236480          -0.08821520
    -0.36716480          -1.37424480           0.18024480
    -0.34666080          -1.36756880           0.40292720
    -0.30469920          -1.29556640           0.63085520
    -0.20647040          -1.18827840           0.83923360
    -0.16784640          -1.11341440           0.88691680
    -0.08058560          -1.02615360           0.87165840
     0.04243840          -0.91934240           0.83684960
     0.06055840          -0.88644000           0.64134560
     0.07486320          -0.82588160           0.45442560
     0.13971360          -0.71191760           0.26369120
     0.17547600          -0.60558320           0.01239760
     0.21457680          -0.43201440          -0.17499920
     0.31518960          -0.22554400          -0.31328240
     0.40674240          -0.01907360          -0.40006640
     0.48398960           0.18548960          -0.47254560
     0.55074720           0.35142880          -0.50401680
     0.53978000           0.47063840          -0.54693200
     0.47349920           0.54979360          -0.57744960
     0.36954880           0.55932960          -0.55551520
     0.20027200           0.52976640          -0.54979360
    -0.04816080           0.50067920          -0.43535200
    -0.34999840           0.44298160          -0.26178320
    -0.65279040           0.38671520          -0.08153920
    -0.91695760           0.32997120           0.12159360
    -1.11246080           0.30612960           0.25796880
    -1.22451760           0.34713760           0.38242320
    -1.26600240           0.40531120           0.47779120
    -1.28412240           0.45967120           0.49638720
    -1.31464000           0.46491600           0.46491600
    -1.38282800           0.40864960           0.36048880
    -1.49726880           0.31137440           0.21457680
    -1.63841280           0.16546240           0.05817440
    -1.79004640          -0.00762960          -0.10442720
    -1.85442000          -0.14162080          -0.23508080
    -1.83248480          -0.23555760          -0.33950800
    -1.78289440          -0.31375920          -0.44822720
    -1.67512880          -0.34141520          -0.56982080
    -1.55258160          -0.30565280          -0.66995600
    -1.40810000          -0.23412720          -0.70953360
    -1.25646560          -0.10156640          -0.69761280
    -1.14917760           0.10871920          -0.64468400
    -1.09338800           0.33807760          -0.57172800
    -1.13296480           0.60129200          -0.51116960
    -1.27124800           0.82683600          -0.47159200
    -1.48725520           0.94795200          -0.43487520
    -1.73807120           0.99802000          -0.39529840
    -1.92880640           0.93030960          -0.32424960
    -1.96504560           0.78964240          -0.24128000
    -1.85060480           0.63705440          -0.19598000
    -1.58309920           0.48828160          -0.19073520
    -1.18780160           0.36907200          -0.27513520
    -0.76055520           0.31614320          -0.40674240
    -0.28991680           0.34618400          -0.56171440
     0.15258800           0.42486160          -0.73766720
     0.50878560           0.57840320          -0.88500960
     0.81300720           0.80060960          -0.96559520
     1.02996800           1.03330640          -0.94699840
     1.15489920           1.20067600          -0.91838800
     1.18732480           1.27124800          -0.87499600
     1.19924560           1.26028080          -0.83017360
     1.19924560           1.19781520          -0.81682240
     1.15060800           1.11389200          -0.79488720
     1.10960000           0.99372880          -0.79536400
     1.06239280           0.89502320          -0.76389280
     0.96273440           0.86402880          -0.72622320
     0.78153600           0.89216240          -0.69475200
     0.54836240           0.96035040          -0.70762640
