SERVICIO GEOLOGICO COLOMBIANO- RED NACIONAL DE ACELEROGRAFOS DE COLOMBIA
SISMO DE CORDOBA (QUINDIO) 1999/01/25 18:19:17 ML=6.3
LATITUD DEL EVENTO(GRADOS): 4.439
LONGITUD DEL EVENTO(GRADOS): -75.698
PROFUNDIDAD DEL EVENTO (Km): 0
CODIGO DE LA ESTACION: CTUTU
Estacion:TUTUNENDO Geol:ROCA Topo:ONDULADA
LATITUD DE LA ESTACION (GRADOS): 5.746
LONGITUD DE LA ESTACION (GRADOS): -76.546
DISTANCIA EPICENTRAL: 172.938 km
DISTANCIA HIPOCENTRAL: 172.938 km
INTERVALO DE MUESTREO (SEGUNDOS): 0.005
NUMERO DE DATOS: 5376
DURACION (SEGUNDOS): 26.88
UNIDADES: cm/s^2
TIPO DE EQUIPO: SSA
ESCALA MAXIMA (G): 2
CORRECCION DE LINEA BASE: LINEA BASE NO REMOVIDA
TIPO DE DATOS: NO CORREGIDO
         EW                  VER                  NS
[...]
    -7.81250000         -10.74218720           4.88281280
    -8.78906240         -10.74218720           4.88281280
    -8.78906240         -10.74218720           4.88281280
    -8.78906240         -10.74218720           4.88281280
    -8.78906240         -10.74218720           4.88281280
    -8.78906240         -10.74218720           4.88281280
    -8.78906240         -10.74218720           4.88281280
    -8.78906240         -10.74218720           4.88281280
    -9.76562480         -10.74218720           4.88281280
    -9.76562480         -10.74218720           4.88281280
    -9.76562480         -10.74218720           4.88281280
    -9.76562480         -10.74218720           4.88281280
    -9.76562480         -10.74218720           4.88281280
    -9.76562480          -9.76562480           3.90624960
    -9.76562480          -9.76562480           4.88281280
    -9.76562480          -9.76562480           3.90624960
    -9.76562480          -9.76562480           3.90624960
    -9.76562480          -9.76562480           3.90624960
    -9.76562480          -9.76562480           3.90624960
    -8.78906240          -9.76562480           3.90624960
    -8.78906240          -9.76562480           3.90624960
    -8.78906240          -9.76562480           3.90624960
    -8.78906240          -9.76562480           3.90624960
    -8.78906240          -8.78906240           3.90624960
    -7.81250000          -8.78906240           3.90624960
    -7.81250000          -8.78906240           3.90624960
    -7.81250000          -9.76562480           3.90624960
    -7.81250000          -9.76562480           3.90624960
    -7.81250000          -9.76562480           3.90624960
    -7.81250000          -9.76562480           3.90624960
    -7.81250000          -9.76562480           2.92968720
    -7.81250000          -9.76562480           2.92968720
    -8.78906240          -9.76562480           2.92968720
    -8.78906240          -9.76562480           2.92968720
    -8.78906240          -9.76562480           2.92968720
    -8.78906240          -9.76562480           2.92968720
    -8.78906240          -9.76562480           2.92968720
    -8.78906240          -9.76562480           2.92968720
    -8.78906240          -9.76562480           1.95312480
    -8.78906240          -9.76562480           1.95312480
    -8.78906240          -9.76562480           1.95312480
    -8.78906240          -9.76562480           1.95312480
    -9.76562480          -9.76562480           1.95312480
    -8.78906240          -9.76562480           1.95312480
    -8.78906240          -9.76562480           1.95312480
    -8.78906240          -9.76562480           2.92968720
    -8.78906240          -9.76562480           1.95312480
    -8.78906240          -9.76562480           2.92968720
    -8.78906240          -9.76562480           2.92968720
    -8.78906240          -9.76562480           2.92968720
    -8.78906240          -9.76562480           1.95312480
    -8.78906240          -9.76562480           1.95312480
    -8.78906240          -9.76562480           2.92968720
    -8.78906240          -9.76562480           2.92968720
    -8.78906240          -9.76562480           2.92968720
    -8.78906240         -10.74218720           2.92968720
    -9.76562480         -10.74218720           2.92968720
    -9.76562480         -10.74218720           2.92968720
    -9.76562480         -10.74218720           2.92968720
    -9.76562480         -10.74218720           2.92968720
    -9.76562480         -10.74218720           2.92968720
    -9.76562480         -10.74218720           2.92968720
    -9.76562480         -10.74218720           2.92968720
    -9.76562480         -10.74218720           2.92968720
    -9.76562480         -10.74218720           2.92968720
    -8.78906240         -10.74218720           2.92968720
    -8.78906240         -10.74218720           2.92968720
    -8.78906240         -10.74218720           2.92968720
    -8.78906240         -10.74218720           2.92968720
    -8.78906240         -10.74218720           2.92968720
    -8.78906240         -10.74218720           2.92968720
    -8.78906240         -10.74218720           2.92968720
    -8.78906240         -10.74218720           2.92968720
    -8.78906240         -10.74218720           3.90624960
    -8.78906240         -10.74218720           3.90624960
    -8.78906240         -10.74218720           3.90624960
    -8.78906240         -10.74218720           3.90624960
    -8.78906240         -10.74218720           3.90624960
    -7.81250000         -10.74218720           3.90624960
    -8.78906240         -10.74218720           3.90624960
    -8.78906240         -10.74218720           3.90624960
    -8.78906240         -10.74218720           3.90624960
    -8.78906240         -10.74218720           3.90624960
    -8.78906240         -10.74218720           3.90624960
    -8.78906240         -10.74218720           3.90624960
    -8.78906240         -10.74218720           3.90624960
    -8.78906240         -10.74218720           3.90624960
    -8.78906240         -10.74218720           3.90624960
    -9.76562480         -10.74218720           2.92968720
    -9.76562480         -10.74218720           2.92968720
    -9.76562480         -10.74218720           2.92968720
    -9.76562480         -10.74218720           2.92968720
    -9.76562480          -9.76562480           2.92968720
    -9.76562480          -9.76562480           2.92968720
    -9.76562480          -9.76562480           1.95312480
    -9.76562480          -9.76562480           1.95312480
    -9.76562480          -9.76562480           1.95312480
    -9.76562480          -9.76562480           1.95312480
    -9.76562480          -9.76562480           1.95312480
    -9.76562480          -9.76562480           0.97656240
    -9.76562480          -9.76562480           1.95312480
    -9.76562480          -9.76562480           1.95312480
    -9.76562480          -9.76562480           1.95312480
    -8.78906240          -9.76562480           1.95312480
    -8.78906240          -9.76562480           1.95312480
    -8.78906240          -9.76562480           1.95312480
    -8.78906240          -9.76562480           1.95312480
    -8.78906240          -9.76562480           2.92968720
    -7.81250000          -9.76562480           2.92968720
    -7.81250000          -9.76562480           2.92968720
    -7.81250000          -9.76562480           2.92968720
    -7.81250000          -9.76562480           2.92968720
    -7.81250000          -9.76562480           2.92968720
    -7.81250000          -9.76562480           2.92968720
    -7.81250000          -9.76562480           2.92968720
    -7.81250000         -10.74218720           2.92968720
    -7.81250000         -10.74218720           2.92968720
    -7.81250000         -10.74218720           2.92968720
    -7.81250000          -9.76562480           2.92968720
    -7.81250000         -10.74218720           2.92968720
    -7.81250000         -10.74218720           2.92968720
    -7.81250000          -9.76562480           3.90624960
    -7.81250000          -9.76562480           3.90624960
    -7.81250000          -9.76562480           3.90624960
    -8.78906240         -10.74218720           3.90624960
    -8.78906240          -9.76562480           4.88281280
    -8.78906240          -9.76562480           4.88281280
    -8.78906240          -9.76562480           4.88281280
    -8.78906240          -9.76562480           4.88281280
    -9.76562480         -10.74218720           5.85937520
    -9.76562480         -10.74218720           5.85937520
    -9.76562480          -9.76562480           5.85937520
    -9.76562480         -10.74218720           5.85937520
    -9.76562480         -10.74218720           5.85937520
    -9.76562480         -10.74218720           5.85937520
    -9.76562480         -10.74218720           5.85937520
    -9.76562480         -10.74218720           5.85937520
    -9.76562480          -9.76562480           5.85937520
    -9.76562480          -9.76562480           4.88281280
    -9.76562480          -9.76562480           4.88281280
    -9.76562480          -9.76562480           4.88281280
    -9.76562480          -9.76562480           3.90624960
    -9.76562480          -9.76562480           3.90624960
    -9.76562480          -9.76562480           3.90624960
    -9.76562480          -9.76562480           2.92968720
    -9.76562480          -9.76562480           2.92968720
    -9.76562480          -9.76562480           2.92968720
    -9.76562480          -9.76562480           2.92968720
    -9.76562480          -9.76562480           1.95312480
    -9.76562480          -9.76562480           1.95312480
    -9.76562480          -9.76562480           1.95312480
    -9.76562480          -9.76562480           1.95312480
    -9.76562480          -9.76562480           1.95312480
    -9.76562480          -9.76562480           1.95312480
    -9.76562480          -9.76562480           1.95312480
    -9.76562480          -9.76562480           1.95312480
    -9.76562480          -9.76562480           1.95312480
    -9.76562480          -9.76562480           0.97656240
    -9.76562480          -9.76562480           0.97656240
    -9.76562480          -9.76562480           0.97656240
    -9.76562480          -9.76562480           0.97656240
    -9.76562480          -9.76562480           0.97656240
    -9.76562480          -9.76562480           0.00000000
    -8.78906240          -9.76562480           0.00000000
    -9.76562480          -9.76562480           0.00000000
    -8.78906240          -9.76562480           0.00000000
    -8.78906240          -9.76562480          -0.97656240
    -8.78906240         -10.74218720           0.00000000
    -8.78906240          -9.76562480          -0.97656240
    -8.78906240         -10.74218720           0.00000000
    -8.78906240          -9.76562480           0.00000000
    -8.78906240         -10.74218720           0.00000000
    -8.78906240         -10.74218720           0.00000000
    -8.78906240         -10.74218720           0.97656240
    -8.78906240         -10.74218720           0.97656240
    -8.78906240         -10.74218720           0.97656240
    -8.78906240         -10.74218720           1.95312480
    -8.78906240         -10.74218720           1.95312480
    -8.78906240         -10.74218720           1.95312480
    -9.76562480         -10.74218720           2.92968720
    -8.78906240         -10.74218720           2.92968720
    -8.78906240         -10.74218720           2.92968720
    -9.76562480         -10.74218720           3.90624960
    -8.78906240         -10.74218720           3.90624960
    -9.76562480         -10.74218720           3.90624960
    -8.78906240         -10.74218720           3.90624960
    -8.78906240         -10.74218720           3.90624960
    -8.78906240         -10.74218720           3.90624960
    -8.78906240         -10.74218720           3.90624960
    -8.78906240         -10.74218720           3.90624960
    -7.81250000         -10.74218720           3.90624960
    -7.81250000         -10.74218720           3.90624960
    -7.81250000         -10.74218720           3.90624960
    -7.81250000         -10.74218720           4.88281280
    -7.81250000         -10.74218720           4.88281280
    -7.81250000         -10.74218720           4.88281280
    -7.81250000          -9.76562480           4.88281280
    -7.81250000          -9.76562480           4.88281280
    -7.81250000          -9.76562480           4.88281280
    -7.81250000          -9.76562480           4.88281280
    -7.81250000          -9.76562480           5.85937520
    -7.81250000          -9.76562480           5.85937520
    -8.78906240          -9.76562480           4.88281280
    -8.78906240          -9.76562480           4.88281280
    -8.78906240          -9.76562480           4.88281280
    -9.76562480          -9.76562480           4.88281280
    -9.76562480          -9.76562480           4.88281280
    -9.76562480          -9.76562480           4.88281280
   -10.74218720          -9.76562480           4.88281280
   -10.74218720          -9.76562480           3.90624960
   -10.74218720          -9.76562480           3.90624960
   -10.74218720          -9.76562480           3.90624960
   -10.74218720          -9.76562480           3.90624960
   -10.74218720          -9.76562480           3.90624960
   -10.74218720          -9.76562480           2.92968720
   -10.74218720          -9.76562480           2.92968720
   -10.74218720          -9.76562480           2.92968720
   -10.74218720          -9.76562480           2.92968720
   -10.74218720          -9.76562480           1.95312480
   -10.74218720          -9.76562480           1.95312480
   -10.74218720          -9.76562480           1.95312480
    -9.76562480          -9.76562480           0.97656240
    -9.76562480          -9.76562480           0.97656240
    -9.76562480          -9.76562480           0.97656240
    -9.76562480          -9.76562480           0.97656240
    -9.76562480         -10.74218720           0.00000000
    -8.78906240         -10.74218720           0.00000000
    -8.78906240         -10.74218720          -0.97656240
    -8.78906240         -10.74218720          -0.97656240
    -8.78906240         -10.74218720          -1.95312480
    -8.78906240         -10.74218720          -1.95312480
    -8.78906240         -10.74218720          -1.95312480
    -8.78906240         -10.74218720          -2.92968720
    -8.78906240         -10.74218720          -2.92968720
    -8.78906240         -10.74218720          -2.92968720
    -9.76562480         -10.74218720          -2.92968720
    -9.76562480         -10.74218720          -2.92968720
    -9.76562480         -10.74218720          -2.92968720
    -9.76562480          -9.76562480          -2.92968720
    -9.76562480          -9.76562480          -1.95312480
    -9.76562480          -9.76562480          -1.95312480
    -9.76562480          -9.76562480          -1.95312480
    -8.78906240          -9.76562480          -0.97656240
    -8.78906240          -9.76562480           0.00000000
    -8.78906240          -9.76562480           0.00000000
    -8.78906240          -9.76562480           0.00000000
    -8.78906240          -9.76562480           0.97656240
    -8.78906240          -9.76562480           0.97656240
    -8.78906240          -9.76562480           0.97656240
    -7.81250000          -8.78906240           1.95312480
    -7.81250000          -8.78906240           2.92968720
    -7.81250000          -8.78906240           2.92968720
    -7.81250000          -8.78906240           3.90624960
    -7.81250000          -8.78906240           3.90624960
    -7.81250000          -8.78906240           3.90624960
    -7.81250000          -8.78906240           4.88281280
    -7.81250000          -8.78906240           4.88281280
    -7.81250000          -8.78906240           4.88281280
    -7.81250000          -8.78906240           4.88281280
    -7.81250000          -8.78906240           4.88281280
    -8.78906240          -9.76562480           3.90624960
    -8.78906240          -9.76562480           3.90624960
    -8.78906240          -9.76562480           3.90624960
    -8.78906240          -9.76562480           3.90624960
    -8.78906240          -9.76562480           3.90624960
    -8.78906240          -9.76562480           3.90624960
    -8.78906240          -9.76562480           3.90624960
    -8.78906240         -10.74218720           3.90624960
    -7.81250000         -10.74218720           3.90624960
    -7.81250000         -10.74218720           3.90624960
    -7.81250000         -10.74218720           3.90624960
    -7.81250000         -10.74218720           3.90624960
    -7.81250000         -10.74218720           3.90624960
    -7.81250000         -10.74218720           3.90624960
    -7.81250000         -10.74218720           3.90624960
    -7.81250000         -10.74218720           3.90624960
    -6.83593760         -11.71875040           3.90624960
    -6.83593760         -11.71875040           3.90624960
    -6.83593760         -10.74218720           4.88281280
    -6.83593760         -10.74218720           4.88281280
    -6.83593760         -11.71875040           4.88281280
    -6.83593760         -10.74218720           4.88281280
    -6.83593760         -11.71875040           4.88281280
    -6.83593760         -10.74218720           4.88281280
    -6.83593760         -10.74218720           5.85937520
    -6.83593760         -10.74218720           5.85937520
    -6.83593760         -10.74218720           5.85937520
    -6.83593760         -10.74218720           5.85937520
    -7.81250000         -10.74218720           5.85937520
    -7.81250000         -10.74218720           5.85937520
    -7.81250000         -10.74218720           5.85937520
    -7.81250000         -10.74218720           5.85937520
    -8.78906240         -10.74218720           5.85937520
    -8.78906240         -10.74218720           4.88281280
    -8.78906240         -10.74218720           4.88281280
    -9.76562480         -10.74218720           4.88281280
    -9.76562480         -10.74218720           4.88281280
    -9.76562480         -10.74218720           4.88281280
    -9.76562480         -10.74218720           3.90624960
    -9.76562480         -10.74218720           3.90624960
   -10.74218720         -10.74218720           3.90624960
   -10.74218720         -10.74218720           3.90624960
   -10.74218720         -10.74218720           2.92968720
   -10.74218720         -10.74218720           2.92968720
   -10.74218720         -10.74218720           2.92968720
   -10.74218720         -10.74218720           1.95312480
   -10.74218720         -10.74218720           1.95312480
   -10.74218720         -10.74218720           1.95312480
    -9.76562480         -10.74218720           0.97656240
    -9.76562480         -10.74218720           0.97656240
    -9.76562480         -10.74218720           0.97656240
    -9.76562480          -9.76562480           0.00000000
    -8.78906240          -9.76562480           0.97656240
    -8.78906240          -9.76562480           0.00000000
    -8.78906240          -9.76562480           0.00000000
    -8.78906240          -9.76562480           0.00000000
    -8.78906240          -9.76562480           0.00000000
    -8.78906240          -9.76562480           0.00000000
    -8.78906240          -9.76562480           0.00000000
    -8.78906240          -9.76562480           0.00000000
    -8.78906240          -9.76562480           0.00000000
    -8.78906240          -9.76562480           0.00000000
    -9.76562480          -9.76562480           0.97656240
    -9.76562480          -9.76562480           0.97656240
    -9.76562480          -9.76562480           1.95312480
    -9.76562480          -9.76562480           1.95312480
   -10.74218720          -9.76562480           2.92968720
   -10.74218720          -9.76562480           2.92968720
   -10.74218720          -9.76562480           3.90624960
   -10.74218720          -9.76562480           4.88281280
   -10.74218720          -9.76562480           4.88281280
   -10.74218720          -9.76562480           4.88281280
