SERVICIO GEOLOGICO COLOMBIANO- RED NACIONAL DE ACELEROGRAFOS DE COLOMBIA
SISMO DE CORDOBA (QUINDIO) 1999/01/25 18:19:17 ML=6.3
LATITUD DEL EVENTO(GRADOS): 4.439
LONGITUD DEL EVENTO(GRADOS): -75.698
PROFUNDIDAD DEL EVENTO (Km): 0
CODIGO DE LA ESTACION: CNORC
Estacion:NORCASIA (Embalse La Miel) Geol:ROCA Topo:ONDULADA
LATITUD DE LA ESTACION (GRADOS): 5.56
LONGITUD DE LA ESTACION (GRADOS): -74.89
DISTANCIA EPICENTRAL: 153.385 km
DISTANCIA HIPOCENTRAL: 153.385 km
INTERVALO DE MUESTREO (SEGUNDOS): 0.005
NUMERO DE DATOS: 7936
DURACION (SEGUNDOS): 39.68
UNIDADES: cm/s^2
TIPO DE EQUIPO: SSA
ESCALA MAXIMA (G): 2
CORRECCION DE LINEA BASE: LINEA BASE NO REMOVIDA
TIPO DE DATOS: NO CORREGIDO
         EW                  VER                  NS
[...]
    -2.92968720         -13.67187520           3.90624960
    -2.92968720         -13.67187520           2.92968720
    -2.92968720         -13.67187520           1.95312480
    -2.92968720         -12.69531280           1.95312480
    -3.90624960         -12.69531280           0.00000000
    -3.90624960         -12.69531280          -0.97656240
    -3.90624960         -11.71875040          -1.95312480
    -3.90624960         -11.71875040          -2.92968720
    -2.92968720         -10.74218720          -4.88281280
    -1.95312480         -10.74218720          -5.85937520
    -0.97656240         -10.74218720          -5.85937520
     0.00000000         -10.74218720          -5.85937520
     0.00000000         -10.74218720          -5.85937520
     0.97656240         -10.74218720          -5.85937520
     1.95312480         -10.74218720          -4.88281280
     1.95312480         -11.71875040          -3.90624960
     0.97656240         -11.71875040          -2.92968720
     0.97656240         -12.69531280          -2.92968720
     0.00000000         -12.69531280          -0.97656240
    -0.97656240         -12.69531280          -0.97656240
    -0.97656240         -13.67187520          -0.97656240
    -0.97656240         -13.67187520          -0.97656240
    -1.95312480         -13.67187520          -0.97656240
    -1.95312480         -14.64843760           0.00000000
    -0.97656240         -14.64843760           0.00000000
    -0.97656240         -14.64843760           0.00000000
    -0.97656240         -13.67187520           0.00000000
    -0.97656240         -13.67187520           0.00000000
     0.00000000         -13.67187520          -0.97656240
     0.00000000         -12.69531280          -0.97656240
     0.00000000         -12.69531280          -0.97656240
    -0.97656240         -12.69531280          -0.97656240
    -0.97656240         -11.71875040          -0.97656240
    -0.97656240         -11.71875040          -0.97656240
    -0.97656240         -10.74218720          -0.97656240
    -0.97656240         -10.74218720          -0.97656240
    -0.97656240         -10.74218720          -0.97656240
    -1.95312480         -10.74218720          -0.97656240
    -0.97656240         -10.74218720          -0.97656240
    -0.97656240         -11.71875040          -0.97656240
    -0.97656240         -11.71875040          -0.97656240
    -0.97656240         -12.69531280          -0.97656240
    -0.97656240         -12.69531280          -0.97656240
    -0.97656240         -13.67187520          -1.95312480
    -0.97656240         -13.67187520          -1.95312480
    -1.95312480         -13.67187520          -1.95312480
    -1.95312480         -13.67187520          -1.95312480
    -2.92968720         -14.64843760          -1.95312480
    -2.92968720         -14.64843760          -1.95312480
    -2.92968720         -14.64843760          -1.95312480
    -1.95312480         -14.64843760          -0.97656240
    -1.95312480         -13.67187520          -0.97656240
    -1.95312480         -13.67187520          -0.97656240
    -0.97656240         -12.69531280          -0.97656240
    -0.97656240         -12.69531280          -1.95312480
    -0.97656240         -11.71875040          -1.95312480
    -0.97656240         -11.71875040          -2.92968720
    -0.97656240         -11.71875040          -2.92968720
    -0.97656240         -10.74218720          -3.90624960
     0.00000000         -10.74218720          -3.90624960
     0.00000000         -10.74218720          -3.90624960
     0.97656240         -10.74218720          -2.92968720
     1.95312480         -10.74218720          -2.92968720
     2.92968720         -10.74218720          -1.95312480
     3.90624960         -10.74218720          -1.95312480
     3.90624960         -11.71875040          -0.97656240
     4.88281280         -11.71875040          -0.97656240
     4.88281280         -11.71875040           0.00000000
     3.90624960         -12.69531280           0.97656240
     3.90624960         -12.69531280           0.97656240
     2.92968720         -12.69531280           1.95312480
     2.92968720         -12.69531280           1.95312480
     1.95312480         -12.69531280           1.95312480
     1.95312480         -12.69531280           1.95312480
     2.92968720         -12.69531280           1.95312480
     2.92968720         -12.69531280           1.95312480
     3.90624960         -12.69531280           1.95312480
     3.90624960         -11.71875040           0.97656240
     3.90624960         -11.71875040           0.97656240
     3.90624960         -11.71875040           0.97656240
     2.92968720         -11.71875040           0.97656240
     1.95312480         -10.74218720           0.97656240
     0.97656240         -10.74218720           0.00000000
     0.00000000         -10.74218720           0.00000000
    -0.97656240         -10.74218720           0.00000000
    -0.97656240         -11.71875040           0.00000000
    -1.95312480         -11.71875040           0.00000000
    -1.95312480         -11.71875040           0.97656240
    -1.95312480         -12.69531280           0.97656240
    -1.95312480         -12.69531280           1.95312480
    -1.95312480         -12.69531280           1.95312480
    -1.95312480         -12.69531280           2.92968720
    -1.95312480         -13.67187520           2.92968720
    -1.95312480         -13.67187520           2.92968720
    -1.95312480         -13.67187520           2.92968720
    -1.95312480         -13.67187520           1.95312480
    -1.95312480         -13.67187520           0.97656240
    -1.95312480         -13.67187520           0.00000000
    -1.95312480         -13.67187520          -0.97656240
    -0.97656240         -13.67187520          -1.95312480
    -0.97656240         -12.69531280          -2.92968720
    -0.97656240         -12.69531280          -3.90624960
    -0.97656240         -12.69531280          -4.88281280
    -0.97656240         -12.69531280          -5.85937520
     0.00000000         -11.71875040          -6.83593760
    -0.97656240         -11.71875040          -6.83593760
    -0.97656240         -10.74218720          -6.83593760
    -0.97656240          -9.76562480          -5.85937520
    -0.97656240          -9.76562480          -5.85937520
    -0.97656240          -9.76562480          -4.88281280
    -1.95312480         -10.74218720          -3.90624960
    -1.95312480          -9.76562480          -1.95312480
    -0.97656240          -9.76562480          -0.97656240
    -0.97656240          -9.76562480          -0.97656240
    -0.97656240          -8.78906240           0.97656240
     0.00000000          -8.78906240           0.97656240
     0.97656240          -8.78906240           1.95312480
     0.97656240          -8.78906240           3.90624960
     1.95312480          -8.78906240           3.90624960
     1.95312480          -8.78906240           4.88281280
     1.95312480          -8.78906240           4.88281280
     1.95312480          -8.78906240           4.88281280
     1.95312480          -8.78906240           5.85937520
     1.95312480          -9.76562480           5.85937520
     0.97656240          -9.76562480           5.85937520
     0.97656240          -9.76562480           5.85937520
     1.95312480          -9.76562480           5.85937520
     1.95312480          -9.76562480           4.88281280
     1.95312480         -10.74218720           3.90624960
     1.95312480         -10.74218720           3.90624960
     1.95312480         -10.74218720           2.92968720
     1.95312480          -9.76562480           1.95312480
     1.95312480          -9.76562480           0.00000000
     0.97656240          -9.76562480          -0.97656240
     0.97656240          -9.76562480          -0.97656240
     0.00000000          -9.76562480          -1.95312480
    -0.97656240         -10.74218720          -1.95312480
    -0.97656240         -10.74218720          -2.92968720
    -0.97656240         -10.74218720          -2.92968720
    -0.97656240         -10.74218720          -2.92968720
    -0.97656240         -10.74218720          -2.92968720
    -0.97656240         -11.71875040          -1.95312480
    -0.97656240         -11.71875040          -0.97656240
    -0.97656240         -11.71875040          -0.97656240
    -0.97656240         -11.71875040           0.00000000
    -0.97656240         -11.71875040           0.97656240
     0.00000000         -11.71875040           0.97656240
     0.00000000         -10.74218720           0.97656240
     0.00000000         -10.74218720           0.97656240
     0.00000000          -9.76562480           0.97656240
     0.00000000          -9.76562480           1.95312480
     0.00000000          -9.76562480           0.97656240
     0.97656240          -8.78906240           0.97656240
     0.97656240          -8.78906240           0.97656240
     0.97656240          -8.78906240           0.97656240
     0.97656240          -8.78906240           0.97656240
     0.97656240          -8.78906240           0.97656240
     1.95312480          -7.81250000           0.97656240
     1.95312480          -7.81250000           0.97656240
     0.97656240          -7.81250000           1.95312480
     0.97656240          -7.81250000           1.95312480
     0.00000000          -7.81250000           0.97656240
     0.00000000          -7.81250000           0.97656240
    -0.97656240          -8.78906240           0.97656240
    -0.97656240          -8.78906240           0.00000000
    -0.97656240          -8.78906240           0.00000000
    -0.97656240          -9.76562480          -0.97656240
    -0.97656240          -9.76562480          -0.97656240
    -0.97656240          -9.76562480          -1.95312480
    -0.97656240          -9.76562480          -1.95312480
     0.00000000          -9.76562480          -2.92968720
     0.00000000         -10.74218720          -3.90624960
     0.00000000         -10.74218720          -3.90624960
     0.97656240         -10.74218720          -3.90624960
     0.97656240         -10.74218720          -2.92968720
     0.97656240         -10.74218720          -2.92968720
     0.97656240         -11.71875040          -1.95312480
     0.97656240         -11.71875040          -0.97656240
     0.97656240         -11.71875040          -0.97656240
     0.00000000         -11.71875040          -0.97656240
     0.97656240         -11.71875040           0.00000000
     0.97656240         -11.71875040           0.97656240
     0.97656240         -10.74218720           0.97656240
     0.97656240         -10.74218720           0.97656240
     0.97656240          -9.76562480           0.97656240
     0.97656240          -9.76562480           1.95312480
     0.97656240          -9.76562480           0.97656240
     0.00000000          -9.76562480           0.97656240
     0.00000000          -9.76562480           0.97656240
     0.00000000          -9.76562480           0.00000000
     0.00000000          -9.76562480           0.00000000
     0.00000000          -9.76562480           0.00000000
     0.00000000          -9.76562480           0.00000000
     0.00000000          -9.76562480           0.00000000
     0.00000000          -9.76562480           0.00000000
    -0.97656240          -9.76562480           0.00000000
    -0.97656240         -10.74218720           0.00000000
    -0.97656240         -10.74218720           0.00000000
    -1.95312480         -10.74218720           0.00000000
    -2.92968720         -10.74218720          -0.97656240
    -2.92968720         -11.71875040          -0.97656240
    -2.92968720         -11.71875040          -0.97656240
    -2.92968720         -11.71875040          -0.97656240
    -2.92968720         -10.74218720          -0.97656240
    -1.95312480         -10.74218720          -0.97656240
    -0.97656240         -10.74218720          -0.97656240
    -0.97656240         -10.74218720          -0.97656240
     0.00000000         -10.74218720          -0.97656240
     0.97656240         -11.71875040           0.00000000
     0.97656240         -11.71875040           0.97656240
     1.95312480         -11.71875040           1.95312480
     1.95312480         -11.71875040           1.95312480
     1.95312480         -11.71875040           2.92968720
     1.95312480         -11.71875040           2.92968720
     1.95312480         -11.71875040           2.92968720
     1.95312480         -10.74218720           2.92968720
     1.95312480         -10.74218720           2.92968720
     1.95312480         -10.74218720           2.92968720
     1.95312480         -10.74218720           2.92968720
     1.95312480         -10.74218720           1.95312480
     1.95312480         -10.74218720           0.97656240
     1.95312480         -10.74218720           0.00000000
     1.95312480         -10.74218720          -0.97656240
     1.95312480         -10.74218720          -0.97656240
     1.95312480          -9.76562480          -0.97656240
     1.95312480         -10.74218720          -1.95312480
     1.95312480         -10.74218720          -3.90624960
     0.97656240         -10.74218720          -3.90624960
     0.97656240         -10.74218720          -4.88281280
     0.97656240         -10.74218720          -5.85937520
     0.00000000         -10.74218720          -6.83593760
     0.00000000         -11.71875040          -7.81250000
    -0.97656240         -11.71875040          -6.83593760
    -0.97656240         -11.71875040          -6.83593760
    -0.97656240         -11.71875040          -5.85937520
    -0.97656240         -12.69531280          -4.88281280
    -0.97656240         -12.69531280          -3.90624960
    -0.97656240         -12.69531280          -2.92968720
    -0.97656240         -12.69531280          -0.97656240
    -0.97656240         -13.67187520          -0.97656240
    -1.95312480         -13.67187520           0.97656240
    -2.92968720         -13.67187520           1.95312480
    -3.90624960         -13.67187520           2.92968720
    -3.90624960         -13.67187520           3.90624960
    -4.88281280         -13.67187520           3.90624960
    -5.85937520         -13.67187520           4.88281280
    -6.83593760         -13.67187520           4.88281280
    -6.83593760         -12.69531280           4.88281280
    -7.81250000         -13.67187520           4.88281280
    -7.81250000         -13.67187520           3.90624960
    -6.83593760         -12.69531280           3.90624960
    -6.83593760         -13.67187520           2.92968720
    -5.85937520         -13.67187520           0.97656240
    -4.88281280         -13.67187520           0.97656240
    -3.90624960         -13.67187520           0.00000000
    -2.92968720         -13.67187520          -0.97656240
    -0.97656240         -13.67187520          -0.97656240
     0.00000000         -13.67187520          -1.95312480
     0.97656240         -13.67187520          -1.95312480
     1.95312480         -12.69531280          -2.92968720
     2.92968720         -12.69531280          -2.92968720
     2.92968720         -12.69531280          -2.92968720
     3.90624960         -12.69531280          -2.92968720
     3.90624960         -11.71875040          -2.92968720
     4.88281280         -11.71875040          -2.92968720
     4.88281280         -11.71875040          -2.92968720
     4.88281280         -11.71875040          -2.92968720
     3.90624960         -11.71875040          -1.95312480
     3.90624960         -11.71875040          -0.97656240
     3.90624960         -11.71875040          -0.97656240
     2.92968720         -11.71875040           0.00000000
     2.92968720         -11.71875040           0.97656240
     1.95312480         -11.71875040           0.97656240
     1.95312480         -12.69531280           1.95312480
     0.97656240         -12.69531280           1.95312480
     0.97656240         -12.69531280           2.92968720
     0.97656240         -12.69531280           2.92968720
     0.97656240         -12.69531280           1.95312480
     0.97656240         -12.69531280           1.95312480
     0.97656240         -12.69531280           0.97656240
     0.00000000         -12.69531280           0.97656240
     0.00000000         -13.67187520           0.00000000
     0.00000000         -13.67187520          -0.97656240
    -0.97656240         -13.67187520          -0.97656240
    -0.97656240         -13.67187520          -0.97656240
    -0.97656240         -13.67187520          -1.95312480
    -1.95312480         -13.67187520          -1.95312480
    -2.92968720         -13.67187520          -2.92968720
    -2.92968720         -12.69531280          -2.92968720
    -3.90624960         -12.69531280          -2.92968720
    -4.88281280         -13.67187520          -2.92968720
    -4.88281280         -13.67187520          -3.90624960
    -5.85937520         -13.67187520          -2.92968720
    -5.85937520         -13.67187520          -2.92968720
    -4.88281280         -13.67187520          -2.92968720
    -4.88281280         -13.67187520          -1.95312480
    -4.88281280         -12.69531280          -0.97656240
    -4.88281280         -11.71875040          -0.97656240
    -3.90624960         -11.71875040          -0.97656240
    -3.90624960         -10.74218720          -0.97656240
    -3.90624960         -10.74218720          -0.97656240
    -2.92968720         -10.74218720          -0.97656240
    -2.92968720         -11.71875040          -0.97656240
    -1.95312480         -11.71875040          -0.97656240
    -1.95312480         -11.71875040          -0.97656240
    -0.97656240         -11.71875040          -0.97656240
    -0.97656240         -10.74218720          -0.97656240
     0.00000000         -10.74218720          -0.97656240
     0.00000000         -10.74218720          -0.97656240
     0.00000000         -10.74218720          -0.97656240
     0.97656240         -10.74218720          -0.97656240
     0.00000000         -10.74218720          -0.97656240
     0.00000000         -10.74218720          -0.97656240
     0.00000000         -11.71875040          -0.97656240
     0.00000000         -11.71875040          -0.97656240
     0.00000000         -11.71875040           0.00000000
     0.00000000         -11.71875040           0.00000000
     0.00000000         -11.71875040          -0.97656240
     0.97656240         -11.71875040          -0.97656240
     0.97656240         -11.71875040          -0.97656240
     0.97656240         -10.74218720          -1.95312480
     1.95312480         -10.74218720          -2.92968720
     1.95312480         -10.74218720          -2.92968720
     1.95312480         -11.71875040          -2.92968720
     0.97656240         -11.71875040          -3.90624960
     0.97656240         -11.71875040          -3.90624960
     0.97656240         -12.69531280          -3.90624960
     0.00000000         -12.69531280          -2.92968720
     0.00000000         -12.69531280          -2.92968720
     0.00000000         -12.69531280          -1.95312480
    -0.97656240         -12.69531280          -0.97656240
