SERVICIO GEOLOGICO COLOMBIANO- RED NACIONAL DE ACELEROGRAFOS DE COLOMBIA
SISMO DE CORDOBA (QUINDIO) 1999/01/25 18:19:17 ML=6.3
LATITUD DEL EVENTO(GRADOS): 4.439
LONGITUD DEL EVENTO(GRADOS): -75.698
PROFUNDIDAD DEL EVENTO (Km): 0
CODIGO DE LA ESTACION: CARBE
Estacion:ARBELAEZ Geol:ROCA Topo:ONDULADA
LATITUD DE LA ESTACION (GRADOS): 4.253
LONGITUD DE LA ESTACION (GRADOS): -74.437
DISTANCIA EPICENTRAL: 141.485 km
DISTANCIA HIPOCENTRAL: 141.485 km
INTERVALO DE MUESTREO (SEGUNDOS): 0.005
NUMERO DE DATOS: 12400
DURACION (SEGUNDOS): 62
UNIDADES: cm/s^2
TIPO DE EQUIPO: ETNA
ESCALA MAXIMA (G): 2
CORRECCION DE LINEA BASE: LINEA BASE NO REMOVIDA
TIPO DE DATOS: NO CORREGIDO
         EW                  VER                  NS
[...]
    -4.33301920          -0.03671680          -4.35161600
    -4.56285440          -0.20504000          -4.40788240
    -4.71878080          -0.39815920          -4.48608400
    -4.82082400          -0.58412560          -4.56571600
    -4.86135520          -0.75960160          -4.63104240
    -4.84371200          -0.92554080          -4.71353520
    -4.74739040          -1.07336080          -4.75931200
    -4.57763680          -1.20592080          -4.80461120
    -4.34017200          -1.33276000          -4.83274480
    -4.03690320          -1.41620640          -4.86135520
    -3.72552880          -1.45483040          -4.87613680
    -3.39269600          -1.46102880          -4.85706320
    -3.05700320          -1.43480320          -4.86469280
    -2.76327120          -1.43051120          -4.84037360
    -2.47669200          -1.42622000          -4.75883520
    -2.23350560          -1.44004800          -4.62818160
    -2.03609440          -1.48773200          -4.43935360
    -1.88779840          -1.55830400          -4.20713440
    -1.81341200          -1.69754000          -3.96871600
    -1.77478800          -1.87730800          -3.71456160
    -1.79624560          -2.11715680          -3.45277760
    -1.87158560          -2.39372240          -3.26252000
    -1.95407840          -2.64072400          -3.11136240
    -2.06851920          -2.83718080          -3.02553200
    -2.19392800          -2.95877440          -3.04889680
    -2.30264640          -3.03888320          -3.12757520
    -2.41136560          -3.07416880          -3.27205680
    -2.48956720          -3.06320160          -3.44610240
    -2.54583360          -3.06987760          -3.69358080
    -2.57873520          -3.04508240          -4.01830640
    -2.60877600          -2.94780720          -4.37355040
    -2.66695040          -2.83145920          -4.82606880
    -2.77328480          -2.66265840          -5.35678880
    -2.95972800          -2.44522080          -5.94091440
    -3.20100800          -2.20203360          -6.52694720
    -3.55196000          -1.91497840          -7.13110000
    -3.96728480          -1.63030640          -7.73429840
    -4.40645200          -1.35040320          -8.28027760
    -4.91619120          -1.08909600          -8.79478480
    -5.43498960          -0.87499600          -9.23633600
    -5.95092800          -0.71144080          -9.57632080
    -6.44111600          -0.62942480          -9.79852640
    -6.89792640          -0.60033760          -9.94730000
    -7.31325120          -0.59270880          -9.96589680
    -7.67183280          -0.60081520          -9.86862160
    -8.01420240          -0.57888000          -9.72557040
    -8.31890080          -0.49543360          -9.47761520
    -8.59212880          -0.36954880          -9.17768480
    -8.82911680          -0.22172960          -8.85200480
    -9.00697680          -0.04720720          -8.50534400
    -9.13238560           0.15020400          -8.13674960
    -9.18340720           0.35238240          -7.79819520
    -9.13667680           0.52738160          -7.50017200
    -9.00697680           0.68759920          -7.23218880
    -8.80289040           0.86069120          -7.02714960
    -8.50152960           1.00517280          -6.83069200
    -8.11338400           1.13821040          -6.69050240
    -7.65514400           1.27744640          -6.59179680
    -7.17020000           1.37233760          -6.49023040
    -6.65569280           1.42717360          -6.40201600
    -6.11305200           1.41477600          -6.29758800
    -5.57851760           1.31034880          -6.17885600
    -5.03683120           1.16300560          -6.04486480
    -4.51564800           0.96178080          -5.89895280
    -4.01544560           0.74386560          -5.74398080
    -3.53956240           0.53882560          -5.57804080
    -3.10420960           0.34475360          -5.38444480
    -2.68697760           0.18596640          -5.16605360
    -2.28786480           0.04243840          -4.91523760
    -1.92213040          -0.07772480          -4.62150560
    -1.56450240          -0.17881360          -4.28438160
    -1.22022640          -0.28181040          -3.91244880
    -0.92554080          -0.38290000          -3.53145600
    -0.63085520          -0.47445280          -3.12995920
    -0.36239600          -0.56362160          -2.73084640
    -0.16117120          -0.66137280          -2.32362720
    -0.00572240          -0.72002400          -1.92165360
     0.09679760          -0.73814400          -1.54638320
     0.13637520          -0.75197200          -1.18398640
     0.10538080          -0.75435600          -0.86450560
     0.01812000          -0.77438320          -0.57792640
    -0.12445440          -0.82922000          -0.34332240
    -0.30422240          -0.92601760          -0.16164800
    -0.48971200          -1.09195680          -0.00858320
    -0.68569200          -1.32417680           0.11682480
    -0.90646720          -1.60217280           0.19788720
    -1.12247440          -1.89352000           0.22411360
    -1.35755520          -2.14958160           0.23365040
    -1.66463840          -2.34460800           0.22220640
    -1.98602640          -2.47001680           0.21123920
    -2.34365440          -2.50911680           0.21362320
    -2.75421120          -2.49004400           0.21696080
    -3.17621200          -2.41231920           0.23222000
    -3.63397600          -2.25591680           0.28181040
    -4.10699840          -2.08520880           0.36430320
    -4.56333200          -1.89781200           0.40102000
    -4.99296160          -1.69563280           0.40626560
    -5.39064400          -1.49583840           0.40483440
    -5.74445760          -1.26361840           0.34427680
    -6.04677200          -1.03616720           0.23746480
    -6.31952320          -0.78773520           0.11396400
    -6.55937200          -0.51879920          -0.04100800
    -6.75964320          -0.27942640          -0.22459040
    -6.94370240          -0.06103520          -0.41294080
    -7.11917840           0.11825600          -0.65040560
    -7.25460080           0.30756000          -0.92315680
    -7.35902800           0.50354000          -1.21355040
    -7.44247440           0.68998320          -1.53255440
    -7.47585280           0.93460080          -1.84488320
    -7.49111200           1.20496720          -2.19249760
    -7.47489920           1.46961200          -2.55203280
    -7.40528080           1.72472000          -2.89106400
    -7.30848320           1.94740320          -3.23104880
    -7.17878320           2.13575360          -3.57055680
    -6.99234000           2.25544000          -3.89575920
    -6.76679600           2.30550800          -4.21476400
    -6.52504000           2.30360000          -4.54521200
    -6.22129440           2.24781040          -4.84752640
    -5.86891200           2.16245680          -5.13601280
    -5.49459440           2.02703440          -5.40971760
    -5.07307040           1.83630000          -5.64289120
    -4.60100160           1.62696800          -5.85174560
    -4.09364720           1.39284160          -6.02769840
    -3.54290000           1.16348240          -6.15644480
    -2.96640400           0.97942320          -6.22892400
    -2.38418560           0.82874320          -6.25133520
    -1.79290800           0.68998320          -6.22654000
    -1.22833280           0.57220480          -6.10590000
    -0.70571920           0.42772320          -5.92088720
    -0.24843200           0.24652480          -5.69438960
     0.14019040           0.05197520          -5.40113440
     0.42820000          -0.16784640          -5.09977360
     0.60415280          -0.35190560          -4.77314000
     0.68283120          -0.52738160          -4.43029440
     0.62465680          -0.69189040          -4.08268000
     0.48398960          -0.82349760          -3.67212320
     0.27322800          -0.97465520          -3.22055840
    -0.01049040          -1.13439520          -2.73847600
    -0.31185120          -1.30558000          -2.22444560
    -0.63419360          -1.48725520          -1.72281280
    -0.97227120          -1.65367120          -1.25885040
    -1.30748720          -1.80053680          -0.84257120
    -1.63078320          -1.94644960          -0.51164640
    -1.95360160          -2.06136720          -0.28800960
    -2.27355920          -2.11095840          -0.15449520
    -2.57778160          -2.11715680          -0.10252000
    -2.87914240          -2.07662560          -0.15783280
    -3.17668880          -2.00366960          -0.28848640
    -3.45754640          -1.91020960          -0.46205520
    -3.70168720          -1.80387520          -0.68473840
    -3.91912480          -1.72758080          -0.93317040
    -4.08268000          -1.66797600          -1.17349600
    -4.18472320          -1.62839920          -1.40047040
    -4.26626240          -1.62649120          -1.61266320
    -4.31299200          -1.63602800          -1.78909280
    -4.31871440          -1.65510160          -1.96456880
    -4.29678000          -1.66034720          -2.11858720
    -4.27675280          -1.66034720          -2.25973120
    -4.21428720          -1.65367120          -2.40182880
    -4.15229760          -1.65987040          -2.55346320
    -4.10604480          -1.67512880          -2.73942960
    -3.97348400          -1.64938000          -2.88534160
    -3.82471120          -1.64890320          -3.04937360
    -3.64542000          -1.65319440          -3.22055840
    -3.42559840          -1.61314000          -3.34453600
    -3.19528560          -1.54542960          -3.45468560
    -2.95257600          -1.41429920          -3.49807760
    -2.73895280          -1.22213360          -3.48806400
    -2.53915760          -0.98705280          -3.44562560
    -2.39324560          -0.71764000          -3.35645680
    -2.30741520          -0.43964400          -3.22437280
    -2.25925440          -0.15783280          -3.06463280
    -2.25114800           0.10299680          -2.91347520
    -2.26402320           0.32711040          -2.76804000
    -2.29310960           0.56362160          -2.66933440
    -2.31695200           0.80156320          -2.64120080
    -2.32696560           1.02615360          -2.65264480
    -2.31504480           1.26743280          -2.72655520
    -2.26593040           1.52158720          -2.83861200
    -2.19488160           1.77145040          -2.96688080
    -2.09856000           1.97696720          -3.10850160
    -1.94692640           2.14386000          -3.23915520
    -1.78050960           2.25639360          -3.36456320
    -1.61647760           2.27928160          -3.46899040
    -1.43384960           2.23541280          -3.55863600
    -1.24692880           2.14433680          -3.65686400
    -1.09529520           2.04372400          -3.76606000
    -0.98705280           1.96218480          -3.90624960
    -0.91934240           1.90305680          -4.08649440
    -0.95415120           1.86348000          -4.28819680
    -1.03807440           1.82437920          -4.52136960
    -1.17444960           1.76429760          -4.77981600
    -1.37758240           1.69086480          -5.05018240
    -1.60360320           1.60074240          -5.32531760
    -1.87063200           1.48725520          -5.59949840
    -2.12860080           1.38711920          -5.89513760
    -2.39753760           1.29699680          -6.14929200
    -2.66075120           1.22690240          -6.34956320
    -2.90870640           1.20735200          -6.52504000
    -3.17144400           1.21784240          -6.62183760
    -3.43894960           1.23310080          -6.67095200
    -3.71551520           1.25217440          -6.68716400
    -3.98635840           1.28650640          -6.64472560
    -4.28438160           1.29318240          -6.59179680
    -4.58812720           1.29842720          -6.50692000
    -4.86421600           1.29938160          -6.38103520
    -5.12981440           1.23834640          -6.28995920
    -5.36584880           1.18446320          -6.20651280
    -5.54752320           1.11198400          -6.10351600
    -5.67245520           1.02663040          -6.02674480
    -5.73730480           0.93746160          -5.94949760
    -5.74350320           0.82063680          -5.87558720
    -5.66816320           0.71048720          -5.82361200
    -5.50699200           0.52785840          -5.77640560
    -5.26285200           0.28419520          -5.75399360
    -4.92382080           0.00858320          -5.75590160
    -4.51755520          -0.28324160          -5.78117360
    -4.03976480          -0.53691840          -5.83982480
    -3.48281840          -0.74958800          -5.90515120
    -2.87628160          -0.92077280          -5.97953760
    -2.22492240          -1.08003600          -6.05630880
    -1.51968000          -1.23596160          -6.11209840
    -0.79107280          -1.36899920          -6.13117200
    -0.04577600          -1.47342720          -6.11400640
     0.70142720          -1.55925760          -6.07681280
     1.39379520          -1.57499280          -5.99527360
     2.00605360          -1.53732320          -5.89942960
     2.51770000          -1.50823600          -5.78451120
     2.92968720          -1.46865840          -5.62906240
     3.23486320          -1.46150560          -5.46979920
     3.45659280          -1.48820880          -5.31482720
     3.59106080          -1.51300400          -5.18226640
     3.62253200          -1.55639680          -5.07688560
     3.58963040          -1.60408000          -4.99010080
     3.46708320          -1.65081040          -4.91714480
     3.27110320          -1.71136880          -4.84561920
     3.02362480          -1.77192720          -4.77123280
     2.69699120          -1.83534640          -4.70066080
     2.32267360          -1.89018240          -4.64487040
     1.88207600          -1.91211680          -4.63390320
     1.38950320          -1.90258000          -4.68683280
     0.85592240          -1.86204880          -4.80985680
     0.26750560          -1.78575520          -4.99963760
    -0.30899040          -1.66797600          -5.24234800
    -0.89788400          -1.52826320          -5.54466240
    -1.49488480          -1.38139760          -5.86509680
    -2.08806960          -1.23786960          -6.20222080
    -2.69412960          -1.08337440          -6.54077520
    -3.26156640          -0.90789760          -6.83164560
    -3.77988800          -0.72526960          -7.09819760
    -4.26197040          -0.55408480          -7.34186160
    -4.68492480          -0.40531120          -7.52687440
    -5.01394240          -0.27608880          -7.64226880
    -5.27668000          -0.18453600          -7.71188720
    -5.44738800          -0.09918240          -7.71331760
    -5.53035760          -0.01525840          -7.63845440
    -5.55181520           0.06055840          -7.49492640
    -5.50270080           0.16355520          -7.28750240
    -5.43355920           0.27608880          -7.01618160
    -5.33866880           0.37384000          -6.66189200
    -5.25140800           0.45490240          -6.26182560
    -5.19037280           0.52213680          -5.79929360
    -5.15890160           0.56409840          -5.30099840
    -5.18369680           0.58269520          -4.82034720
    -5.24902320           0.59890720          -4.33778800
    -5.37061680           0.58078800          -3.89194480
    -5.51795920           0.52452080          -3.50809120
    -5.69915760           0.47206880          -3.17239760
    -5.91087360           0.41437120          -2.91919680
    -6.14500080           0.36334960          -2.74372080
    -6.39438640           0.31662000          -2.61497520
    -6.63852720           0.24604800          -2.55632400
    -6.91223120           0.16880000          -2.53486640
    -7.18450560           0.10108960          -2.53534320
    -7.48300560           0.06818800          -2.57110560
    -7.79247280           0.04768400          -2.59828560
    -8.08954240           0.00715280          -2.64453920
    -8.41379200          -0.03480880          -2.70605120
    -8.70990720          -0.12207040          -2.77185440
    -8.97359840          -0.25129280          -2.89487840
    -9.20438800          -0.40912640          -3.03983680
    -9.40084480          -0.62704080          -3.21197520
    -9.55867760          -0.85878400          -3.42607520
    -9.66501200          -1.08623520          -3.64828080
    -9.71984880          -1.29127520          -3.86858000
    -9.71269600          -1.47962560          -4.05168560
    -9.64498480          -1.65653200          -4.19473680
    -9.49525840          -1.80912000          -4.27103040
    -9.28783440          -1.95884720          -4.28724320
    -9.03844800          -2.10094480          -4.25338720
    -8.74519360          -2.23922720          -4.14228400
    -8.40663920          -2.31981280          -3.98397440
    -8.07476080          -2.36129760          -3.78131840
    -7.76767760          -2.36463520          -3.54242320
    -7.46536240          -2.27117520          -3.27014960
    -7.22026800          -2.15005840          -3.00598160
    -6.96229920          -1.99556320          -2.74944320
    -6.71863520          -1.81531920          -2.46620160
    -6.52360880          -1.70373920          -2.26402320
    -6.29043600          -1.60455680          -2.08854640
    -6.04248080          -1.48439440          -1.89542800
    -5.81216800          -1.44290960          -1.80387520
    -5.58614720          -1.41859040          -1.74379360
    -5.32484080          -1.36756880          -1.68037440
    -5.07068640          -1.36137040          -1.67131440
    -4.82988320          -1.37519840          -1.65271760
    -4.57477600          -1.37758240          -1.59978880
    -4.34350960          -1.42955760          -1.54495200
    -4.11796560          -1.52826320          -1.47199600
    -3.86571920          -1.55925760          -1.37472160
    -3.61108800          -1.57213200          -1.28650640
    -3.38268320          -1.56354880          -1.19209280
    -3.12948240          -1.43623360          -1.07622160
    -2.88295760          -1.24311440          -0.96607200
    -2.68125520          -1.01327920          -0.85020080
    -2.45475760          -0.73528320          -0.73385200
    -2.23732000          -0.45824080          -0.65040560
    -2.04181680          -0.25272400          -0.60701360
    -1.83582320          -0.10967280          -0.61273600
    -1.62410720          -0.01812000          -0.67186320
    -1.41525280           0.01573600          -0.76150880
    -1.24502160           0.00047680          -0.86259840
    -1.10626240          -0.07724800          -0.97799280
    -1.02281600          -0.19168880          -1.10387840
    -0.99420560          -0.31328240          -1.20115280
    -1.03282960          -0.46253200          -1.28364560
    -1.15013120          -0.61368960          -1.39427200
    -1.30224240          -0.73337520          -1.51443520
    -1.52111040          -0.85115440          -1.66320800
    -1.76668160          -0.93030960          -1.84392960
    -2.04134000          -0.95367440          -2.04563120
    -2.33316400          -0.95462800          -2.26831440
