SERVICIO GEOLOGICO COLOMBIANO- RED NACIONAL DE ACELEROGRAFOS DE COLOMBIA
SISMO DE CORDOBA (QUINDIO) 1999/01/25 18:19:17 ML=6.3
LATITUD DEL EVENTO(GRADOS): 4.439
LONGITUD DEL EVENTO(GRADOS): -75.698
PROFUNDIDAD DEL EVENTO (Km): 0
CODIGO DE LA ESTACION: CVHER
Estacion:VILLAHERMOSA Geol:ROCA Topo:ONDULADA
LATITUD DE LA ESTACION (GRADOS): 5.032
LONGITUD DE LA ESTACION (GRADOS): -75.12
DISTANCIA EPICENTRAL: 91.918 km
DISTANCIA HIPOCENTRAL: 91.918 km
INTERVALO DE MUESTREO (SEGUNDOS): 0.005
NUMERO DE DATOS: 12200
DURACION (SEGUNDOS): 61
UNIDADES: cm/s^2
TIPO DE EQUIPO: ETNA
ESCALA MAXIMA (G): 2
CORRECCION DE LINEA BASE: LINEA BASE NO REMOVIDA
TIPO DE DATOS: NO CORREGIDO
         EW                  VER                  NS
[...]
     1.74379360          -4.70733680           0.69999680
     2.01272960          -4.63533440           0.31614320
     2.45142000          -4.39834560          -0.01478160
     3.00455120          -3.94058240          -0.28610240
     3.52954880          -3.28254720          -0.40531120
     3.98778880          -2.54964800          -0.27561200
     4.27484480          -2.06518160           0.04386880
     4.25958640          -1.98364240           0.33998480
     4.15706640          -2.00986880           0.38909920
     4.17852400          -1.85728080           0.18692000
     4.25720240          -1.54066080          -0.08106240
     4.16564960          -1.18017200          -0.15544880
     3.95727120          -0.79870240          -0.01049040
     3.85427440          -0.54979360           0.05245200
     3.90434240          -0.63037840          -0.23460400
     4.10842880          -0.89693040          -0.84877040
     4.40168400          -1.18398640          -1.42574320
     4.61196880          -1.37042960          -1.66654560
     4.51898560          -1.37710560          -1.53255440
     4.12702560          -1.29985840          -1.21402720
     3.68595120          -1.24502160          -1.03044480
     3.41510800          -1.30701040          -1.03235280
     3.33642960          -1.45101520          -1.04188880
     3.30400480          -1.55353520          -0.82159040
     3.14044960          -1.49393120          -0.14686560
     2.64072400          -1.29938160           0.96368800
     1.79481520          -1.28507600           2.22587600
     0.87499600          -1.57451600           3.29256080
     0.16069440          -2.06899680           3.96394720
    -0.25606160          -2.65598320           4.27341440
    -0.35142880          -3.12757520           4.45938080
    -0.02193440          -3.42273680           4.61387600
     0.62799440          -3.58200080           4.56380880
     1.26504880          -3.64160560           4.20951840
     1.65653200          -3.61442560           3.68404400
     1.76191360          -3.41796880           3.27444080
     1.77431120          -3.04842000           3.04794320
     1.90639520          -2.56776800           2.81286240
     2.09951440          -2.14862800           2.41136560
     2.17008560          -1.95503200           1.87110880
     2.14147600          -1.82580960           1.36756880
     2.25973120          -1.47819520           1.06573120
     2.64787680          -0.84829360           0.96082720
     3.14998640          -0.16593920           0.72097760
     3.49617040           0.33760080           0.07486320
     3.59201440           0.57983360          -0.93603120
     3.60012080           0.68521520          -1.94168080
     3.56483440           0.96750240          -2.42471680
     3.35741040           1.50442160          -2.30693840
     2.95448320           2.17819200          -1.91259360
     2.42662400           2.75611840          -1.55687360
     1.80673600           2.91776640          -1.25026720
     1.22356400           2.78091440          -0.81729920
     0.97131760           2.71511040          -0.18882720
     0.97036400           2.60925280           0.49257280
     0.73194480           1.98841120           1.00374240
    -0.02384160           0.71048720           1.43003440
    -1.08385120          -0.90932880           1.96313840
    -1.95884720          -2.52103840           2.65598320
    -2.39658320          -4.01592240           3.35407280
    -2.52962080          -5.50556160           3.68690480
    -2.50387200          -7.04908400           3.41367760
    -2.20012640          -8.55541200           2.60972960
    -1.56641040          -9.93680960           1.65653200
    -0.73480640         -11.10744480           0.90694400
     0.12636160         -11.95096960           0.36382640
     0.84638560         -12.43019120          -0.22220640
     1.46627440         -12.50410080          -0.82302080
     2.05612160         -12.01915760          -1.07288400
     2.58207360         -10.97869840          -0.80013280
     2.80618640          -9.61875920          -0.19454960
     2.48670560          -8.34798800           0.26512160
     1.80387520          -7.46202480           0.33426320
     1.11913680          -6.77204160           0.22077600
     0.76246240          -5.96189520           0.17261520
     0.73909760          -4.95338400           0.25033920
     0.76961520          -3.93724480           0.32186480
     0.70524240          -3.05604960           0.21362320
     0.60367600          -2.11095840          -0.10490400
     0.59938400          -0.88214880          -0.39529840
     0.57220480           0.52738160          -0.37431680
     0.26702880           1.76858880           0.12302400
    -0.25939920           2.67601040           1.00564960
    -0.68998320           3.43561200           1.95312480
    -0.84686240           4.19235200           2.70938880
    -0.84304800           4.82082400           3.07798400
    -0.89788400           5.19943200           3.10230240
    -1.09243360           5.29813760           2.91252160
    -1.31082560           5.15794720           2.50387200
    -1.38378160           4.94194000           1.93500480
    -1.15156160           4.78124640           1.28889120
    -0.54836240           4.61339920           0.68187680
     0.32806400           4.22859200           0.20599360
     1.40619280           3.62396240          -0.15974080
     2.68840800           2.97069520          -0.50163280
     3.98302080           2.34508480          -0.80299360
     4.94956960           1.71995200          -0.88930160
     5.48315040           1.08146640          -0.76007840
     5.83553280           0.43869040          -0.62465680
     6.27422320          -0.29659280          -0.70190400
     6.85071920          -1.12438240          -1.02710720
     7.49874080          -1.92117680          -1.29747360
     8.05807120          -2.52723680          -1.22308720
     8.30841040          -2.83575040          -0.77819840
     8.12578240          -2.86960640          -0.13113040
     7.62510320          -2.84051920           0.41770960
     6.93464240          -3.04698960           0.73957440
     6.10256160          -3.54623760           0.79488720
     5.31387360          -4.22334640           0.49543360
     4.80556480          -4.78172320           0.07820160
     4.63962560          -5.08642160          -0.12970000
     4.50801840          -5.39302800          -0.04529920
     4.11224400          -5.95903360           0.16784640
     3.62110160          -6.83450720           0.13351440
     3.41510800          -7.71760960          -0.23031200
     3.63206880          -8.26263440          -0.56743600
     4.05645360          -8.34035840          -0.44488880
     4.37402720          -8.10432400           0.14114400
     4.33874160          -7.82585120           0.64325360
     4.02784320          -7.56359120           0.64945200
     3.71217760          -7.22312960           0.33330880
     3.58820000          -6.63614240           0.27513520
     3.77750400          -5.88083280           0.84686240
     4.08506400          -5.25951360           1.85871120
     4.23192960          -5.06401040           2.68220880
     4.25910960          -5.34963600           2.85196320
     4.37259680          -5.78784960           2.56061520
     4.57716000          -6.02674480           2.32744240
     4.61387600          -5.92231760           2.59447120
     4.34875520          -5.56468960           3.34262880
     3.88097760          -5.09977360           4.11033600
     3.26347360          -4.58288160           4.53853600
     2.41422640          -4.00543200           4.68730960
     1.22976320          -3.39317360           4.74786720
    -0.12922320          -2.82335280           4.70733680
    -1.25217440          -2.34460800           4.42838640
    -1.95694000          -1.99604000           3.81994240
    -2.30693840          -1.67322160           3.01408800
    -2.21538560          -1.16539040           2.15768800
    -1.67274480          -0.50354000           1.26600240
    -0.97274800           0.06484960           0.44155120
    -0.34332240           0.46968480          -0.10538080
     0.19645680           0.74338880          -0.19359600
     0.80966960           0.94461440           0.12636160
     1.54447520           1.20306000           0.59223200
     2.13813760           1.49536160           0.98991360
     2.31504480           1.77383440           1.22261040
     1.99794800           2.04610800           1.17969520
     1.42574320           2.28261920           0.78868880
     1.05953200           2.53248240           0.18882720
     1.28459920           2.82812080          -0.39672880
     1.99079520           2.96640400          -0.90122240
     2.79378880           2.73227680          -1.27410880
     3.64446640           2.32982640          -1.51443520
     4.58097440           2.07328800          -1.69754000
     5.33390080           1.92832960          -1.68561920
     5.45930880           1.69277200          -1.37948960
     4.93144960           1.29270560          -0.89216240
     4.22811520           0.76103200          -0.45919440
     3.55291360          -0.06532640          -0.28562560
     2.80284880          -1.25741920          -0.26988960
     2.06613520          -2.46667840          -0.30851360
     1.49393120          -3.44276400          -0.46777760
     1.00374240          -4.26673920          -0.86164480
     0.47397600          -5.08546800          -1.43337280
     0.05149840          -5.90276720          -1.85489680
    -0.05531280          -6.63661920          -1.90544160
     0.20217920          -7.14397440          -1.54876720
     0.76484720          -7.32517280          -0.98848320
     1.48153280          -7.27653520          -0.47492960
     2.24065760          -7.05480560          -0.00715280
     2.95639040          -6.60514800           0.50830880
     3.38745120          -6.00433360           1.11389200
     3.38268320          -5.48696480           1.65319440
     3.08609040          -5.12075440           1.95169440
     2.71034240          -4.84275840           1.94263440
     2.37941760          -4.62913520           1.68085120
     2.10046800          -4.47368640           1.28459920
     1.87540080          -4.34064880           0.69284400
     1.77288080          -3.98969680          -0.16403200
     1.83630000          -3.09705760          -1.09481840
     1.98984160          -1.60312640          -1.68895760
     2.02178960           0.21266960          -1.57022480
     1.79862960           1.92880640          -0.65135920
     1.22308720           3.08561360           0.77390640
     0.34093840           3.53384000           2.26402320
    -0.44775040           3.55863600           3.42655200
    -0.80680880           3.52859520           3.94535040
    -0.84304800           3.57103360           3.76701360
    -0.92458720           3.48854080           3.04031360
    -1.10626240           3.22771040           1.93643600
    -1.14297840           2.88200400           0.71907040
    -0.79727200           2.53582000          -0.37479440
    -0.03957760           2.32696560          -1.15489920
     0.69093680           2.25544000          -1.45053840
     1.09291040           2.29358640          -1.39045680
     1.28793680           2.38275520          -1.16157520
     1.42049760           2.38943120          -0.73528320
     1.49250000           2.16245680          -0.08535360
     1.31368640           1.58405280           0.68044640
     0.93936960           0.69332160           1.09052640
     0.77819840          -0.42390800           0.83303440
     1.15013120          -1.63555120           0.17023120
     2.04801520          -2.70986560          -0.43249120
     3.15189360          -3.45277760          -0.58794000
     4.09221680          -3.98588160          -0.34046160
     4.53329120          -4.65393040           0.25510800
     4.35400000          -5.53655600           1.28602960
     3.80277600          -6.40869120           2.69174560
     3.30829600          -7.09819760           4.10795200
     3.10516320          -7.72380800           4.90284000
     2.91872000          -8.56304160           4.84466560
     2.47716880          -9.62352720           4.17280160
     2.04658480         -10.46371440           3.32069360
     2.00557680         -10.74266400           2.61545200
     2.31218320         -10.59722880           2.20251120
     2.59065600         -10.38599040           2.06899680
     2.71940240         -10.26296640           1.90639520
     3.15761600         -10.02788560           1.45006160
     4.27055360          -9.43517680           0.71716320
     5.78308080          -8.34560400          -0.04482240
     7.13825200          -6.75249120          -0.63371680
     7.92980160          -4.87756720          -1.10483200
     8.13627280          -3.11088560          -1.60169600
     7.91645040          -1.62792240          -2.04992320
     7.52162960          -0.17786000          -2.15673440
     7.17449200           1.56497920          -1.86681760
     6.86693200           3.62539280          -1.40619280
     6.40344640           5.73587440          -0.90980560
     5.50699200           7.61508960          -0.32997120
     4.16135760           9.04941520           0.46348560
     2.47764560           9.87958880           1.43241920
     0.76532400           9.99927520           2.20680240
    -0.55265440           9.39941440           2.47430800
    -1.32513040           8.27169440           2.21872320
    -1.42574320           6.83975200           1.65462480
    -0.89550000           5.27858720           1.11961360
     0.00286080           3.62443920           0.71573280
     1.00612640           1.93977360           0.37956240
     1.90591840           0.45967120           0.13828240
     2.57253680          -0.69665920           0.13923680
     2.90584560          -1.49822240           0.49066560
     2.90775280          -2.09712960           1.00660320
     2.69937520          -2.72703200           1.34420400
     2.46572480          -3.44896320           1.23310080
     2.23255120          -4.29964080           0.75864800
     1.93166720          -5.18083600           0.18787360
     1.61266320          -5.92565520          -0.36144240
     1.43051120          -6.50405920          -0.72813040
     1.56641040          -6.97517360          -0.72956080
     1.90830240          -7.55023920          -0.28181040
     2.23588960          -8.38565840           0.54931680
     2.59208640          -9.22679920           1.48963920
     3.10802480          -9.86146960           2.19249760
     3.80802160         -10.38551360           2.43186960
     4.69446160         -10.74075680           2.24971760
     5.74636480         -10.86616480           1.87969200
     6.71958960         -10.88619200           1.38473520
     7.45201120         -10.81800480           0.72956080
     8.03804400         -10.47086720           0.02145760
     8.52108000          -9.62924960          -0.64611440
     8.84532960          -8.36515440          -1.22499440
     8.84771360          -6.92367520          -1.66130080
     8.37087600          -5.57756400          -1.96456880
     7.52067600          -4.40502160          -2.06995040
     6.56509360          -3.25632080          -1.83677680
     5.68723680          -2.20346480          -1.40953040
     4.94289360          -1.44052480          -1.19304640
     4.29534880          -1.03187600          -1.52635600
     3.69644160          -0.91409680          -2.33268720
     3.10564080          -0.98180800          -3.13901920
     2.56347680          -1.02615360          -3.47471200
     2.15768800          -0.73003760          -3.16810640
     1.81913360           0.07104880          -2.23207440
     1.41143760           1.16968160          -0.61273600
     0.82778960           2.05659840           1.40666960
     0.16403200           2.36177440           3.23295600
    -0.33617040           2.04801520           4.31108480
    -0.46443920           1.27077120           4.38499440
    -0.25749200           0.14162080           3.84330720
     0.04577600          -1.12247440           3.30018960
     0.40626560          -2.14052240           3.14855600
     0.78392000          -2.80761680           3.26681120
     1.07192960          -3.32498560           3.16190720
     1.21498080          -3.89671360           2.62832640
     1.10197040          -4.53281440           1.82628640
     0.74434320          -5.07402400           0.99515920
     0.35810480          -5.25617600           0.25796880
     0.07581680          -4.94718560          -0.37431680
    -0.18310560          -4.30202480          -0.81586800
    -0.45013440          -3.47614320          -1.00040400
    -0.53024320          -2.49385840          -1.09148000
    -0.15735600          -1.44767760          -1.38282800
     0.63371680          -0.54740880          -1.99937840
     1.60789520           0.08630720          -2.61306800
     2.48336800           0.48255920          -2.75421120
     3.06606320           0.88548640          -2.14958160
     3.51047520           1.57833120          -0.83303440
     3.90005120           2.53677360           0.76627760
     4.11510480           3.43894960           2.28881840
     3.97110000           3.79276240           3.51619760
     3.41606160           3.40557120           4.45556640
     2.63023360           2.34794640           5.11074080
     1.71375280           0.83780320           5.18035920
     0.72717680          -0.65088240           4.62865840
    -0.37622480          -1.84392960           3.57055680
    -1.33419040          -2.51674640           2.27403680
    -1.66225440          -2.56490720           1.06906880
    -1.26409520          -2.17533120           0.15687920
    -0.35762800          -1.72233600          -0.28944000
     0.48685040          -1.68609600          -0.45680960
     0.88024160          -2.13718400          -0.63467040
     0.95987280          -2.73418400          -0.76293920
     0.84304800          -3.12423680          -0.52309040
     0.39386720          -3.30638880           0.29277840
    -0.24557120          -3.40938560           1.49059280
    -0.61130560          -3.48329520           2.36368160
    -0.50973920          -3.63254560           2.32648880
    -0.04243840          -3.76749040           1.63316720
     0.49924880          -3.75986080           1.00708000
     0.77724480          -3.72171440           0.81920640
     0.83780320          -3.75938400           0.76150880
     0.99945040          -3.88717680           0.33235520
     1.27935440          -4.14800640          -0.64659120
     1.58071520          -4.32491280          -1.64222720
     1.84631360          -4.05406960          -1.94072720
     1.98411920          -3.25155280          -1.51968000
     2.07090400          -2.06613520          -0.81682240
     2.14147600          -0.78725840          -0.29325520
     2.14529040           0.26369120          -0.02050400
     2.13956800           0.84257120           0.17118480
     2.36558880           0.85210800           0.27322800
