SERVICIO GEOLOGICO COLOMBIANO- RED NACIONAL DE ACELEROGRAFOS DE COLOMBIA
SISMO DE CORDOBA (QUINDIO) 1999/01/25 18:19:17 ML=6.3
LATITUD DEL EVENTO(GRADOS): 4.439
LONGITUD DEL EVENTO(GRADOS): -75.698
PROFUNDIDAD DEL EVENTO (Km): 0
CODIGO DE LA ESTACION: CCUC1
Estacion:CUCUTA, CIRCUNVALACION Geol:ROCA Topo:ONDULADA
LATITUD DE LA ESTACION (GRADOS): 7.878
LONGITUD DE LA ESTACION (GRADOS): -72.508
DISTANCIA EPICENTRAL: 520.67 km
DISTANCIA HIPOCENTRAL: 520.67 km
INTERVALO DE MUESTREO (SEGUNDOS): 0.005
NUMERO DE DATOS: 4200
DURACION (SEGUNDOS): 21
UNIDADES: cm/s^2
TIPO DE EQUIPO: ETNA
ESCALA MAXIMA (G): 2
CORRECCION DE LINEA BASE: LINEA BASE NO REMOVIDA
TIPO DE DATOS: NO CORREGIDO
         EW                  VER                  NS
[...]
    -7.61365920          -2.80570960           0.22888160
    -7.63893120          -2.95448320           0.20504000
    -7.74955760          -3.15618480           0.20647040
    -7.76958480          -3.26442720           0.27179680
    -7.73620640          -3.25393680           0.43821360
    -7.76243200          -3.18241120           0.53644160
    -7.85636880          -3.11517680           0.45633280
    -7.93647760          -3.05748000           0.31852720
    -7.80010240          -3.03554560           0.18453600
    -7.56740560          -3.08656720           0.08058560
    -7.54642480          -3.13949600           0.07343280
    -7.70330400          -3.16190720           0.17976800
    -7.77053840          -3.12328320           0.31518960
    -7.72237760          -3.00455120           0.45680960
    -7.73906720          -2.88295760           0.50830880
    -7.71427120          -2.81763040           0.44250480
    -7.50923120          -2.84910240           0.45108800
    -7.34233840          -2.96545040           0.44441200
    -7.41958640          -3.08465920           0.36621120
    -7.62271920          -3.09848800           0.39196000
    -7.73191440          -3.00455120           0.50020240
    -7.72476160          -2.90632240           0.53167360
    -7.70044320          -2.85720800           0.43249120
    -7.68852240          -2.88152720           0.38146960
    -7.63273200          -2.95925120           0.42438480
    -7.55119360          -3.06367840           0.42295440
    -7.55405440          -3.17096720           0.42867680
    -7.67993920          -3.21006800           0.46348560
    -7.86876640          -3.15332400           0.41151040
    -7.91645040          -3.04603600           0.28896320
    -7.70807280          -2.98738480           0.17881360
    -7.49921760          -3.07560000           0.14257440
    -7.54737840          -3.25536720           0.21886800
    -7.74955760          -3.37410000           0.32091120
    -7.81202320          -3.34215200           0.42724640
    -7.78675040          -3.16286080           0.50115600
    -7.94649120          -2.91299840           0.42104720
    -8.05854800          -2.71129600           0.28610240
    -7.78055200          -2.69937520           0.25033920
    -7.41052640          -2.86960640           0.33140160
    -7.43198400          -3.06558640           0.43726000
    -7.66229600          -3.15618480           0.54407120
    -7.66992560          -3.08465920           0.71907040
    -7.56645200          -2.96306640           0.75626400
    -7.64894480          -2.91633600           0.49352640
    -7.84349440          -2.94446960           0.21791440
    -7.78579680          -3.00693520           0.16260160
    -7.50446320          -3.04985040           0.21982160
    -7.44056720          -3.06892400           0.33950800
    -7.65323600          -3.05318800           0.47779120
    -7.78961200          -2.98404720           0.49018880
    -7.71570240          -2.92444240           0.38290000
    -7.67517120          -2.94971440           0.22745120
    -7.73382160          -3.05366480           0.13971360
    -7.70664240          -3.14140320           0.22268320
    -7.55643840          -3.14521760           0.42247760
    -7.47251520          -3.04794320           0.54788560
    -7.53402720          -2.92444240           0.48398960
    -7.60364560          -2.90346160           0.33521680
    -7.67707840          -2.98357040           0.19121200
    -7.78245920          -3.11565360           0.09918240
    -7.82346720          -3.20148480           0.16498560
    -7.73429840          -3.15809280           0.42438480
    -7.63034800          -3.02076320           0.66328080
    -7.61747360          -2.89297120           0.69618240
    -7.65466720          -2.86197680           0.56266800
    -7.72857680          -2.88343440           0.33760080
    -7.80820880          -2.93636320           0.15974080
    -7.83348080          -2.99644480           0.13828240
    -7.75575600          -3.02886960           0.29420880
    -7.67850880          -3.04698960           0.52261360
    -7.72523920          -3.03173040           0.61607360
    -7.71236400          -3.03030000           0.57125120
    -7.57694240          -3.10659440           0.46491600
    -7.56025280          -3.23247920           0.31805040
    -7.67612480          -3.31306480           0.21219280
    -7.72333120          -3.27920880           0.24843200
    -7.74478880          -3.12614480           0.36764160
    -7.79914880          -2.95114480           0.34761440
    -7.73906720          -2.88438800           0.23889520
    -7.62271920          -2.92062720           0.20790080
    -7.59696960          -2.97164880           0.22316000
    -7.55023920          -2.98500080           0.26941280
    -7.37571680          -2.97117200           0.38719200
    -7.29179360          -2.94780720           0.54216400
    -7.51638400          -2.92730320           0.52499760
    -7.77435280          -2.92634960           0.34523040
    -7.75527920          -3.00788880           0.25987600
    -7.63797760          -3.15856960           0.24890880
    -7.72714640          -3.23629360           0.25224720
    -7.89499280          -3.15666160           0.38194640
    -7.77053840          -2.91585920           0.58794000
    -7.57360480          -2.66027440           0.60224560
    -7.71045680          -2.59304080           0.41961680
    -7.87878000          -2.75564160           0.31471280
    -7.72047040          -3.08370560           0.38051600
    -7.54261040          -3.43942640           0.49591040
    -7.69948960          -3.60536560           0.56743600
    -7.88354880          -3.48186480           0.64611440
    -7.78150560          -3.16906000           0.63705440
    -7.65514400          -2.86579120           0.38480720
    -7.69996640          -2.73036960           0.01335120
    -7.74765040          -2.74848960          -0.17976800
    -7.67278640          -2.84051920          -0.05817440
    -7.55929920          -2.93827040           0.18119840
    -7.51113920          -2.98595440           0.44727360
    -7.58552560          -2.92015040           0.73242160
    -7.72810000          -2.75898000           0.79107280
    -7.75146480          -2.65312160           0.55837600
    -7.61890400          -2.73180000           0.29897680
    -7.54880880          -2.98547760           0.20694720
    -7.67040240          -3.22961840           0.19407280
    -7.72953040          -3.35025760           0.24890880
    -7.58218800          -3.32403200           0.39625200
    -7.57360480          -3.21292880           0.44012080
    -7.84492480          -3.13663520           0.34904480
    -8.00561920          -3.13711200           0.24795520
    -7.87162800          -3.21292880           0.25415440
    -7.74812720          -3.24821440           0.32186480
    -7.76529280          -3.17668880           0.34141520
    -7.71093360          -3.01551840           0.39005280
    -7.51543040          -2.89392480           0.36144240
    -7.46870080          -2.93874720           0.13160720
    -7.77721440          -3.05080400          -0.05245200
    -8.04090480          -3.13329680           0.03957760
    -7.88068800          -3.10659440           0.32520320
    -7.53593440          -3.01170320           0.64802160
    -7.41386400          -2.88867920           0.83160400
    -7.53021280          -2.73227680           0.74625040
    -7.54404080          -2.70700480           0.49638720
    -7.42149360          -2.85053280           0.27322800
    -7.55023920          -3.07226160           0.17881360
    -7.97891600          -3.19242480           0.23984880
    -8.12530480          -3.05843360           0.47492960
    -7.77816800          -2.80332560           0.70810320
    -7.48157520          -2.68220880           0.71477920
    -7.48491280          -2.85434720           0.50258640
    -7.59124720          -3.17192080           0.25272400
    -7.64608400          -3.39508080           0.12254720
    -7.64417680          -3.41701520           0.14734240
    -7.64083840          -3.28016320           0.28991680
    -7.68184640          -3.11470000           0.41246400
    -7.80487040          -3.00216640           0.39911280
    -7.81869920          -3.03983680           0.26893600
    -7.64417680          -3.16953680           0.16117120
    -7.60698320          -3.27253360           0.19598000
    -7.70950320          -3.23152560           0.34379920
    -7.59649280          -3.01599520           0.50544720
    -7.41195680          -2.78663600           0.54883920
    -7.54785520          -2.63929360           0.38623840
    -7.81106960          -2.68316240           0.12302400
    -7.83300400          -2.85911600           0.05722080
    -7.74669680          -3.00168960           0.23508080
    -7.70330400          -2.98881520           0.45251840
    -7.58981680          -2.78329840           0.66280400
    -7.51256960          -2.59304080           0.76389280
    -7.56645200          -2.59208640           0.65183600
    -7.63607040          -2.86674480           0.44250480
    -7.75527920          -3.29971280           0.34809120
    -7.92837120          -3.61728640           0.39815920
    -7.99894320          -3.68833520           0.49591040
    -7.93027840          -3.52239600           0.68283120
    -7.83634160          -3.28540800           0.81586800
    -7.85541520          -3.13329680           0.66041920
    -7.92121920          -3.09801120           0.37717840
    -7.82966640          -3.14807920           0.22649760
    -7.68470800          -3.19099440           0.17929040
    -7.67326320          -3.12185280           0.22220640
    -7.72428480          -2.89773920           0.39434400
    -7.67326320          -2.61163680           0.55313120
    -7.55119360          -2.45285040           0.57458880
    -7.60507600          -2.49767280           0.49352640
    -7.78818160          -2.71558800           0.40626560
    -7.82489760          -3.00836560           0.42104720
    -7.74288160          -3.21626640           0.59175520
    -7.77816800          -3.31640240           0.75626400
    -7.97748560          -3.36742400           0.79536400
    -8.10337040          -3.36217920           0.77342960
    -8.08048240          -3.33929040           0.71096400
    -8.05091840          -3.33881360           0.59175520
    -7.96985600          -3.32403200           0.55932960
    -7.77816800          -3.27110320           0.74625040
    -7.55977600          -3.18908720           0.90742080
    -7.41195680          -3.10993200           0.82635840
    -7.33995440          -3.03840640           0.61750400
    -7.37333280          -2.97689440           0.37860880
    -7.50589360          -2.92301200           0.12159360
    -7.53736480          -2.87628160          -0.05340560
    -7.47394560          -2.83670400          -0.07772480
    -7.51256960          -2.77805360          -0.11253360
    -7.67374000          -2.71224960          -0.28324160
    -7.75337200          -2.64835360          -0.51307680
    -7.64846800          -2.67314880          -0.71764000
    -7.62748720          -2.79474240          -0.85544560
    -7.74908080          -2.86388400          -0.84877040
    -7.72905360          -2.87818880          -0.61082800
    -7.47680640          -2.87294400          -0.25939920
    -7.28178000          -2.86769840           0.01192080
    -7.33470880          -2.92158160           0.15735600
    -7.28750240          -2.98881520           0.23698800
    -7.00616800          -3.01837920           0.32663360
    -6.83641440          -3.05604960           0.42057040
    -6.93893440          -3.13282000           0.57268160
    -7.10487360          -3.24630720           0.83875680
    -7.16447840          -3.32403200           1.06525440
    -7.27319680          -3.28159360           1.10769280
    -7.42483120          -3.14998640           1.05285680
    -7.34758400          -3.02076320           1.01804720
    -7.11059600          -2.93922400           0.86307520
    -7.12633120          -2.88629520           0.51164640
    -7.33852400          -2.84767120           0.15401840
    -7.36331920          -2.79188160          -0.07629360
    -7.35282880          -2.73370720          -0.23365040
    -7.51209280          -2.74896640          -0.39339040
    -7.60412240          -2.80189520          -0.44488880
    -7.47871360          -2.83479680          -0.33092480
    -7.32660320          -2.88534160          -0.20360960
    -7.27605840          -3.01361120          -0.12874640
    -7.32803360          -3.18622560          -0.00238400
    -7.52973520          -3.29303760           0.23317360
    -7.73000720          -3.33786000           0.44202800
    -7.80630080          -3.35025760           0.56791280
    -7.98940640          -3.33452240           0.66471120
    -8.30793360          -3.31497200           0.69808960
    -8.38232080          -3.28683840           0.74768080
    -8.26263440          -3.26776480           0.90265280
    -8.37421440          -3.22818720           1.02281600
    -8.63742800          -3.12805200           1.02567680
    -8.73851760          -3.00455120           1.00421920
    -8.80575200          -2.95114480           0.88930160
    -9.02223600          -3.00741200           0.57888000
    -9.19437440          -3.08418240           0.28800960
    -9.21726240          -3.05938720           0.25510800
    -9.12857040          -2.90155440           0.38146960
    -8.86964800          -2.73132320           0.47063840
    -8.53586160          -2.66361200           0.47683680
    -8.42618960          -2.73370720           0.34236880
    -8.46385920          -2.86006960           0.02574960
    -8.23211680          -2.97594080          -0.21076240
    -7.83062000          -3.06224800          -0.13351440
    -7.60126080          -3.07226160           0.05769760
    -7.44676560          -3.05557280           0.21696080
    -7.14969600          -3.01027280           0.35619760
    -6.85501120          -2.98070880           0.37431680
    -6.82210960          -3.06701680           0.21648400
    -6.93655040          -3.24583040           0.09393680
    -6.96754480          -3.42798240           0.22172960
    -6.95896160          -3.48997120           0.40769600
    -6.95371600          -3.39269600           0.54407120
    -6.82354000          -3.20959120           0.68235360
    -6.58655200          -3.02219360           0.77962880
    -6.50739680          -2.88200400           0.79250320
    -6.72817200          -2.78759040           0.71382560
    -6.93178160          -2.67648720           0.74291200
    -6.90889360          -2.60210000           0.85926080
    -6.95800800          -2.65932080           0.86021440
    -7.29608560          -2.80284880           0.74863440
    -7.65132880          -2.92873360           0.62608720
    -7.69281360          -2.99119920           0.61845760
    -7.59887680          -3.02696240           0.62704080
    -7.64989840          -3.05891040           0.58126480
    -7.78341280          -3.08036800           0.62704080
    -7.80868560          -3.09419600           0.70428880
    -7.76195520          -3.13472720           0.63419360
    -7.87973440          -3.20672960           0.44727360
    -8.05139520          -3.27062640           0.30851360
    -7.98130000          -3.26967200           0.21362320
    -7.72810000          -3.20911440           0.06961840
    -7.51781440          -3.15427760          -0.06818800
    -7.44438160          -3.09705760          -0.16403200
    -7.47394560          -3.03745280          -0.23174320
    -7.59744640          -2.97546400          -0.20122560
    -7.73906720          -2.91585920          -0.07343280
    -7.83157360          -2.88534160           0.09536720
    -7.95412080          -2.86293040           0.28514880
    -8.08191280          -2.81906160           0.41866320
    -8.19015520          -2.76422480           0.48160560
    -8.27693920          -2.75611840           0.56219120
    -8.28599920          -2.83336640           0.63324000
    -8.28170800          -2.98643120           0.62894800
    -8.38136640          -3.09610400           0.69046000
    -8.45289200          -3.07989120           0.87261200
    -8.25357440          -3.03030000           1.08242000
    -7.99894320          -3.04079040           1.24454480
    -7.99322160          -3.13520400           1.22928640
    -8.03566000          -3.26252000           1.05094880
    -7.85493840          -3.36980800           0.78964240
    -7.57980320          -3.43847280           0.53358080
    -7.50160240          -3.40700160           0.32424960
    -7.61985760          -3.21912800           0.16593920
    -7.63702400          -2.92158160           0.11205680
    -7.39479040          -2.66933440           0.05149840
    -7.19213520          -2.61974320          -0.02956400
    -7.33804720          -2.73942960          -0.07724800
    -7.53736480          -2.90727600          -0.06341920
    -7.40432720          -3.07083120           0.04816080
    -7.20548640          -3.16190720           0.11968640
    -7.33709360          -3.14188000           0.09775200
    -7.48157520          -3.05175760           0.00381440
    -7.19690320          -2.96258960          -0.09489040
    -6.91795360          -2.92921040          -0.20599360
    -7.09962880          -2.94113120          -0.36430320
    -7.33566320          -2.91776640          -0.34713760
    -7.29227040          -2.86960640          -0.17690640
    -7.24029520          -2.87961920          -0.04959120
    -7.39812880          -2.93588640           0.03099440
    -7.57980320          -2.99882880           0.16641600
    -7.58504880          -3.06081760           0.31280480
    -7.51161600          -3.12471360           0.28562560
    -7.54022560          -3.16333760           0.19121200
    -7.75909440          -3.13425040           0.15735600
    -7.99560560          -3.04031360           0.11444080
    -7.94887520          -2.95162240           0.08869200
    -7.79438000          -2.96449680           0.19550320
    -7.88784000          -3.06940080           0.40340400
    -8.08525120          -3.12757520           0.57983360
    -8.01515600          -3.10420960           0.76866160
    -7.76672400          -3.07750720           0.95129040
    -7.75289520          -3.06272480           0.97656240
    -7.94458400          -3.04222080           0.85973760
    -8.03756720          -3.00216640           0.67806240
    -7.96651840          -2.97164880           0.50163280
    -7.91454320          -3.03173040           0.38242320
    -7.96937920          -3.22580320           0.36573440
    -8.03709040          -3.41129280           0.46062480
    -8.09907920          -3.39841840           0.56648240
    -8.05425680          -3.22294240           0.70810320
    -7.81440720          -3.07846080           0.84495520
    -7.65371360          -3.09514960           0.75674080
    -7.81631440          -3.20816080           0.46586960
    -8.01897040          -3.26299680           0.23746480
    -7.89403920          -3.23104880           0.20837760
