SERVICIO GEOLOGICO COLOMBIANO- RED NACIONAL DE ACELEROGRAFOS DE COLOMBIA
SISMO DE CORDOBA (QUINDIO) 1999/01/25 18:19:17 ML=6.3
LATITUD DEL EVENTO(GRADOS): 4.439
LONGITUD DEL EVENTO(GRADOS): -75.698
PROFUNDIDAD DEL EVENTO (Km): 0
CODIGO DE LA ESTACION: CFILA
Estacion:FILADELFIA Geol:ROCA Topo:ONDULADA
LATITUD DE LA ESTACION (GRADOS): 5.297
LONGITUD DE LA ESTACION (GRADOS): -75.568
DISTANCIA EPICENTRAL: 96.325 km
DISTANCIA HIPOCENTRAL: 96.325 km
INTERVALO DE MUESTREO (SEGUNDOS): 0.005
NUMERO DE DATOS: 16000
DURACION (SEGUNDOS): 80
UNIDADES: cm/s^2
TIPO DE EQUIPO: ETNA
ESCALA MAXIMA (G): 2
CORRECCION DE LINEA BASE: LINEA BASE NO REMOVIDA
TIPO DE DATOS: NO CORREGIDO
         EW                  VER                  NS
[...]
     3.54862240           0.83446480           3.10277920
     3.64971200           0.70667280           2.94399280
     3.71980640           0.60844400           2.80046480
     3.72552880           0.51975280           2.65979760
     3.79848480           0.54597840           2.62451200
     3.79753120           0.57411200           2.56395360
     3.81898880           0.69379840           2.56300000
     3.81231280           0.80680880           2.55060160
     3.85093680           0.97990000           2.58827200
     3.86285760           1.17540320           2.59304080
     3.81374320           1.34563440           2.54583360
     3.80945200           1.59263600           2.51626960
     3.79085520           1.84345280           2.41041200
     3.82566480           2.18772880           2.32744240
     3.81183600           2.50911680           2.14147600
     3.90005120           2.90536880           1.97219840
     3.96919280           3.27301040           1.75142320
     4.03404240           3.57294080           1.46818160
     4.16088080           3.89623680           1.24549840
     4.20951840           4.09555440           0.97084080
     4.34255600           4.29868720           0.76818480
     4.37021280           4.35829200           0.51498400
     4.37593440           4.31823760           0.26893600
     4.43601600           4.27675280           0.12111680
     4.46319600           4.17852400           0.00953680
     4.44984400           4.03308880          -0.09155280
     4.43315520           3.87477840          -0.14400480
     4.46558000           3.74746320          -0.08010880
     4.42361840           3.57770880          -0.03051760
     4.39405440           3.44610240           0.05960480
     4.35590720           3.31687920           0.19359600
     4.30917760           3.18622560           0.34284560
     4.26054000           3.05604960           0.48017520
     4.23765200           2.95496000           0.65469760
     4.28295120           2.89487840           0.90122240
     4.31394560           2.78472880           1.09958640
     4.40073040           2.69412960           1.32989920
     4.54616560           2.64740000           1.61600080
     4.66442080           2.58731840           1.84154480
     4.81700880           2.54106560           2.08234800
     5.04541360           2.56109200           2.39610640
     5.25474560           2.55727760           2.65359840
     5.45167920           2.53200560           2.88438800
     5.62047920           2.49671920           3.08704400
     5.85222240           2.48622880           3.31306480
     6.03246720           2.41565680           3.49712400
     6.15882880           2.29406320           3.62062480
     6.33764240           2.16007200           3.74555600
     6.38341920           1.92451440           3.75986080
     6.52599360           1.79147760           3.86142720
     6.72435760           1.70135520           3.96776160
     6.85167280           1.60598720           4.00686240
     6.93750400           1.47914880           4.01496880
     7.04717600           1.42431280           4.03833360
     7.19451920           1.46150560           4.12416480
     7.23552720           1.40285520           4.13703920
     7.30848320           1.37567520           4.19759760
     7.28654880           1.25741920           4.19378320
     7.24554080           1.13487280           4.19807440
     7.21454640           1.00946400           4.22525440
     7.11822480           0.82683600           4.18520000
     7.05528240           0.67806240           4.16278800
     6.97088240           0.50544720           4.13417840
     6.95085520           0.42963040           4.18472320
     6.88743600           0.28753280           4.18043120
     6.87551520           0.17356880           4.24814240
     6.94370240           0.16832320           4.41551200
     6.95991520           0.09155280           4.54807280
     7.01379760           0.07438640           4.77409360
     7.02095040           0.03957760           5.00202160
     6.98184960          -0.06198880           5.22613520
     6.93845760          -0.14209760           5.51080720
     6.89601920          -0.20837760           5.85079200
     6.80208240          -0.33903120           6.18362400
     6.62136080          -0.51403040           6.49595280
     6.47163360          -0.60939760           6.88552880
     6.31761520          -0.71048720           7.26127600
     6.13212560          -0.75960160           7.60889040
     5.99384320          -0.69999680           7.98988320
     5.85842160          -0.64468400           8.30841040
     5.72776800          -0.52833520           8.61692400
     5.58519360          -0.41675600           8.87250880
     5.49650160          -0.29087040           9.09376160
     5.48601120          -0.13971360           9.32502720
     5.40018080          -0.11062640           9.42611680
     5.39064400          -0.02384160           9.54961760
     5.45263280           0.06723440           9.64450800
     5.49364080           0.07104880           9.62543520
     5.63240080           0.14209760           9.62924960
     5.80406160           0.21028480           9.58776480
     5.97333920           0.26130640           9.48286080
     6.15787520           0.32854080           9.34457760
     6.32810560           0.39958960           9.16242560
     6.49881360           0.49257280           8.94355760
     6.65616960           0.61655040           8.70943040
     6.74724560           0.71287120           8.44574000
     6.79063760           0.76436960           8.15773040
     6.80542000           0.84972400           7.88402560
     6.77156480           0.90360640           7.60459920
     6.68573360           0.91743440           7.31563600
     6.60228720           0.98562240           7.04860720
     6.53553040           1.09338800           6.79874400
     6.40773760           1.21688880           6.51788720
     6.29949600           1.38854960           6.24322880
     6.23464560           1.63698160           5.99479680
     6.09207120           1.86300240           5.70869440
     6.01148640           2.11620320           5.49221040
     5.91516480           2.31695200           5.25331520
     5.70440320           2.38180160           4.94480160
     5.66864000           2.54774080           4.83751280
     5.64193760           2.66170480           4.76646400
     5.57947120           2.67028800           4.68921680
     5.63383120           2.70366640           4.72879440
     5.60951200           2.63452560           4.73785440
     5.64193760           2.56443040           4.81081040
     5.73635120           2.54106560           4.93764880
     5.70535680           2.41947200           4.98628640
     5.76448480           2.36225120           5.10311120
     5.84077840           2.37846400           5.25569920
     5.79452480           2.29072560           5.31625760
     5.78403440           2.21824640           5.37014000
     5.78880320           2.14815120           5.44977200
     5.78880320           2.04086320           5.51843680
     5.73635120           1.88493760           5.50174720
     5.74827200           1.77192720           5.53750960
     5.77402080           1.68561920           5.58805440
     5.69677360           1.50012960           5.51366800
     5.73062880           1.41191520           5.52320480
     5.66434880           1.25837360           5.43355920
     5.59425360           1.13201120           5.33008560
     5.57661040           1.13487280           5.32007200
     5.40065760           1.04713440           5.17463680
     5.26142160           1.07049920           5.09977360
     5.00011440           1.04332000           4.96149040
     4.75597360           1.03569040           4.83703600
     4.64725520           1.17683440           4.85992400
     4.38928640           1.17969520           4.74882160
     4.17900080           1.24263760           4.68635520
     4.03881040           1.40523920           4.68730960
     3.84855280           1.52683280           4.60290880
     3.73506560           1.73807120           4.55951680
     3.57818640           1.93834320           4.45604320
     3.35550320           2.08044080           4.24432720
     3.18241120           2.28023520           4.03928720
     2.94017760           2.41374960           3.74317200
     2.76947040           2.58016560           3.48472560
     2.59542480           2.71844880           3.20196160
     2.36225120           2.74324400           2.81286240
     2.17866880           2.73227680           2.48050720
     1.96123120           2.62737280           2.13384640
     1.82628640           2.55346320           1.85871120
     1.62649120           2.36988080           1.59215920
     1.45959840           2.20441840           1.40237840
     1.29079840           2.06708880           1.26934080
     1.07526800           1.90401040           1.16968160
     0.92172640           1.84154480           1.18970880
     0.63800800           1.72996560           1.15776080
     0.42724640           1.74999200           1.21212000
     0.20265600           1.79815280           1.28650640
    -0.04816080           1.86348000           1.34134320
    -0.30136080           1.94597280           1.35231040
    -0.56362160           2.02608080           1.31845440
    -0.72336160           2.21109360           1.30414960
    -0.93460080           2.31742880           1.15060800
    -1.07383760           2.44665120           0.91886560
    -1.12724320           2.56872160           0.63705440
    -1.04808800           2.71892560           0.38433040
    -0.90312960           2.82716720           0.04911440
    -0.79011920           2.80809440          -0.36764160
    -0.61368960           2.77137760          -0.77915200
    -0.44298160           2.59304080          -1.29032160
    -0.17166160           2.44331360          -1.70230880
     0.19168880           2.33173360          -2.00700720
     0.53930320           2.10237520          -2.29024880
     0.85830720           1.80435200          -2.55918480
     1.24740640           1.54018400          -2.69126880
     1.63412080           1.23500800          -2.73752240
     1.96790720           0.89168560          -2.76136400
     2.37226480           0.65946560          -2.65169120
     2.71368000           0.39815920          -2.55680080
     3.14092640           0.26464480          -2.33602560
     3.54146960           0.17595280          -2.14624400
     3.88336160           0.07915520          -2.02465040
     4.44078480           0.19216560          -1.72805760
     4.97627280           0.27465840          -1.49822240
     5.49602480           0.33330880          -1.33562080
     6.03914240           0.38480720          -1.19209280
     6.60753280           0.41627920          -1.04379680
     7.22694400           0.47111520          -0.88930160
     7.76481600           0.45394880          -0.79393360
     8.25834240           0.37288640          -0.73909760
     8.77952560           0.32568000          -0.65469760
     9.25064080           0.27370480          -0.55980720
     9.62305040           0.17786000          -0.51450720
     9.90009280           0.08010880          -0.47636000
    10.10560960           0.01525840          -0.42009360
    10.31875600           0.08916880          -0.27322800
    10.35022720           0.10299680          -0.20122560
    10.32018640           0.17118480          -0.08583040
    10.28537760           0.33378640           0.12064000
    10.15472400           0.47540640           0.28753280
    10.08605920           0.75578720           0.60033760
     9.88245040           0.92268000           0.86498240
     9.70697440           1.12772000           1.18064880
     9.54198800           1.34277360           1.54876720
     9.27257520           1.43003440           1.86586400
     9.09948320           1.58786800           2.31170640
     8.83197760           1.62076960           2.67171840
     8.53586160           1.58882160           3.00216640
     8.31127200           1.55067440           3.42416800
     8.09526480           1.45196880           3.87096400
     7.84111040           1.26981760           4.29248800
     7.57408160           0.99325200           4.74882160
     7.33470880           0.70858000           5.27143440
     7.09009200           0.42867680           5.82599600
     6.87599200           0.15974080           6.44493120
     6.60991680          -0.12970000           7.02571840
     6.37912720          -0.34952160           7.66801840
     6.18791600          -0.47779120           8.36801520
     5.95664960          -0.60367600           9.01794400
     5.68437600          -0.78105920           9.62400400
     5.43165200          -0.90932880          10.25009120
     5.26189840          -0.99372880          10.89477520
     5.03635440          -1.17349600          11.45267520
     4.85181840          -1.29938160          12.04586000
     4.66108320          -1.44958480          12.55416880
     4.51469440          -1.57642400          13.00954800
     4.40406800          -1.67417520          13.40484640
     4.23860560          -1.80768960          13.65613920
     4.25100320          -1.74856160          13.99517040
     4.15134400          -1.78241760          14.11247280
     4.08029520          -1.78098640          14.14060560
     4.13560880          -1.64699520          14.20831680
     4.02593600          -1.64508800          14.01567440
     4.00590880          -1.55544320          13.80205120
     4.05645360          -1.43384960          13.52834720
     4.07457360          -1.32703760          13.13114160
     4.09221680          -1.21831920          12.67528560
     4.11462800          -1.12199760          12.13741280
     4.10366080          -1.02424640          11.52610800
     4.05359280          -0.93555440          10.85042960
     4.00638560          -0.78582800          10.18571840
     3.90148160          -0.64039200           9.47952240
     3.68976560          -0.55980720           8.68082080
     3.55386720          -0.36573440           7.98082320
     3.46660640          -0.10824240           7.36570320
     3.24535360           0.07200240           6.68621040
     3.07369200           0.32377280           6.08491920
     2.86960640           0.55360800           5.50127040
     2.69460640           0.85639920           4.98390160
     2.48336800           1.13534960           4.43220160
     2.22873680           1.39236480           3.85332080
     2.06613520           1.75333040           3.36456320
     1.79624560           1.98936480           2.75182720
     1.57785440           2.24590320           2.15864160
     1.39713280           2.47716880           1.59168240
     1.24692880           2.67219520           1.05381040
     1.13105760           2.79569600           0.50735440
     1.04999520           2.84719440          -0.02622640
     1.07240640           2.94542320          -0.44441200
     1.14917760           3.01694880          -0.83208080
     1.24931360           3.01694880          -1.20067600
     1.36232400           2.92110480          -1.55973440
     1.61361680           2.89773920          -1.77478800
     1.92832960           2.87008320          -1.88779840
     2.24733360           2.74705920          -1.96266160
     2.59017920           2.61592880          -1.96981440
     3.01790240           2.52723680          -1.84202160
     3.35598000           2.33078000          -1.74045600
     3.69596480           2.13670720          -1.60551040
     4.22191600           2.09808320          -1.24502160
     4.60052480           1.90353360          -0.98657600
     4.98104080           1.67846640          -0.72336160
     5.40828720           1.47771840          -0.40149680
     5.81216800           1.24645200          -0.09059920
     6.28328320           1.04284320           0.26559840
     6.77013360           0.82969680           0.58746320
     7.30562240           0.66232720           0.94270720
     7.84397120           0.47779120           1.28746000
     8.40902320           0.27751920           1.64270400
     8.95118720           0.03004080           2.01177600
     9.44042240          -0.29993040           2.35939040
     9.86003840          -0.71668640           2.71892560
    10.21957360          -1.16586720           3.12042240
    10.56671120          -1.58786800           3.58295440
    10.79416240          -2.02655760           4.03594960
    10.98966560          -2.38132480           4.57239120
    11.11364400          -2.68697760           5.12075440
    11.13271680          -2.93588640           5.63192400
    11.20996480          -2.98786160           6.25514960
    11.19136800          -2.96449680           6.80828080
    11.07740400          -2.87866560           7.28416480
    11.01493840          -2.65407600           7.78150560
    10.93864480          -2.35080720           8.22830240
    10.80513040          -2.03466400           8.57067120
    10.67733760          -1.68371200           8.83388480
    10.57624800          -1.28555280           9.07182720
    10.46180720          -0.91552720           9.20820240
    10.35451920          -0.55932960           9.31167600
    10.26010480          -0.21600720           9.38796960
    10.20097760           0.12826880           9.44471360
    10.02311680           0.33378640           9.40704320
     9.85670080           0.51879920           9.35316080
     9.76800880           0.75435600           9.36889680
     9.56726080           0.86593600           9.28258880
     9.50145760           1.12199760           9.32931920
     9.38463200           1.32226960           9.33837920
     9.19818880           1.48439440           9.27734400
     9.08565520           1.77717200           9.29784800
     8.86154160           1.95694000           9.15241280
     8.63742800           2.15625760           8.95929360
     8.46958160           2.41327280           8.76283680
     8.36420080           2.71368000           8.54158400
     8.26025040           2.98261680           8.26358800
     8.12864320           3.16524480           7.87401200
     8.04567360           3.36122480           7.48682000
     8.02564640           3.56912640           7.12156320
     7.97605520           3.67403040           6.67333600
     7.96318080           3.71122400           6.23464560
     8.05330240           3.74984720           5.86795840
     8.22544080           3.75223120           5.56898080
     8.39185680           3.63159200           5.29003120
     8.46672080           3.32546240           4.97961040
     8.69894000           3.07226160           4.86564640
     8.98456560           2.79903440           4.88710400
     9.20534160           2.42233280           4.96912000
     9.35411440           1.95932400           5.07211680
     9.50384160           1.48773200           5.29193840
     9.63020320           1.05381040           5.62429440
     9.62066640           0.58078800           5.94854320
     9.62114320           0.17309200           6.38389600
     9.52339200          -0.21028480           6.84309040
