SERVICIO GEOLOGICO COLOMBIANO- RED NACIONAL DE ACELEROGRAFOS DE COLOMBIA
SISMO DE CORDOBA (QUINDIO) 1999/01/25 18:19:17 ML=6.3
LATITUD DEL EVENTO(GRADOS): 4.439
LONGITUD DEL EVENTO(GRADOS): -75.698
PROFUNDIDAD DEL EVENTO (Km): 0
CODIGO DE LA ESTACION: CPOP4
Estacion:POPAYAN, ISS - Nueva EPS Geol:SUELO Topo:PLANA
LATITUD DE LA ESTACION (GRADOS): 2.455
LONGITUD DE LA ESTACION (GRADOS): -76.602
DISTANCIA EPICENTRAL: 242.007 km
DISTANCIA HIPOCENTRAL: 242.007 km
INTERVALO DE MUESTREO (SEGUNDOS): 0.005
NUMERO DE DATOS: 7936
DURACION (SEGUNDOS): 39.68
UNIDADES: cm/s^2
TIPO DE EQUIPO: SSA
ESCALA MAXIMA (G): 1
CORRECCION DE LINEA BASE: LINEA BASE NO REMOVIDA
TIPO DE DATOS: NO CORREGIDO
         EW                  VER                  NS
[...]
    -1.46484360           0.00000000           0.48828120
    -1.46484360           0.00000000           0.48828120
    -1.46484360           0.00000000           0.48828120
    -1.46484360           0.00000000           0.48828120
    -1.46484360           0.00000000           0.48828120
    -1.46484360           0.00000000           0.48828120
    -1.46484360           0.00000000           0.00000000
    -1.46484360           0.00000000           0.00000000
    -0.97656240           0.00000000           0.00000000
    -0.97656240           0.00000000          -0.48828120
    -0.97656240           0.00000000          -0.48828120
    -0.97656240           0.00000000          -0.48828120
    -0.48828120           0.00000000          -0.97656240
    -0.48828120           0.00000000          -0.97656240
    -0.48828120           0.00000000          -0.97656240
    -0.48828120           0.00000000          -1.46484360
     0.00000000           0.00000000          -1.46484360
     0.00000000           0.00000000          -1.46484360
     0.00000000           0.00000000          -1.46484360
     0.00000000           0.00000000          -1.46484360
     0.00000000           0.00000000          -1.46484360
     0.48828120           0.00000000          -1.46484360
     0.00000000           0.00000000          -1.46484360
     0.00000000           0.00000000          -0.97656240
     0.00000000           0.00000000          -0.97656240
     0.00000000           0.00000000          -0.97656240
     0.00000000           0.00000000          -1.46484360
     0.00000000           0.00000000          -0.97656240
     0.00000000           0.00000000          -0.97656240
     0.00000000           0.00000000          -1.46484360
     0.00000000           0.00000000          -0.97656240
     0.00000000           0.00000000          -0.97656240
     0.00000000           0.00000000          -1.46484360
     0.00000000           0.00000000          -0.97656240
     0.00000000           0.00000000          -1.46484360
     0.00000000           0.00000000          -1.46484360
     0.48828120           0.00000000          -1.46484360
     0.48828120           0.00000000          -1.46484360
     0.48828120           0.00000000          -1.46484360
     0.48828120           0.00000000          -1.46484360
     0.48828120           0.00000000          -1.46484360
     0.48828120           0.00000000          -1.46484360
     0.48828120           0.00000000          -1.46484360
     0.48828120           0.00000000          -1.46484360
     0.48828120           0.00000000          -1.46484360
     0.48828120           0.00000000          -1.46484360
     0.48828120           0.00000000          -1.46484360
     0.48828120           0.00000000          -0.97656240
     0.48828120           0.00000000          -0.97656240
     0.48828120           0.00000000          -0.97656240
     0.48828120           0.00000000          -0.97656240
     0.48828120           0.00000000          -0.48828120
     0.97656240           0.00000000          -0.48828120
     0.97656240           0.00000000           0.00000000
     0.97656240           0.00000000           0.00000000
     0.97656240           0.00000000           0.00000000
     0.97656240           0.00000000           0.48828120
     0.97656240           0.00000000           0.48828120
     0.97656240           0.00000000           0.48828120
     0.97656240           0.00000000           0.48828120
     0.97656240           0.00000000           0.48828120
     0.97656240           0.00000000           0.48828120
     0.97656240           0.00000000           0.48828120
     0.97656240           0.00000000           0.48828120
     0.97656240           0.00000000           0.48828120
     0.97656240           0.00000000           0.48828120
     0.97656240           0.00000000           0.48828120
     0.97656240           0.00000000           0.48828120
     0.97656240           0.00000000           0.48828120
     0.97656240           0.00000000           0.48828120
     0.97656240           0.00000000           0.48828120
     0.97656240           0.00000000           0.48828120
     0.97656240           0.00000000           0.97656240
     0.97656240           0.00000000           0.97656240
     0.97656240           0.00000000           0.97656240
     1.46484360           0.00000000           1.46484360
     1.46484360           0.00000000           1.46484360
     1.46484360           0.00000000           1.46484360
     1.95312480           0.00000000           1.95312480
     1.95312480           0.00000000           1.95312480
     1.95312480           0.00000000           1.95312480
     1.95312480           0.00000000           1.95312480
     1.95312480           0.00000000           1.95312480
     1.95312480           0.00000000           1.95312480
     1.95312480           0.00000000           2.44140640
     1.95312480           0.00000000           2.44140640
     1.95312480           0.00000000           2.44140640
     1.95312480           0.00000000           2.44140640
     1.46484360           0.00000000           2.44140640
     1.46484360           0.00000000           2.44140640
     1.46484360           0.00000000           2.44140640
     1.46484360           0.00000000           1.95312480
     1.46484360           0.00000000           2.44140640
     1.46484360           0.00000000           2.44140640
     1.46484360           0.00000000           1.95312480
     0.97656240           0.00000000           1.95312480
     1.46484360           0.00000000           1.95312480
     1.46484360           0.00000000           1.95312480
     1.46484360           0.00000000           1.46484360
     1.46484360           0.00000000           1.46484360
     1.46484360           0.00000000           0.97656240
     1.46484360           0.00000000           0.97656240
     1.46484360           0.00000000           0.97656240
     1.46484360           0.00000000           0.48828120
     1.95312480           0.00000000           0.00000000
     1.95312480           0.00000000           0.00000000
     1.95312480           0.00000000          -0.48828120
     1.95312480           0.00000000          -0.48828120
     1.95312480           0.00000000          -0.97656240
     1.95312480           0.00000000          -1.46484360
     2.44140640           0.00000000          -1.46484360
     2.44140640           0.00000000          -1.46484360
     2.44140640           0.00000000          -1.46484360
     2.44140640           0.00000000          -1.95312480
     2.44140640           0.00000000          -2.44140640
     2.44140640           0.00000000          -2.44140640
     2.44140640           0.00000000          -2.44140640
     2.44140640           0.00000000          -2.44140640
     2.44140640           0.00000000          -2.44140640
     2.44140640           0.00000000          -2.92968760
     2.44140640           0.00000000          -2.92968760
     2.44140640           0.00000000          -2.92968760
     2.44140640           0.00000000          -2.92968760
     2.44140640           0.00000000          -2.92968760
     2.92968760           0.00000000          -2.92968760
     2.44140640           0.00000000          -2.92968760
     2.44140640           0.00000000          -2.92968760
     2.44140640           0.00000000          -2.92968760
     2.44140640           0.00000000          -2.44140640
     2.44140640           0.00000000          -2.44140640
     1.95312480           0.00000000          -2.44140640
     1.95312480           0.00000000          -2.44140640
     1.95312480           0.00000000          -2.44140640
     1.95312480           0.00000000          -2.44140640
     1.95312480           0.00000000          -2.44140640
     1.95312480           0.00000000          -2.44140640
     1.46484360           0.00000000          -2.44140640
     1.46484360           0.00000000          -1.95312480
     1.46484360           0.00000000          -1.95312480
     0.97656240           0.00000000          -1.95312480
     0.97656240           0.00000000          -1.95312480
     0.97656240           0.00000000          -1.95312480
     0.97656240           0.00000000          -1.46484360
     0.48828120           0.00000000          -1.46484360
     0.48828120           0.00000000          -0.97656240
     0.48828120           0.00000000          -0.97656240
     0.00000000           0.00000000          -0.97656240
     0.00000000           0.00000000          -0.97656240
     0.00000000           0.00000000          -0.48828120
     0.00000000           0.00000000          -0.48828120
    -0.48828120           0.00000000          -0.48828120
    -0.48828120           0.00000000          -0.48828120
    -0.48828120           0.00000000          -0.48828120
    -0.97656240           0.00000000           0.00000000
    -0.97656240           0.00000000           0.00000000
    -0.97656240           0.00000000           0.00000000
    -1.46484360           0.00000000           0.00000000
    -1.46484360           0.00000000           0.00000000
    -1.46484360           0.00000000           0.48828120
    -1.46484360           0.00000000           0.00000000
    -1.46484360           0.00000000           0.00000000
    -1.95312480           0.00000000           0.00000000
    -1.95312480           0.00000000           0.00000000
    -1.95312480           0.00000000           0.00000000
    -1.95312480           0.00000000           0.00000000
    -1.95312480           0.00000000          -0.48828120
    -1.95312480           0.00000000          -0.48828120
    -2.44140640           0.00000000          -0.48828120
    -2.44140640           0.00000000          -0.48828120
    -2.44140640           0.00000000          -0.48828120
    -2.44140640           0.00000000          -0.97656240
    -2.44140640           0.00000000          -0.97656240
    -2.44140640           0.00000000          -0.97656240
    -2.44140640           0.00000000          -0.97656240
    -2.92968760           0.00000000          -1.46484360
    -2.92968760           0.00000000          -1.46484360
    -2.92968760           0.00000000          -1.46484360
    -2.92968760           0.00000000          -1.46484360
    -3.41796880           0.00000000          -1.95312480
    -3.41796880           0.00000000          -1.95312480
    -3.41796880           0.00000000          -1.95312480
    -3.90625000           0.00000000          -2.44140640
    -3.90625000           0.00000000          -2.44140640
    -3.90625000           0.00000000          -2.44140640
    -3.90625000           0.00000000          -2.92968760
    -3.90625000           0.00000000          -2.44140640
    -3.90625000           0.00000000          -2.92968760
    -4.39453120           0.00000000          -2.92968760
    -4.39453120           0.00000000          -2.92968760
    -4.39453120           0.00000000          -2.92968760
    -4.39453120           0.00000000          -2.92968760
    -4.39453120           0.00000000          -2.92968760
    -3.90625000           0.00000000          -2.44140640
    -4.39453120           0.00000000          -2.44140640
    -4.39453120           0.00000000          -2.44140640
    -4.39453120           0.00000000          -2.44140640
    -4.39453120           0.00000000          -2.44140640
    -3.90625000           0.00000000          -2.44140640
    -4.39453120           0.00000000          -2.44140640
    -4.39453120           0.00000000          -2.44140640
    -4.39453120           0.00000000          -2.44140640
    -4.39453120           0.00000000          -2.44140640
    -4.39453120           0.00000000          -2.44140640
    -4.39453120           0.00000000          -2.44140640
    -4.39453120           0.00000000          -2.44140640
    -4.39453120           0.00000000          -2.44140640
    -3.90625000           0.00000000          -2.44140640
    -3.90625000           0.00000000          -1.95312480
    -3.90625000           0.00000000          -1.95312480
    -3.90625000           0.00000000          -1.95312480
    -3.90625000           0.00000000          -1.95312480
    -3.90625000           0.00000000          -1.95312480
    -3.41796880           0.00000000          -1.46484360
    -3.41796880           0.00000000          -1.46484360
    -3.41796880           0.00000000          -1.46484360
    -3.41796880           0.00000000          -1.46484360
    -3.41796880           0.00000000          -1.46484360
    -3.41796880           0.00000000          -1.46484360
    -3.90625000           0.00000000          -1.46484360
    -3.90625000           0.00000000          -1.46484360
    -3.90625000           0.00000000          -1.46484360
    -4.39453120           0.00000000          -1.46484360
    -4.88281240           0.00000000          -1.46484360
    -4.88281240           0.00000000          -1.46484360
    -4.88281240           0.00000000          -1.46484360
    -5.37109360           0.00000000          -1.46484360
    -5.37109360           0.00000000          -1.46484360
    -5.85937520           0.00000000          -1.46484360
    -5.85937520           0.00000000          -1.46484360
    -5.85937520           0.00000000          -1.46484360
    -5.85937520           0.00000000          -1.46484360
    -6.34765640           0.00000000          -0.97656240
    -6.34765640           0.00000000          -0.97656240
    -6.34765640           0.00000000          -0.97656240
    -5.85937520           0.00000000          -0.97656240
    -6.34765640           0.00000000          -0.97656240
    -6.34765640           0.00000000          -0.97656240
    -5.85937520           0.00000000          -0.97656240
    -5.85937520           0.00000000          -0.48828120
    -5.85937520           0.00000000          -0.97656240
    -5.37109360           0.00000000          -0.48828120
    -5.37109360           0.00000000          -0.48828120
    -5.37109360           0.00000000          -0.48828120
    -4.88281240           0.00000000          -0.48828120
    -4.88281240           0.00000000          -0.48828120
    -4.39453120           0.00000000          -0.48828120
    -4.39453120           0.00000000          -0.48828120
    -3.90625000           0.00000000          -0.48828120
    -3.90625000           0.00000000          -0.48828120
    -3.41796880           0.00000000          -0.48828120
    -2.92968760           0.00000000          -0.48828120
    -2.92968760           0.00000000          -0.48828120
    -2.44140640           0.00000000          -0.48828120
    -1.95312480           0.00000000          -0.48828120
    -1.95312480           0.00000000          -0.48828120
    -1.46484360           0.00000000          -0.48828120
    -1.46484360           0.00000000          -0.48828120
    -1.46484360           0.00000000          -0.48828120
    -0.97656240           0.00000000          -0.48828120
    -0.97656240           0.00000000          -0.48828120
    -0.48828120           0.00000000          -0.48828120
    -0.48828120           0.00000000          -0.48828120
     0.00000000           0.00000000          -0.48828120
     0.00000000           0.00000000          -0.48828120
     0.00000000           0.00000000          -0.48828120
     0.48828120           0.00000000          -0.48828120
     0.48828120           0.00000000          -0.48828120
     0.97656240           0.00000000          -0.48828120
     0.97656240           0.00000000          -0.48828120
     0.97656240           0.00000000          -0.48828120
     1.46484360           0.00000000          -0.97656240
     1.46484360           0.00000000          -0.97656240
     1.95312480           0.00000000          -0.97656240
     1.95312480           0.00000000          -0.97656240
     2.44140640           0.00000000          -0.97656240
     2.44140640           0.00000000          -0.97656240
     2.92968760           0.00000000          -1.46484360
     2.92968760           0.48828120          -1.46484360
     3.41796880           0.00000000          -1.46484360
     3.41796880           0.00000000          -1.95312480
     3.41796880           0.00000000          -1.95312480
     3.90625000           0.00000000          -1.95312480
     3.90625000           0.00000000          -1.95312480
     4.39453120           0.00000000          -1.95312480
     3.90625000           0.00000000          -2.44140640
     4.39453120           0.00000000          -2.44140640
     4.39453120           0.00000000          -2.44140640
     4.88281240           0.00000000          -2.44140640
     4.88281240           0.00000000          -2.44140640
     4.88281240           0.00000000          -2.44140640
     4.88281240           0.00000000          -2.44140640
     4.88281240           0.00000000          -2.44140640
     4.88281240           0.00000000          -2.44140640
     4.88281240           0.00000000          -2.44140640
     4.88281240           0.00000000          -2.44140640
     4.39453120           0.00000000          -2.44140640
     4.39453120           0.00000000          -2.44140640
     4.39453120           0.00000000          -2.44140640
     4.39453120           0.00000000          -1.95312480
     4.39453120           0.00000000          -1.95312480
     4.39453120           0.00000000          -1.95312480
     3.90625000           0.00000000          -1.95312480
     4.39453120           0.00000000          -1.95312480
     3.90625000           0.00000000          -1.46484360
     3.90625000           0.00000000          -1.46484360
     3.90625000           0.00000000          -1.46484360
     4.39453120           0.00000000          -1.46484360
     4.39453120           0.00000000          -1.46484360
     4.39453120           0.00000000          -0.97656240
     4.39453120           0.00000000          -0.97656240
     4.39453120           0.00000000          -0.97656240
     4.39453120           0.00000000          -0.97656240
     4.39453120           0.00000000          -0.48828120
     4.39453120           0.00000000          -0.48828120
     3.90625000           0.00000000           0.00000000
     3.90625000           0.00000000           0.00000000
     3.90625000           0.00000000           0.00000000
     3.41796880           0.00000000           0.48828120
     3.41796880           0.00000000           0.48828120
     3.41796880           0.00000000           0.48828120
     2.92968760           0.00000000           0.97656240
     2.92968760           0.00000000           0.97656240
     2.44140640           0.00000000           0.97656240
     2.44140640           0.00000000           1.46484360
     2.44140640           0.00000000           1.46484360
     2.44140640           0.00000000           1.46484360
     1.95312480           0.00000000           1.46484360
     1.95312480           0.00000000           1.95312480
     1.95312480           0.00000000           1.95312480
     1.95312480           0.00000000           1.95312480
     1.95312480           0.00000000           1.95312480
