SERVICIO GEOLOGICO COLOMBIANO- RED NACIONAL DE ACELEROGRAFOS DE COLOMBIA
SISMO DE CORDOBA (QUINDIO) 1999/01/25 18:19:17 ML=6.3
LATITUD DEL EVENTO(GRADOS): 4.439
LONGITUD DEL EVENTO(GRADOS): -75.698
PROFUNDIDAD DEL EVENTO (Km): 0
CODIGO DE LA ESTACION: CVIL1
Estacion:VILLAVICENCIO Geol:ROCA Topo:PLANA
LATITUD DE LA ESTACION (GRADOS): 4.174
LONGITUD DE LA ESTACION (GRADOS): -73.639
DISTANCIA EPICENTRAL: 230.434 km
DISTANCIA HIPOCENTRAL: 230.434 km
INTERVALO DE MUESTREO (SEGUNDOS): 0.005
NUMERO DE DATOS: 8400
DURACION (SEGUNDOS): 42
UNIDADES: cm/s^2
TIPO DE EQUIPO: ETNA
ESCALA MAXIMA (G): 2
CORRECCION DE LINEA BASE: LINEA BASE NO REMOVIDA
TIPO DE DATOS: NO CORREGIDO
         EW                  VER                  NS
[...]
    -1.50299040          -6.79254560          -5.69963440
    -1.29842720          -6.71911200          -5.48219680
    -1.06287040          -6.68191920          -5.26237520
    -0.76675440          -6.67476640          -5.06734880
    -0.47445280          -6.69384000          -4.90284000
    -0.18644320          -6.72769520          -4.77314000
     0.11730160          -6.77824000          -4.70829040
     0.37574800          -6.83403040          -4.67252720
     0.58126480          -6.87503840          -4.69446160
     0.70714960          -6.93464240          -4.79221360
     0.74625040          -6.96754480          -4.93621840
     0.72813040          -6.98566400          -5.14554960
     0.64897520          -7.02524160          -5.40161120
     0.51498400          -7.05862080          -5.70058800
     0.34618400          -7.08627680          -6.01577760
     0.15926400          -7.11441040          -6.31523120
    -0.02336480          -7.13491440          -6.58750560
    -0.19836400          -7.12108640          -6.83116880
    -0.36334960          -7.09104560          -7.08389280
    -0.50067920          -7.06720320          -7.31039040
    -0.60319920          -7.04002400          -7.51495360
    -0.69999680          -7.00235360          -7.72857680
    -0.78773520          -6.96420640          -7.92074240
    -0.81682240          -6.93082800          -8.09097280
    -0.80871600          -6.90221760          -8.23450080
    -0.78439680          -6.87217680          -8.35371040
    -0.72145440          -6.84261360          -8.44192480
    -0.65374400          -6.84452080          -8.50391360
    -0.59080160          -6.85739520          -8.51869600
    -0.54359440          -6.87646880          -8.46624400
    -0.50783120          -6.91747680          -8.41140720
    -0.47874480          -6.96754480          -8.30841040
    -0.49924880          -7.01856640          -8.15248480
    -0.53548800          -7.08389280          -8.02230800
    -0.56838960          -7.14492800          -7.87210480
    -0.60129200          -7.14826560          -7.71713280
    -0.63562400          -7.11917840          -7.58743280
    -0.68140000          -7.07006480          -7.46488560
    -0.72765360          -6.99996960          -7.37619440
    -0.75674080          -6.91223120          -7.33232480
    -0.74768080          -6.82687760          -7.31563600
    -0.72670000          -6.75249120          -7.31849680
    -0.69427520          -6.65473920          -7.35139840
    -0.65755840          -6.54888160          -7.39479040
    -0.62465680          -6.43825520          -7.42530800
    -0.58650960          -6.33668880          -7.43818320
    -0.55932960          -6.25276560          -7.42816960
    -0.50497040          -6.17790240          -7.39908240
    -0.46920800          -6.12878800          -7.37762480
    -0.43487520          -6.12592720          -7.34233840
    -0.35381280          -6.12974160          -7.30371440
    -0.30899040          -6.14213920          -7.31182080
    -0.26845920          -6.20603600          -7.30085360
    -0.22649760          -6.24704400          -7.33137120
    -0.19025840          -6.27422320          -7.40194320
    -0.15354160          -6.29949600          -7.45201120
    -0.15258800          -6.29234320          -7.56454480
    -0.15020400          -6.28089920          -7.66897200
    -0.17499920          -6.23321520          -7.74145120
    -0.21219280          -6.16359680          -7.80916240
    -0.25606160          -6.09350240          -7.85255440
    -0.34427680          -5.98764400          -7.84444800
    -0.43535200          -5.87034240          -7.80296320
    -0.52213680          -5.76400720          -7.76386240
    -0.58317200          -5.65719600          -7.70187360
    -0.63180960          -5.56278240          -7.65132880
    -0.67377120          -5.51939040          -7.58886320
    -0.69618240          -5.51652880          -7.54404080
    -0.70238080          -5.52606560          -7.50732400
    -0.66900240          -5.57994880          -7.44056720
    -0.65422080          -5.66625600          -7.38859200
    -0.62751760          -5.78069680          -7.32708000
    -0.59604640          -5.92756240          -7.24983200
    -0.58841680          -6.05630880          -7.15112720
    -0.57411200          -6.19077680          -7.04574560
    -0.59413920          -6.33764240          -6.92415200
    -0.60272240          -6.47830960          -6.81209600
    -0.62418000          -6.62899040          -6.72054320
    -0.68950640          -6.75296800          -6.60753280
    -0.74768080          -6.85453440          -6.52408560
    -0.82111360          -6.93607360          -6.44683840
    -0.88882480          -6.97994240          -6.35623920
    -0.95033680          -6.98852560          -6.26325600
    -1.02424640          -6.96802160          -6.15310640
    -1.06430080          -6.94322560          -6.05058640
    -1.09863280          -6.89744960          -5.95426560
    -1.13773360          -6.83593760          -5.87844880
    -1.12247440          -6.77490240          -5.83887120
    -1.07097600          -6.72864880          -5.85842160
    -1.01280240          -6.71625120          -5.96046480
    -0.92411040          -6.69240960          -6.09636320
    -0.78773520          -6.68239600          -6.28614400
    -0.65231360          -6.70385360          -6.53076160
    -0.51164640          -6.72483440          -6.77013360
    -0.35285920          -6.78777680          -7.02953360
    -0.21648400          -6.89792640          -7.26413760
    -0.10395040          -7.00235360          -7.44009040
    -0.02956400          -7.13920560          -7.59601600
     0.02098080          -7.30466880          -7.68136960
     0.04339200          -7.45725600          -7.68470800
     0.01812000          -7.59649280          -7.65228240
    -0.03433200          -7.68995280          -7.55500800
    -0.10728800          -7.77053840          -7.40814240
    -0.20551680          -7.80010240          -7.26795200
    -0.32854080          -7.79533360          -7.13253040
    -0.48255920          -7.80344000          -6.99949280
    -0.63276320          -7.76338560          -6.87789920
    -0.77152240          -7.74049760          -6.79159200
    -0.93126320          -7.74431200          -6.73675520
    -1.06239280          -7.73859040          -6.72245040
    -1.16348240          -7.74145120          -6.72388080
    -1.24645200          -7.75718720          -6.75153760
    -1.28269200          -7.78150560          -6.81972480
    -1.28984480          -7.79914880          -6.87694560
    -1.27935440          -7.81583760          -6.96086880
    -1.24120720          -7.82918960          -7.03907040
    -1.17683440          -7.84111040          -7.08770720
    -1.11150720          -7.84921680          -7.13443760
    -1.05333360          -7.83968000          -7.15494160
    -0.99563600          -7.82680480          -7.14874240
    -0.94604480          -7.81440720          -7.12204000
    -0.89645360          -7.77578320          -7.08341600
    -0.87356560          -7.73620640          -7.04002400
    -0.89263920          -7.68089280          -6.99520080
    -0.93126320          -7.58600240          -6.93607360
    -0.98800640          -7.46583920          -6.85644160
    -1.06096240          -7.31325120          -6.76965680
    -1.15156160          -7.17258480          -6.69288640
    -1.25455840          -7.03334800          -6.60991680
    -1.35660160          -6.87408480          -6.53409920
    -1.43432640          -6.71339040          -6.49833680
    -1.50442160          -6.58321360          -6.47592560
    -1.57403920          -6.48927680          -6.48117040
    -1.62220000          -6.41393680          -6.54458960
    -1.67655920          -6.36863680          -6.62756000
    -1.70087840          -6.35719280          -6.76107440
    -1.66082400          -6.39772400          -6.95896160
    -1.60360320          -6.46829600          -7.15732560
    -1.54781360          -6.57081600          -7.35855120
    -1.48820880          -6.67858160          -7.52592080
    -1.40953040          -6.77108800          -7.68375360
    -1.32608400          -6.87217680          -7.83109680
    -1.27124800          -6.97946560          -7.92694080
    -1.21164320          -7.10916480          -8.00895680
    -1.15919120          -7.21931440          -8.02183120
    -1.11722960          -7.31325120          -8.00371200
    -1.05142560          -7.39622080          -7.98416160
    -0.98752960          -7.43675200          -7.91311280
    -0.91123600          -7.44104400          -7.78245920
    -0.83875680          -7.42244720          -7.60364560
    -0.76436960          -7.36427280          -7.42864640
    -0.65135920          -7.29608560          -7.24506400
    -0.51641440          -7.26795200          -7.05337520
    -0.39386720          -7.24363360          -6.85787200
    -0.28324160          -7.24887840          -6.69002560
    -0.15783280          -7.26127600          -6.57033920
    -0.02193440          -7.26366080          -6.46400480
     0.11730160          -7.28940960          -6.39486320
     0.22697440          -7.32851040          -6.36434560
     0.33998480          -7.34710720          -6.32429120
     0.43869040          -7.33995440          -6.28566720
     0.50878560          -7.32803360          -6.28423680
     0.59938400          -7.27462800          -6.26897840
     0.64945200          -7.22456000          -6.24704400
     0.68664560          -7.16781600          -6.24465920
     0.71954720          -7.08818400          -6.24608960
     0.72813040          -7.04288480          -6.27946880
     0.72813040          -7.02238080          -6.34050400
     0.70953360          -7.03764000          -6.40106240
     0.65231360          -7.07530960          -6.45637520
     0.55932960          -7.13348400          -6.54602080
     0.45776400          -7.20119440          -6.64377200
     0.30851360          -7.28130320          -6.72340400
     0.15735600          -7.37571680          -6.83212320
    -0.01716640          -7.45820960          -6.94370240
    -0.22935840          -7.51018560          -7.02714960
    -0.44727360          -7.49540320          -7.09819760
    -0.68235360          -7.44438160          -7.14016000
    -0.88548640          -7.37619440          -7.14302080
    -1.12056720          -7.28988640          -7.12347040
    -1.32274640          -7.18450560          -7.05575920
    -1.44386320          -7.08532320          -6.94561040
    -1.57880800          -7.02381120          -6.80971120
    -1.66225440          -6.96134560          -6.61420800
    -1.70755360          -6.92176800          -6.40392320
    -1.76382080          -6.89697280          -6.18219360
    -1.81293520          -6.87074640          -5.90944320
    -1.84011440          -6.86550160          -5.64241440
    -1.85108160          -6.84261360          -5.40113440
    -1.87492400          -6.85310400          -5.17559040
    -1.87015520          -6.88123680          -4.98771680
    -1.82724000          -6.88648240          -4.83274480
    -1.73616400          -6.89888000          -4.71162800
    -1.58977520          -6.91461600          -4.62579760
    -1.43766400          -6.95991520          -4.56333200
    -1.26028080          -7.00378400          -4.52852240
    -1.04665760          -7.04097760          -4.53138320
    -0.82635840          -7.07149520          -4.56714640
    -0.60081520          -7.09772080          -4.62436640
    -0.37288640          -7.12060960          -4.69541520
    -0.18930400          -7.11011920          -4.76932560
    -0.04100800          -7.10248960          -4.83989680
     0.10061280          -7.07912480          -4.90236320
     0.19168880          -7.06815680          -4.96006000
     0.21648400          -7.09438320          -5.00297520
     0.17881360          -7.12871520          -5.04541360
     0.09870560          -7.19451920          -5.07783920
     0.00572240          -7.26509120          -5.10835680
    -0.10919600          -7.33709360          -5.17177600
    -0.26702880          -7.42864640          -5.22375120
    -0.42867680          -7.51304640          -5.28478640
    -0.58412560          -7.60364560          -5.39541280
    -0.72860720          -7.68232320          -5.55467600
    -0.84972400          -7.73811360          -5.74588800
    -0.96654880          -7.80344000          -5.94949760
    -1.02710720          -7.83491120          -6.16931920
    -1.02186240          -7.85064720          -6.40678400
    -0.92649440          -7.87305840          -6.66904480
    -0.76103200          -7.86972080          -6.89268080
    -0.57983360          -7.85255440          -7.07530960
    -0.34713760          -7.82632800          -7.24411040
    -0.06151200          -7.78532000          -7.37524000
     0.26750560          -7.72094720          -7.50255600
     0.60558320          -7.66849520          -7.58171120
     0.94795200          -7.64989840          -7.56645200
     1.28602960          -7.61795040          -7.53641120
     1.60837200          -7.57408160          -7.48157520
     1.89876560          -7.55882240          -7.38191600
     2.13527680          -7.55834560          -7.27224320
     2.32458080          -7.53498080          -7.13872880
     2.44474400          -7.49778720          -7.00998320
     2.52580640          -7.45439520          -6.87837600
     2.54678720          -7.39383680          -6.74819920
     2.49290480          -7.34615360          -6.62660560
     2.40755120          -7.29990000          -6.50215120
     2.27546720          -7.23505040          -6.39009440
     2.10142160          -7.15875600          -6.25038160
     1.92928320          -7.06672640          -6.12640400
     1.72328960          -7.01475120          -6.02197680
     1.49250000          -6.97994240          -5.91468800
     1.29985840          -6.94274880          -5.83696400
     1.11532240          -6.92939760          -5.76877600
     0.94461440          -6.92272160          -5.72586080
     0.76627760          -6.93655040          -5.69725040
     0.58078800          -6.96086880          -5.69772720
     0.40483440          -6.98184960          -5.71727760
     0.21266960          -6.99663200          -5.74588800
     0.01144400          -7.01808960          -5.82170480
    -0.20217920          -7.04622240          -5.91850320
    -0.43487520          -7.06481920          -6.04867920
    -0.70142720          -7.06243520          -6.18076320
    -0.96893280          -7.02333440          -6.32143040
    -1.23691520          -6.97612800          -6.47592560
    -1.51681920          -6.90984720          -6.60181040
    -1.79576880          -6.83593760          -6.74247760
    -2.05802880          -6.76536560          -6.84070560
    -2.31313680          -6.67476640          -6.90078720
    -2.55537040          -6.61325440          -6.95037840
    -2.73561440          -6.57510720          -6.97517360
    -2.89154080          -6.56318640          -7.00807600
    -3.02028640          -6.57510720          -7.02619520
    -3.09038160          -6.56652480          -7.05242160
    -3.11994560          -6.56795520          -7.08198560
    -3.09038160          -6.58512080          -7.11011920
    -3.00836560          -6.58369040          -7.12871520
    -2.88581840          -6.57606160          -7.15827920
    -2.73418400          -6.57701520          -7.17782960
    -2.57968880          -6.56509360          -7.15446480
    -2.38275520          -6.55889520          -7.14969600
    -2.17628480          -6.55794160          -7.13920560
    -1.98364240          -6.53505360          -7.12585440
    -1.77764880          -6.51407280          -7.08961520
    -1.59263600          -6.50024400          -7.07197200
    -1.40476240          -6.49881360          -7.05766640
    -1.20496720          -6.50310480          -7.01046000
    -1.00469600          -6.52313200          -7.02238080
    -0.84304800          -6.57558480          -7.02810320
    -0.68712240          -6.60848640          -7.03668560
    -0.51879920          -6.63661920          -7.05194480
    -0.39577520          -6.68048880          -7.05718960
    -0.27084320          -6.71386720          -7.06100480
    -0.17166160          -6.75821280          -7.03859360
    -0.09441360          -6.78873040          -7.02524160
    -0.02479520          -6.82926160          -6.97660480
     0.02193440          -6.88171360          -6.93273520
     0.04720720          -6.91890720          -6.90460240
     0.03862400          -6.99138640          -6.84547440
     0.02288800          -7.06958800          -6.80208240
    -0.02288800          -7.13348400          -6.75821280
    -0.06961840          -7.19118080          -6.70576080
    -0.11920960          -7.22742080          -6.65712320
    -0.19836400          -7.25746160          -6.65092480
    -0.26369120          -7.28654880          -6.68954880
    -0.31089760          -7.29131680          -6.74581520
    -0.36764160          -7.28082640          -6.83689120
    -0.42963040          -7.27701200          -6.96039200
    -0.46110160          -7.27319680          -7.13062320
    -0.46491600          -7.25460080          -7.30133040
    -0.44727360          -7.22646720          -7.47680640
    -0.38576160          -7.21263920          -7.68375360
    -0.29850000          -7.20214880          -7.88879360
    -0.23889520          -7.18879680          -8.10766240
    -0.18072160          -7.17926000          -8.29696640
    -0.13065360          -7.20071760          -8.47911840
    -0.10919600          -7.23123520          -8.67891280
    -0.11158000          -7.26366080          -8.83436240
    -0.16307840          -7.29942320          -8.96263120
    -0.23841840          -7.31420480          -9.04846160
    -0.34284560          -7.31325120          -9.08279440
    -0.47349920          -7.27939600          -9.09376160
    -0.65851200          -7.24506400          -9.09042320
    -0.87356560          -7.18164480          -9.04274000
    -1.07765200          -7.10630400          -8.96692240
    -1.30701040          -7.06815680          -8.90159600
    -1.49869920          -7.00950640          -8.79573840
    -1.65891680          -6.96182240          -8.67509840
    -1.79433840          -6.94513360          -8.53014000
    -1.89161280          -6.90841680          -8.33940480
    -1.96123120          -6.84165920          -8.13436480
    -1.96504560          -6.79683680          -7.92408000
    -1.94644960          -6.77728640          -7.70664240
    -1.91831600          -6.73437120          -7.43770560
    -1.85155840          -6.68716400          -7.16924640
    -1.78527840          -6.66809120          -6.92462960
    -1.71995200          -6.66666000          -6.67858160
    -1.66368480          -6.67333600          -6.47211040
    -1.62506080          -6.69622400          -6.30521760
    -1.58071520          -6.70814480          -6.19173040
    -1.56259520          -6.71911200          -6.14261600
    -1.54066080          -6.71815840          -6.11591360
    -1.53780000          -6.70671440          -6.14595440
    -1.55735040          -6.68191920          -6.19697600
