SERVICIO GEOLOGICO COLOMBIANO- RED NACIONAL DE ACELEROGRAFOS DE COLOMBIA
SISMO DE CORDOBA (QUINDIO) 1999/01/25 18:19:17 ML=6.3
LATITUD DEL EVENTO(GRADOS): 4.439
LONGITUD DEL EVENTO(GRADOS): -75.698
PROFUNDIDAD DEL EVENTO (Km): 0
CODIGO DE LA ESTACION: CGARZ
Estacion:GARZON Geol:SUELO Topo:ONDULADA
LATITUD DE LA ESTACION (GRADOS): 2.193
LONGITUD DE LA ESTACION (GRADOS): -75.608
DISTANCIA EPICENTRAL: 249.506 km
DISTANCIA HIPOCENTRAL: 249.506 km
INTERVALO DE MUESTREO (SEGUNDOS): 0.005
NUMERO DE DATOS: 8448
DURACION (SEGUNDOS): 42.24
UNIDADES: cm/s^2
TIPO DE EQUIPO: SSA
ESCALA MAXIMA (G): 2
CORRECCION DE LINEA BASE: LINEA BASE NO REMOVIDA
TIPO DE DATOS: NO CORREGIDO
         EW                  VER                  NS
[...]
     0.97656240          -0.97656240           2.92968720
     0.97656240           0.00000000           2.92968720
     0.97656240           0.00000000           2.92968720
     0.00000000           0.00000000           2.92968720
     0.00000000          -0.97656240           2.92968720
     0.00000000          -0.97656240           1.95312480
     0.00000000          -0.97656240           1.95312480
     0.00000000          -0.97656240           1.95312480
     0.97656240          -0.97656240           1.95312480
     0.97656240          -0.97656240           1.95312480
     0.97656240          -0.97656240           1.95312480
     0.97656240          -0.97656240           1.95312480
     0.97656240          -0.97656240           1.95312480
     0.97656240          -0.97656240           1.95312480
     0.97656240          -0.97656240           1.95312480
     0.97656240          -0.97656240           0.97656240
     1.95312480          -0.97656240           0.97656240
     0.97656240          -0.97656240           0.97656240
     0.97656240          -0.97656240           0.97656240
     1.95312480          -0.97656240           0.97656240
     0.97656240          -0.97656240           0.97656240
     1.95312480          -0.97656240           0.97656240
     1.95312480          -0.97656240           0.00000000
     1.95312480          -0.97656240           0.00000000
     1.95312480          -1.95312480           0.00000000
     1.95312480          -1.95312480          -0.97656240
     1.95312480          -1.95312480          -0.97656240
     2.92968720          -1.95312480          -0.97656240
     2.92968720          -1.95312480          -0.97656240
     2.92968720          -1.95312480          -0.97656240
     2.92968720          -1.95312480          -1.95312480
     2.92968720          -1.95312480          -1.95312480
     2.92968720          -1.95312480          -1.95312480
     2.92968720          -0.97656240          -1.95312480
     2.92968720          -0.97656240          -2.92968720
     2.92968720          -0.97656240          -2.92968720
     2.92968720          -0.97656240          -3.90624960
     2.92968720          -0.97656240          -3.90624960
     2.92968720          -0.97656240          -3.90624960
     2.92968720          -0.97656240          -4.88281280
     1.95312480          -0.97656240          -4.88281280
     1.95312480          -0.97656240          -4.88281280
     2.92968720          -0.97656240          -4.88281280
     2.92968720          -0.97656240          -4.88281280
     2.92968720          -0.97656240          -4.88281280
     2.92968720          -0.97656240          -4.88281280
     3.90624960          -0.97656240          -3.90624960
     3.90624960          -0.97656240          -3.90624960
     3.90624960          -0.97656240          -3.90624960
     4.88281280          -0.97656240          -3.90624960
     4.88281280          -0.97656240          -2.92968720
     4.88281280          -0.97656240          -2.92968720
     4.88281280          -0.97656240          -2.92968720
     4.88281280          -0.97656240          -2.92968720
     5.85937520          -0.97656240          -2.92968720
     4.88281280          -0.97656240          -2.92968720
     5.85937520          -0.97656240          -2.92968720
     5.85937520          -0.97656240          -1.95312480
     5.85937520          -0.97656240          -2.92968720
     5.85937520          -0.97656240          -2.92968720
     5.85937520          -0.97656240          -2.92968720
     5.85937520          -0.97656240          -2.92968720
     5.85937520          -0.97656240          -1.95312480
     6.83593760          -0.97656240          -1.95312480
     6.83593760          -0.97656240          -1.95312480
     6.83593760          -0.97656240          -1.95312480
     6.83593760          -0.97656240          -1.95312480
     6.83593760          -0.97656240          -0.97656240
     6.83593760          -0.97656240          -0.97656240
     7.81250000          -0.97656240          -0.97656240
     6.83593760          -1.95312480          -0.97656240
     6.83593760          -1.95312480          -0.97656240
     6.83593760          -1.95312480          -0.97656240
     6.83593760          -1.95312480          -0.97656240
     6.83593760          -1.95312480          -0.97656240
     6.83593760          -1.95312480          -0.97656240
     5.85937520          -1.95312480           0.00000000
     5.85937520          -1.95312480           0.00000000
     5.85937520          -1.95312480           0.00000000
     5.85937520          -1.95312480           0.97656240
     5.85937520          -2.92968720           0.97656240
     4.88281280          -2.92968720           0.97656240
     4.88281280          -2.92968720           0.97656240
     3.90624960          -3.90624960           0.97656240
     3.90624960          -3.90624960           0.97656240
     2.92968720          -4.88281280           0.97656240
     2.92968720          -3.90624960           0.97656240
     2.92968720          -4.88281280           1.95312480
     2.92968720          -4.88281280           1.95312480
     2.92968720          -4.88281280           2.92968720
     1.95312480          -4.88281280           2.92968720
     2.92968720          -4.88281280           2.92968720
     2.92968720          -4.88281280           2.92968720
     2.92968720          -4.88281280           2.92968720
     2.92968720          -4.88281280           2.92968720
     2.92968720          -4.88281280           2.92968720
     2.92968720          -4.88281280           2.92968720
     2.92968720          -3.90624960           1.95312480
     2.92968720          -3.90624960           1.95312480
     2.92968720          -3.90624960           0.97656240
     1.95312480          -3.90624960           0.00000000
     1.95312480          -3.90624960          -0.97656240
     0.97656240          -2.92968720          -0.97656240
     0.97656240          -2.92968720          -0.97656240
     0.97656240          -2.92968720          -1.95312480
     0.97656240          -2.92968720          -1.95312480
     0.97656240          -2.92968720          -2.92968720
     0.97656240          -1.95312480          -2.92968720
     0.97656240          -1.95312480          -3.90624960
     0.97656240          -1.95312480          -3.90624960
     0.97656240          -1.95312480          -3.90624960
     0.97656240          -1.95312480          -4.88281280
     0.97656240          -2.92968720          -4.88281280
     0.97656240          -2.92968720          -4.88281280
     0.97656240          -2.92968720          -4.88281280
     0.00000000          -2.92968720          -4.88281280
     0.00000000          -2.92968720          -4.88281280
     0.00000000          -2.92968720          -4.88281280
     0.00000000          -2.92968720          -5.85937520
     0.00000000          -2.92968720          -5.85937520
     0.00000000          -2.92968720          -5.85937520
     0.00000000          -2.92968720          -4.88281280
     0.00000000          -2.92968720          -4.88281280
     0.97656240          -2.92968720          -4.88281280
     0.97656240          -2.92968720          -4.88281280
     0.97656240          -2.92968720          -4.88281280
     0.97656240          -2.92968720          -3.90624960
     0.97656240          -2.92968720          -2.92968720
     0.97656240          -2.92968720          -2.92968720
     0.97656240          -2.92968720          -2.92968720
     0.97656240          -2.92968720          -2.92968720
     0.97656240          -1.95312480          -1.95312480
     0.97656240          -1.95312480          -0.97656240
     0.97656240          -1.95312480          -0.97656240
     0.97656240          -1.95312480          -0.97656240
     0.97656240          -1.95312480          -0.97656240
     0.97656240          -1.95312480          -0.97656240
     0.97656240          -1.95312480          -0.97656240
     0.97656240          -1.95312480          -0.97656240
     0.97656240          -1.95312480          -0.97656240
     0.97656240          -1.95312480          -0.97656240
     0.97656240          -1.95312480          -0.97656240
     0.97656240          -1.95312480          -0.97656240
     0.00000000          -2.92968720          -0.97656240
     0.00000000          -2.92968720          -0.97656240
     0.00000000          -2.92968720          -0.97656240
     0.00000000          -2.92968720          -0.97656240
    -0.97656240          -2.92968720          -0.97656240
    -0.97656240          -2.92968720          -0.97656240
    -0.97656240          -2.92968720          -0.97656240
    -0.97656240          -2.92968720          -0.97656240
    -1.95312480          -2.92968720          -0.97656240
    -1.95312480          -2.92968720          -0.97656240
    -1.95312480          -2.92968720           0.00000000
    -1.95312480          -2.92968720           0.00000000
    -1.95312480          -2.92968720           0.00000000
    -0.97656240          -2.92968720           0.00000000
    -0.97656240          -2.92968720           0.00000000
    -0.97656240          -2.92968720           0.00000000
    -0.97656240          -2.92968720           0.00000000
     0.00000000          -2.92968720           0.00000000
     0.00000000          -2.92968720          -0.97656240
     0.97656240          -2.92968720          -0.97656240
     0.97656240          -2.92968720          -0.97656240
     0.97656240          -2.92968720          -0.97656240
     0.97656240          -2.92968720          -0.97656240
     1.95312480          -2.92968720          -0.97656240
     1.95312480          -2.92968720          -0.97656240
     1.95312480          -2.92968720          -0.97656240
     1.95312480          -2.92968720          -0.97656240
     1.95312480          -2.92968720          -1.95312480
     1.95312480          -2.92968720          -1.95312480
     1.95312480          -2.92968720          -1.95312480
     1.95312480          -2.92968720          -1.95312480
     1.95312480          -2.92968720          -1.95312480
     1.95312480          -2.92968720          -2.92968720
     1.95312480          -2.92968720          -2.92968720
     2.92968720          -2.92968720          -2.92968720
     2.92968720          -2.92968720          -3.90624960
     2.92968720          -1.95312480          -3.90624960
     3.90624960          -1.95312480          -2.92968720
     3.90624960          -0.97656240          -2.92968720
     4.88281280          -0.97656240          -2.92968720
     4.88281280          -0.97656240          -2.92968720
     4.88281280          -0.97656240          -2.92968720
     4.88281280          -0.97656240          -1.95312480
     4.88281280          -0.97656240          -1.95312480
     4.88281280          -0.97656240          -1.95312480
     4.88281280          -0.97656240          -0.97656240
     4.88281280          -0.97656240          -0.97656240
     4.88281280          -0.97656240          -0.97656240
     4.88281280          -0.97656240          -0.97656240
     3.90624960          -0.97656240           0.00000000
     3.90624960          -0.97656240           0.00000000
     2.92968720          -0.97656240           0.97656240
     2.92968720          -0.97656240           0.97656240
     2.92968720          -0.97656240           0.97656240
     2.92968720          -0.97656240           0.97656240
     1.95312480          -0.97656240           0.97656240
     1.95312480          -0.97656240           0.97656240
     1.95312480          -0.97656240           0.97656240
     1.95312480          -0.97656240           0.00000000
     0.97656240          -0.97656240           0.00000000
     0.97656240          -0.97656240          -0.97656240
     0.97656240           0.00000000          -0.97656240
     0.97656240           0.00000000          -0.97656240
     0.97656240           0.00000000          -0.97656240
     0.97656240           0.00000000          -0.97656240
     0.97656240           0.00000000          -1.95312480
     0.97656240          -0.97656240          -1.95312480
     0.97656240           0.00000000          -1.95312480
     0.97656240          -0.97656240          -1.95312480
     0.97656240          -0.97656240          -1.95312480
     0.97656240          -0.97656240          -1.95312480
     0.97656240          -0.97656240          -1.95312480
     1.95312480          -0.97656240          -1.95312480
     1.95312480          -0.97656240          -1.95312480
     2.92968720          -0.97656240          -2.92968720
     2.92968720          -1.95312480          -2.92968720
     3.90624960          -1.95312480          -2.92968720
     3.90624960          -1.95312480          -2.92968720
     3.90624960          -2.92968720          -2.92968720
     4.88281280          -2.92968720          -2.92968720
     5.85937520          -2.92968720          -2.92968720
     5.85937520          -2.92968720          -2.92968720
     6.83593760          -2.92968720          -3.90624960
     6.83593760          -2.92968720          -3.90624960
     7.81250000          -2.92968720          -3.90624960
     8.78906240          -1.95312480          -3.90624960
     8.78906240          -1.95312480          -3.90624960
     9.76562480          -0.97656240          -3.90624960
     9.76562480          -0.97656240          -3.90624960
    10.74218720          -0.97656240          -2.92968720
    10.74218720          -0.97656240          -2.92968720
    10.74218720          -0.97656240          -2.92968720
    10.74218720          -0.97656240          -2.92968720
     9.76562480          -0.97656240          -2.92968720
     9.76562480          -0.97656240          -2.92968720
     9.76562480          -0.97656240          -2.92968720
     9.76562480          -0.97656240          -2.92968720
     8.78906240          -0.97656240          -2.92968720
     8.78906240           0.00000000          -2.92968720
     8.78906240           0.00000000          -2.92968720
     7.81250000           0.00000000          -2.92968720
     6.83593760           0.00000000          -2.92968720
     6.83593760           0.00000000          -2.92968720
     5.85937520           0.00000000          -2.92968720
     4.88281280           0.00000000          -1.95312480
     4.88281280           0.00000000          -1.95312480
     4.88281280          -0.97656240          -1.95312480
     3.90624960          -0.97656240          -0.97656240
     3.90624960          -0.97656240          -0.97656240
     3.90624960          -0.97656240          -0.97656240
     2.92968720          -0.97656240           0.00000000
     2.92968720          -0.97656240           0.00000000
     2.92968720          -0.97656240           0.97656240
     2.92968720          -1.95312480           0.97656240
     1.95312480          -1.95312480           1.95312480
     1.95312480          -1.95312480           1.95312480
     1.95312480          -1.95312480           1.95312480
     1.95312480          -1.95312480           1.95312480
     1.95312480          -1.95312480           1.95312480
     1.95312480          -1.95312480           1.95312480
     1.95312480          -2.92968720           1.95312480
     1.95312480          -2.92968720           1.95312480
     1.95312480          -2.92968720           1.95312480
     1.95312480          -1.95312480           1.95312480
     2.92968720          -2.92968720           0.97656240
     1.95312480          -2.92968720           0.97656240
     1.95312480          -2.92968720           0.97656240
     2.92968720          -2.92968720           0.97656240
     1.95312480          -2.92968720           1.95312480
     1.95312480          -2.92968720           1.95312480
     1.95312480          -2.92968720           1.95312480
     1.95312480          -2.92968720           1.95312480
     2.92968720          -2.92968720           1.95312480
     2.92968720          -2.92968720           1.95312480
     2.92968720          -2.92968720           1.95312480
     1.95312480          -3.90624960           1.95312480
     1.95312480          -3.90624960           0.97656240
     1.95312480          -3.90624960           0.97656240
     1.95312480          -3.90624960           0.97656240
     2.92968720          -3.90624960           0.97656240
     2.92968720          -3.90624960           0.97656240
     2.92968720          -3.90624960           0.97656240
     2.92968720          -3.90624960           0.97656240
     2.92968720          -3.90624960           0.97656240
     3.90624960          -3.90624960           0.97656240
     3.90624960          -3.90624960           0.97656240
     3.90624960          -3.90624960           0.00000000
     3.90624960          -2.92968720           0.00000000
     3.90624960          -2.92968720           0.00000000
     3.90624960          -2.92968720           0.00000000
     3.90624960          -2.92968720          -0.97656240
     3.90624960          -2.92968720          -0.97656240
     4.88281280          -2.92968720          -0.97656240
     4.88281280          -2.92968720          -0.97656240
     4.88281280          -2.92968720          -0.97656240
     3.90624960          -2.92968720          -0.97656240
     4.88281280          -2.92968720          -0.97656240
     4.88281280          -2.92968720          -0.97656240
     4.88281280          -2.92968720          -0.97656240
     4.88281280          -2.92968720          -0.97656240
     4.88281280          -2.92968720          -0.97656240
     4.88281280          -2.92968720          -1.95312480
     4.88281280          -2.92968720          -1.95312480
     4.88281280          -2.92968720          -1.95312480
     4.88281280          -2.92968720          -1.95312480
     4.88281280          -3.90624960          -2.92968720
     4.88281280          -3.90624960          -2.92968720
     4.88281280          -3.90624960          -2.92968720
     4.88281280          -3.90624960          -3.90624960
     4.88281280          -4.88281280          -3.90624960
     3.90624960          -4.88281280          -3.90624960
     3.90624960          -4.88281280          -4.88281280
     3.90624960          -4.88281280          -4.88281280
     3.90624960          -4.88281280          -4.88281280
     3.90624960          -4.88281280          -4.88281280
     3.90624960          -4.88281280          -4.88281280
     2.92968720          -4.88281280          -4.88281280
     2.92968720          -4.88281280          -4.88281280
     2.92968720          -4.88281280          -4.88281280
     2.92968720          -4.88281280          -4.88281280
     2.92968720          -4.88281280          -4.88281280
     2.92968720          -4.88281280          -4.88281280
     1.95312480          -3.90624960          -4.88281280
     1.95312480          -3.90624960          -4.88281280
     1.95312480          -3.90624960          -4.88281280
     1.95312480          -3.90624960          -3.90624960
     1.95312480          -3.90624960          -3.90624960
     1.95312480          -2.92968720          -3.90624960
     0.97656240          -2.92968720          -2.92968720
