SERVICIO GEOLOGICO COLOMBIANO- RED NACIONAL DE ACELEROGRAFOS DE COLOMBIA
SISMO DE CORDOBA (QUINDIO) 1999/01/25 18:19:17 ML=6.3
LATITUD DEL EVENTO(GRADOS): 4.439
LONGITUD DEL EVENTO(GRADOS): -75.698
PROFUNDIDAD DEL EVENTO (Km): 0
CODIGO DE LA ESTACION: CBOG1
Estacion:BOGOTA, INGEOMINAS Geol:SUELO Topo:PLANA
LATITUD DE LA ESTACION (GRADOS): 4.641
LONGITUD DE LA ESTACION (GRADOS): -74.08
DISTANCIA EPICENTRAL: 180.992 km
DISTANCIA HIPOCENTRAL: 180.992 km
INTERVALO DE MUESTREO (SEGUNDOS): 0.005
NUMERO DE DATOS: 19600
DURACION (SEGUNDOS): 98
UNIDADES: cm/s^2
TIPO DE EQUIPO: K2
ESCALA MAXIMA (G): 2
CORRECCION DE LINEA BASE: LINEA BASE NO REMOVIDA
TIPO DE DATOS: NO CORREGIDO, (S)=ACELERACION EN SUELO, (R)=ACELERACION EN ROCA
        EW                 VER                  NS               EW(R)               VER(R)               NS(R)
[...]
    -0.95891920          -5.74827200          -1.97362880         -86.63749680         -62.51955040        -141.95919040
    -0.99611280          -5.79023360          -1.96456880         -86.65609360         -62.53385520        -141.99924480
    -1.00326560          -5.82265840          -2.00128560         -86.68327360         -62.55960480        -142.05646480
    -1.11198400          -5.79929360          -1.96552240         -86.65895440         -62.52670320        -142.05312720
    -1.14774720          -5.79214080          -2.00223920         -86.66181600         -62.52241120        -142.06504800
    -1.25455840          -5.82265840          -2.02560400         -86.69519440         -62.53337840        -142.10367200
    -1.29842720          -5.87797200          -2.02751120         -86.71236000         -62.52670320        -142.12274560
    -1.29556640          -5.94282160          -2.07281120         -86.69137920         -62.48283360        -142.08936720
    -1.31273280          -5.96189520          -2.06422800         -86.73191040         -62.47997280        -142.10414880
    -1.19876880          -5.92184080          -2.09331520         -86.78674720         -62.48855600        -142.13800400
    -1.14059440          -5.80263120          -2.06279760         -86.77005760         -62.43324240        -142.08364480
    -1.00135840          -5.68294560          -1.99794800         -86.82203280         -62.42752080        -142.08698240
    -0.82159040          -5.62477120          -2.01082240         -86.87496160         -62.41750720        -142.09222800
    -0.75864800          -5.61380400          -1.95169440         -86.87973040         -62.37363840        -142.04978960
    -0.61368960          -5.69200480          -1.93071360         -86.90118800         -62.34169040        -142.01927200
    -0.52738160          -5.80167760          -1.90591840         -86.96079280         -62.35313440        -142.03357680
    -0.45537920          -5.85985200          -1.84774400         -86.98225040         -62.34550480        -142.01974880
    -0.38385360          -5.84936160          -1.89113600         -86.95602400         -62.29543680        -141.94059360
    -0.41627920          -5.76972960          -1.87015520         -86.99798560         -62.31975520        -141.94822320
    -0.38242320          -5.72586080          -1.89399680         -86.99798560         -62.31880160        -141.92485840
    -0.42343120          -5.71250880          -1.92976000         -86.96842160         -62.28828400        -141.85571680
    -0.44107440          -5.68676000          -1.85346640         -86.97938880         -62.29400640        -141.84045760
    -0.35333600          -5.66911680          -1.85489680         -86.98892560         -62.31784800        -141.84141120
    -0.35381280          -5.62524800          -1.78527840         -86.95411680         -62.30878800        -141.78371440
    -0.26082960          -5.60474400          -1.68943440         -86.93075200         -62.31308000        -141.74747440
    -0.17738320          -5.57374960          -1.63412080         -86.94601040         -62.36362480        -141.77084000
    -0.16355520          -5.52463520          -1.46245920         -86.90452560         -62.36076320        -141.70742000
    -0.07581680          -5.50031680          -1.33323680         -86.87210080         -62.36314800        -141.66021360
    -0.07390960          -5.43642080          -1.17063520         -86.88926720         -62.40510960        -141.67547200
    -0.05817440          -5.35678880          -1.03330640         -86.88402160         -62.43324240        -141.66021360
    -0.04529920          -5.26332880          -0.98037680         -86.82823200         -62.42418320        -141.59870160
    -0.09632080          -5.16271600          -0.84590880         -86.84158320         -62.45565440        -141.59631760
    -0.09441360          -5.09929680          -0.81157680         -86.86828640         -62.49475440        -141.62015920
    -0.14734240          -5.03921520          -0.79917920         -86.82441680         -62.47186640        -141.56150800
    -0.13113040          -4.97102720          -0.78630480         -86.84301360         -62.49570880        -141.56293840
    -0.10204320          -4.90427040          -0.80823920         -86.87305440         -62.52574960        -141.57819760
    -0.15211120          -4.84704960          -0.74482000         -86.88497520         -62.53480880        -141.55960080
    -0.12159360          -4.79459760          -0.76150880         -86.86780960         -62.51049040        -141.52574560
    -0.17499920          -4.72545600          -0.78201280         -86.92359920         -62.53671680        -141.55244800
    -0.22125280          -4.65726880          -0.74243520         -86.97652800         -62.57057200        -141.58725760
    -0.22220640          -4.61244560          -0.71954720         -86.91358560         -62.50238400        -141.51573200
    -0.31900400          -4.60195520          -0.62704080         -86.97843520         -62.53957760        -141.57104480
    -0.35047520          -4.60958480          -0.56552880         -86.99750880         -62.53767040        -141.58678080
    -0.42057040          -4.58431280          -0.49877200         -86.97271360         -62.50095360        -141.55578640
    -0.47159200          -4.55141040          -0.42533840         -87.00037040         -62.50715280        -141.57867440
    -0.43487520          -4.56237760          -0.43058400         -86.99989280         -62.48521840        -141.57390560
    -0.47779120          -4.60433920          -0.35142880         -87.02230480         -62.50572240        -141.61205280
    -0.46920800          -4.64487040          -0.27656560         -86.95793120         -62.44087200        -141.55054080
    -0.50830880          -4.64963920          -0.20360960         -86.98558800         -62.45946880        -141.59345600
    -0.55313120          -4.65250000          -0.06818800         -87.00942960         -62.48378720        -141.64638480
    -0.51736800          -4.68254080          -0.01812000         -86.90309520         -62.37411520        -141.53766640
    -0.58221840          -4.68349440           0.10108960         -86.94982560         -62.42275200        -141.60776160
    -0.56695920          -4.66108320           0.27465840         -86.94267280         -62.43133520        -141.63684880
    -0.56600560          -4.59146480           0.39148320         -86.85588800         -62.34884240        -141.56723040
    -0.62084160          -4.47607040           0.52833520         -86.88163760         -62.38794320        -141.61729840
    -0.58412560          -4.41551200           0.56552880         -86.85970320         -62.37125360        -141.62826560
    -0.66566480          -4.35686080           0.56457520         -86.82775520         -62.34073600        -141.62063600
    -0.70762640          -4.27961360           0.54979360         -86.79389920         -62.33215360        -141.61348320
    -0.71716320          -4.24337360           0.50210960         -86.78293200         -62.32261680        -141.63637200
    -0.84209440          -4.20856480           0.55932960         -86.78293200         -62.33882880        -141.66593520
    -0.87070480          -4.19616720           0.58650960         -86.70186960         -62.30545040        -141.62111280
    -0.93889200          -4.19712080           0.63562400         -86.69090240         -62.33453760        -141.66069040
    -1.04141200          -4.20808800           0.76580080         -86.66801440         -62.35504160        -141.68691600
    -1.10340080          -4.23860560           0.82540480         -86.60507200         -62.33501440        -141.66784320
    -1.20973600          -4.22048560           0.96130400         -86.56454080         -62.33835200        -141.67785680
    -1.22928640          -4.19426000           1.12104400         -86.55691120         -62.36362480        -141.72506320
    -1.26886400          -4.15945040           1.23500800         -86.51304240         -62.35408800        -141.73364640
    -1.32131600          -4.10270720           1.36709200         -86.40956880         -62.29019200        -141.67785680
    -1.31320960          -4.07743440           1.37996640         -86.44199360         -62.35313440        -141.77846880
    -1.37805920          -4.06456000           1.39999360         -86.39097200         -62.33453760        -141.77894560
    -1.40857680          -4.10318400           1.47485760         -86.30418800         -62.27159520        -141.71886480
    -1.42383600          -4.20141200           1.54495200         -86.35377920         -62.33358400        -141.81137120
    -1.46436720          -4.28533520           1.66940720         -86.30657200         -62.29925120        -141.78228400
    -1.45387680          -4.33111200           1.78623200         -86.25936480         -62.26825680        -141.75605760
    -1.46722800          -4.29391840           1.96933760         -86.27176320         -62.28208560        -141.77799200
    -1.47008880          -4.19092160           2.19535840         -86.26985520         -62.28351600        -141.78228400
    -1.47151920          -4.11939600           2.40993520         -86.26794800         -62.28971520        -141.79325120
    -1.46484400          -4.10747520           2.66552000         -86.24792080         -62.26110480        -141.75319680
    -1.45864480          -4.15372880           2.81143200         -86.26985520         -62.27445600        -141.76225680
    -1.51491200          -4.26483120           2.81000160         -86.29608160         -62.29305280        -141.76082640
    -1.50918960          -4.39596160           2.72035600         -86.27224000         -62.26062800        -141.70360560
    -1.51968000          -4.47034800           2.60019280         -86.29417440         -62.28256240        -141.70837440
    -1.56164160          -4.47225600           2.54297280         -86.32946000         -62.31212640        -141.71504960
    -1.48820880          -4.46844080           2.54249600         -86.30514160         -62.28017840        -141.64972320
    -1.43718720          -4.50468080           2.70652800         -86.33422880         -62.29591360        -141.62778880
    -1.41048400          -4.58097440           2.98690800         -86.38238880         -62.31880160        -141.63780240
    -1.31368640          -4.69636880           3.24392320         -86.36379280         -62.28351600        -141.57915120
    -1.20830560          -4.79745840           3.60012080         -86.38048160         -62.27779360        -141.55435600
    -1.10530880          -4.84037360           3.99875680         -86.43245680         -62.29448320        -141.57295200
    -1.02138480          -4.84037360           4.33111200         -86.45200720         -62.27540960        -141.54768000
    -0.87928800          -4.80842560           4.61196880         -86.46106720         -62.23154080        -141.51525520
    -0.73337520          -4.76598720           4.81843920         -86.51113520         -62.22677200        -141.52812960
    -0.67567840          -4.71687280           4.99057760         -86.55786480         -62.22963360        -141.54291120
    -0.56600560          -4.67538800           5.03158560         -86.54403680         -62.17002880        -141.49761200
    -0.46634640          -4.68969360           4.99010080         -86.58313760         -62.15524640        -141.51430160
    -0.40340400          -4.70829040           4.97579600         -86.62796000         -62.16859840        -141.56627680
    -0.31375920          -4.69541520           4.87756720         -86.60793280         -62.12043760        -141.53766640
    -0.23174320          -4.68587840           4.80079680         -86.63558960         -62.11471520        -141.55340160
    -0.11253360          -4.70113760           4.74405280         -86.66467680         -62.12520560        -141.59250240
     0.00762960          -4.72545600           4.69684640         -86.66229280         -62.11948400        -141.60585440
     0.15211120          -4.72164160           4.72402560         -86.64035760         -62.10470160        -141.60680800
     0.31709680          -4.68111040           4.79364400         -86.64035760         -62.10994720        -141.63112640
     0.36144240          -4.58002080           4.99534640         -86.65895440         -62.14809440        -141.68977760
     0.41914000          -4.47750080           5.19275680         -86.60173440         -62.10660960        -141.66879680
     0.51879920          -4.43077120           5.32007200         -86.59887280         -62.11710000        -141.69788400
     0.56457520          -4.42457200           5.47885920         -86.61317840         -62.16430640        -141.76273360
     0.64945200          -4.46510320           5.58137920         -86.55977280         -62.14284880        -141.75415040
     0.71525600          -4.51612480           5.69486640         -86.54117600         -62.14618720        -141.78037680
     0.79298000          -4.50372720           5.82170480         -86.55262000         -62.18004240        -141.84141120
     0.87499600          -4.35543040           5.87701760         -86.54069920         -62.18814880        -141.86620720
     0.95367440          -4.13036320           5.92517840         -86.50112160         -62.15906160        -141.86334640
     1.11150720          -3.93962880           5.89513760         -86.52400960         -62.18147280        -141.92390480
     1.23691520          -3.83949280           5.82265840         -86.54165280         -62.19577760        -141.98207840
     1.43051120          -3.85904320           5.72109200         -86.49206160         -62.15047840        -141.96920400
     1.71327600          -3.90052800           5.50937680         -86.49778400         -62.15143200        -142.01354960
     1.95264800          -3.92103200           5.31482720         -86.52496320         -62.16859840        -142.09175120
     2.12192560          -3.91292560           5.12552240         -86.48920080         -62.12472880        -142.08364480
     2.19869600          -3.83234000           4.98771680         -86.47394160         -62.09707280        -142.09079760
     2.29930880          -3.79371680           4.97627280         -86.50779760         -62.11757680        -142.15803120
     2.33650240          -3.86095040           4.97198080         -86.48347840         -62.08372080        -142.16232320
     2.29310960          -3.95774880           5.01680400         -86.44390080         -62.03413040        -142.13609680
     2.34651600          -4.04453280           5.03873840         -86.47203440         -62.04080560        -142.17901200
     2.30264640          -4.08554080           5.01060480         -86.47012720         -62.02888480        -142.19856240
     2.22253760          -4.08029520           5.04970560         -86.42292000         -61.97357200        -142.14468000
     2.27737440          -4.03213520           5.02109520         -86.42768880         -61.96641920        -142.15135600
     2.29978560          -3.92389280           4.97150400         -86.44247040         -61.98167840        -142.16995200
     2.37083440          -3.83138640           4.94098640         -86.40384640         -61.93876240        -142.11416240
     2.46572480          -3.81326640           4.84323520         -86.37619040         -61.92112000        -142.07935360
     2.50959360          -3.78608720           4.75502000         -86.40909200         -61.95974320        -142.09794960
     2.61306800          -3.72314480           4.64820880         -86.39144880         -61.94686880        -142.06123360
     2.64263120          -3.64351280           4.59480320         -86.33279840         -61.90824480        -141.97921760
     2.63595600          -3.53956240           4.59337200         -86.36426960         -61.94162400        -141.98255520
     2.68650080          -3.50856800           4.49657440         -86.36236160         -61.94925280        -141.95776000
     2.66790400          -3.58200080           4.41646560         -86.30609520         -61.90681440        -141.86477680
     2.60686880          -3.70931600           4.34923200         -86.32278480         -61.92445760        -141.83807360
     2.52056160          -3.87287120           4.22096240         -86.34185760         -61.93876240        -141.81280160
     2.44522080          -4.05263920           4.10842880         -86.31229440         -61.90252320        -141.73507680
     2.38752400          -4.22763840           4.01210800         -86.30132640         -61.88297280        -141.67308800
     2.26688400          -4.33349600           3.92436960         -86.33756640         -61.89680080        -141.65687600
     2.19774240          -4.34255600           3.85761280         -86.33565920         -61.88583360        -141.60680800
     2.14195280          -4.29868720           3.82804880         -86.31563200         -61.85865440        -141.51382480
     2.03418720          -4.27055360           3.84235360         -86.35520960         -61.88440320        -141.50094960
     1.99127200          -4.30011760           3.83234000         -86.37237520         -61.90300000        -141.47901520
     1.96313840          -4.34541680           3.82232640         -86.34567280         -61.87868080        -141.38364800
     1.89542800          -4.34923200           3.82995600         -86.36951440         -61.90061600        -141.35217680
     1.80625920          -4.32491280           3.80897520         -86.40909200         -61.94591520        -141.33882560
     1.69801680          -4.28056720           3.77702720         -86.37762080         -61.92779520        -141.25633200
     1.54686000          -4.20808800           3.72934320         -86.37189840         -61.93494800        -141.20960240
     1.36518480          -4.17900080           3.69787200         -86.40193920         -61.97738640        -141.20626480
     1.19352320          -4.19282880           3.64732720         -86.37666720         -61.96737280        -141.15285840
     1.00326560          -4.23383680           3.56674160         -86.34662640         -61.96308160        -141.07894880
     0.84590880          -4.33206560           3.49235520         -86.35759360         -61.98930720        -141.05653760
     0.72526960          -4.43649280           3.37076160         -86.36283840         -62.01267280        -141.03603360
     0.59795360          -4.51850880           3.24869120         -86.31706240         -61.99789040        -140.96164720
     0.52309040          -4.55236400           3.11756160         -86.30943280         -62.00456640        -140.93446720
     0.49638720          -4.54759600           2.99167600         -86.33518240         -62.05129600        -140.93732800
     0.48065200          -4.61149200           2.94160880         -86.29322080         -62.03651440        -140.86771040
     0.43201440          -4.72497920           2.92348880         -86.27414720         -62.04509760        -140.83910000
