SERVICIO GEOLOGICO COLOMBIANO- RED NACIONAL DE ACELEROGRAFOS DE COLOMBIA
SISMO DE CORDOBA (QUINDIO) 1999/01/25 18:19:17 ML=6.3
LATITUD DEL EVENTO(GRADOS): 4.439
LONGITUD DEL EVENTO(GRADOS): -75.698
PROFUNDIDAD DEL EVENTO (Km): 0
CODIGO DE LA ESTACION: COCAN
Estacion:OCANA Geol:ROCA Topo:ONDULADA
LATITUD DE LA ESTACION (GRADOS): 8.241
LONGITUD DE LA ESTACION (GRADOS): -73.323
DISTANCIA EPICENTRAL: 497.595 km
DISTANCIA HIPOCENTRAL: 497.595 km
INTERVALO DE MUESTREO (SEGUNDOS): 0.005
NUMERO DE DATOS: 4096
DURACION (SEGUNDOS): 20.48
UNIDADES: cm/s^2
TIPO DE EQUIPO: SSA
ESCALA MAXIMA (G): 1
CORRECCION DE LINEA BASE: LINEA BASE NO REMOVIDA
TIPO DE DATOS: NO CORREGIDO
         EW                  VER                  NS
[...]
    -2.92968760          -4.39453120          -2.92968760
    -2.92968760          -4.39453120          -2.92968760
    -2.92968760          -4.39453120          -2.92968760
    -2.92968760          -4.39453120          -2.92968760
    -2.92968760          -4.39453120          -2.92968760
    -2.92968760          -4.39453120          -2.92968760
    -2.92968760          -4.39453120          -2.92968760
    -2.92968760          -4.39453120          -2.92968760
    -2.92968760          -4.39453120          -2.92968760
    -2.92968760          -4.39453120          -2.92968760
    -2.92968760          -4.39453120          -2.92968760
    -2.44140640          -4.39453120          -3.41796880
    -2.92968760          -4.39453120          -2.92968760
    -2.92968760          -4.39453120          -2.92968760
    -2.92968760          -4.39453120          -2.92968760
    -2.92968760          -4.39453120          -2.92968760
    -2.92968760          -4.39453120          -2.92968760
    -2.44140640          -4.39453120          -2.92968760
    -2.92968760          -4.39453120          -2.92968760
    -2.92968760          -4.39453120          -2.92968760
    -2.92968760          -4.39453120          -2.44140640
    -2.92968760          -4.39453120          -2.92968760
    -2.92968760          -4.39453120          -2.92968760
    -2.92968760          -4.39453120          -2.92968760
    -2.44140640          -4.39453120          -2.92968760
    -2.92968760          -4.39453120          -2.44140640
    -2.92968760          -4.39453120          -2.44140640
    -2.44140640          -4.39453120          -2.44140640
    -2.92968760          -4.39453120          -2.92968760
    -2.92968760          -4.39453120          -2.92968760
    -2.92968760          -4.39453120          -2.92968760
    -2.92968760          -4.39453120          -2.92968760
    -2.44140640          -4.39453120          -2.92968760
    -2.92968760          -4.39453120          -2.92968760
    -2.44140640          -4.39453120          -2.92968760
    -2.92968760          -4.39453120          -2.92968760
    -2.44140640          -4.39453120          -2.92968760
    -2.44140640          -4.39453120          -2.92968760
    -2.44140640          -4.39453120          -2.92968760
    -2.44140640          -4.39453120          -2.92968760
    -2.44140640          -4.39453120          -2.92968760
    -2.44140640          -4.39453120          -2.92968760
    -2.44140640          -4.39453120          -2.92968760
    -2.44140640          -4.39453120          -2.92968760
    -2.44140640          -4.39453120          -2.92968760
    -2.44140640          -4.39453120          -2.92968760
    -2.44140640          -4.39453120          -2.92968760
    -2.44140640          -4.39453120          -2.92968760
    -2.44140640          -4.88281240          -2.92968760
    -2.44140640          -4.39453120          -2.92968760
    -2.44140640          -4.39453120          -2.92968760
    -2.44140640          -4.39453120          -2.92968760
    -2.44140640          -4.39453120          -2.92968760
    -2.44140640          -4.88281240          -2.92968760
    -2.44140640          -4.88281240          -2.44140640
    -2.44140640          -4.88281240          -2.92968760
    -2.44140640          -4.88281240          -2.92968760
    -2.44140640          -4.39453120          -2.92968760
    -2.44140640          -4.88281240          -2.92968760
    -2.44140640          -4.88281240          -2.92968760
    -2.44140640          -4.88281240          -2.92968760
    -2.44140640          -4.88281240          -2.92968760
    -2.44140640          -4.88281240          -2.92968760
    -2.44140640          -4.88281240          -2.92968760
    -2.44140640          -4.88281240          -2.44140640
    -2.44140640          -4.88281240          -2.44140640
    -2.44140640          -4.88281240          -2.44140640
    -2.44140640          -4.88281240          -2.44140640
    -2.44140640          -4.88281240          -2.44140640
    -2.44140640          -4.88281240          -2.44140640
    -2.44140640          -4.88281240          -2.44140640
    -2.44140640          -4.88281240          -2.44140640
    -2.44140640          -4.88281240          -2.44140640
    -2.44140640          -4.88281240          -2.44140640
    -1.95312480          -4.88281240          -2.44140640
    -1.95312480          -4.88281240          -2.44140640
    -1.95312480          -4.88281240          -2.44140640
    -1.95312480          -4.88281240          -2.44140640
    -1.95312480          -4.88281240          -2.44140640
    -1.95312480          -4.88281240          -2.44140640
    -1.95312480          -4.88281240          -2.44140640
    -1.95312480          -4.88281240          -2.44140640
    -1.95312480          -4.88281240          -2.44140640
    -1.95312480          -4.88281240          -2.92968760
    -1.95312480          -4.88281240          -2.44140640
    -1.95312480          -4.88281240          -2.92968760
    -1.95312480          -4.88281240          -2.92968760
    -1.95312480          -4.88281240          -2.92968760
    -1.95312480          -4.88281240          -2.92968760
    -1.95312480          -4.88281240          -2.92968760
    -1.95312480          -4.88281240          -2.92968760
    -1.46484360          -4.88281240          -2.92968760
    -1.46484360          -4.88281240          -2.92968760
    -1.46484360          -5.37109360          -2.92968760
    -1.46484360          -4.88281240          -2.92968760
    -1.46484360          -4.88281240          -2.92968760
    -1.46484360          -4.88281240          -3.41796880
    -1.46484360          -4.88281240          -2.92968760
    -1.46484360          -5.37109360          -2.92968760
    -1.46484360          -4.88281240          -2.92968760
    -1.46484360          -5.37109360          -2.92968760
    -1.46484360          -4.88281240          -2.92968760
    -1.46484360          -4.88281240          -3.41796880
    -1.46484360          -5.37109360          -3.41796880
    -1.46484360          -4.88281240          -2.92968760
    -1.46484360          -5.37109360          -2.92968760
    -1.46484360          -4.88281240          -2.92968760
    -1.46484360          -4.88281240          -2.92968760
    -1.46484360          -4.88281240          -2.92968760
    -1.46484360          -4.88281240          -2.92968760
    -1.46484360          -4.88281240          -3.41796880
    -1.46484360          -4.88281240          -2.92968760
    -1.46484360          -4.88281240          -2.92968760
    -1.46484360          -4.88281240          -2.92968760
    -1.46484360          -4.88281240          -2.92968760
    -1.46484360          -4.88281240          -2.92968760
    -1.46484360          -4.88281240          -2.92968760
    -1.46484360          -4.88281240          -2.92968760
    -1.46484360          -4.88281240          -3.41796880
    -1.46484360          -4.88281240          -2.92968760
    -1.46484360          -4.88281240          -2.92968760
    -1.46484360          -4.88281240          -2.92968760
    -1.46484360          -4.88281240          -2.92968760
    -1.46484360          -4.88281240          -2.92968760
    -1.46484360          -4.39453120          -2.92968760
    -1.46484360          -4.88281240          -3.41796880
    -1.46484360          -4.88281240          -3.41796880
    -1.46484360          -4.88281240          -2.92968760
    -1.46484360          -4.88281240          -3.41796880
    -1.46484360          -4.88281240          -2.92968760
    -1.46484360          -4.88281240          -3.41796880
    -1.46484360          -4.88281240          -3.41796880
    -1.46484360          -4.88281240          -3.41796880
    -1.46484360          -4.88281240          -3.41796880
    -1.46484360          -4.88281240          -3.41796880
    -1.46484360          -4.88281240          -3.41796880
    -1.46484360          -4.88281240          -3.41796880
    -1.46484360          -4.88281240          -3.41796880
    -1.46484360          -4.88281240          -3.41796880
    -1.46484360          -4.88281240          -2.92968760
    -1.46484360          -4.88281240          -3.41796880
    -1.46484360          -4.88281240          -3.41796880
    -1.46484360          -4.39453120          -3.41796880
    -1.46484360          -4.88281240          -2.92968760
    -1.46484360          -4.88281240          -2.92968760
    -1.46484360          -4.88281240          -3.41796880
    -1.46484360          -4.88281240          -2.92968760
    -1.46484360          -4.88281240          -3.41796880
    -1.46484360          -4.88281240          -2.92968760
    -1.46484360          -4.88281240          -2.92968760
    -1.46484360          -4.88281240          -3.41796880
    -1.46484360          -4.39453120          -3.41796880
    -1.46484360          -4.88281240          -2.92968760
    -1.46484360          -4.39453120          -3.41796880
    -1.46484360          -4.39453120          -3.41796880
    -1.46484360          -4.39453120          -3.41796880
    -1.46484360          -4.39453120          -3.41796880
    -1.46484360          -4.39453120          -3.41796880
    -1.46484360          -4.39453120          -3.41796880
    -1.46484360          -4.39453120          -3.41796880
    -1.46484360          -4.39453120          -3.41796880
    -1.46484360          -4.39453120          -3.41796880
    -1.46484360          -4.39453120          -3.41796880
    -1.95312480          -4.39453120          -3.41796880
    -1.46484360          -4.39453120          -3.41796880
    -1.95312480          -4.39453120          -3.41796880
    -1.95312480          -4.39453120          -3.41796880
    -1.95312480          -4.39453120          -3.41796880
    -1.95312480          -4.39453120          -3.41796880
    -1.95312480          -4.39453120          -3.41796880
    -1.95312480          -4.39453120          -3.41796880
    -1.95312480          -4.39453120          -3.41796880
    -1.95312480          -4.39453120          -3.41796880
    -1.95312480          -4.39453120          -3.41796880
    -1.95312480          -4.39453120          -3.41796880
    -2.44140640          -4.39453120          -3.41796880
    -2.44140640          -4.39453120          -3.41796880
    -2.44140640          -4.39453120          -3.41796880
    -2.44140640          -4.39453120          -3.41796880
    -2.44140640          -4.39453120          -3.41796880
    -2.44140640          -4.39453120          -3.41796880
    -2.44140640          -4.39453120          -2.92968760
    -2.44140640          -4.39453120          -3.41796880
    -2.44140640          -4.39453120          -2.92968760
    -2.44140640          -4.39453120          -2.92968760
    -2.92968760          -4.39453120          -3.41796880
    -2.92968760          -4.39453120          -3.41796880
    -2.92968760          -4.39453120          -2.92968760
    -2.92968760          -4.39453120          -2.92968760
    -2.92968760          -4.39453120          -2.92968760
    -2.92968760          -4.39453120          -3.41796880
    -2.92968760          -4.39453120          -3.41796880
    -3.41796880          -4.39453120          -3.41796880
    -2.92968760          -4.39453120          -3.41796880
    -2.92968760          -4.39453120          -2.92968760
    -2.92968760          -4.39453120          -3.41796880
    -2.92968760          -4.39453120          -3.41796880
    -3.41796880          -4.39453120          -2.92968760
    -3.41796880          -4.39453120          -3.41796880
    -3.41796880          -4.39453120          -3.41796880
    -3.41796880          -4.39453120          -3.41796880
    -3.41796880          -4.39453120          -3.41796880
    -3.41796880          -4.39453120          -3.41796880
    -3.41796880          -4.39453120          -3.41796880
    -3.41796880          -4.39453120          -3.41796880
    -3.41796880          -4.39453120          -3.41796880
    -3.41796880          -4.39453120          -3.41796880
    -3.41796880          -4.39453120          -3.41796880
    -3.41796880          -4.39453120          -3.41796880
    -3.41796880          -4.39453120          -3.41796880
    -3.41796880          -4.39453120          -3.41796880
    -3.41796880          -4.39453120          -3.41796880
    -3.41796880          -4.39453120          -3.41796880
    -3.41796880          -4.39453120          -3.41796880
    -3.41796880          -4.39453120          -3.41796880
    -3.41796880          -4.39453120          -3.41796880
    -3.41796880          -4.39453120          -3.41796880
    -3.41796880          -4.39453120          -3.41796880
    -3.41796880          -4.39453120          -3.41796880
    -3.41796880          -4.39453120          -3.41796880
    -3.41796880          -4.39453120          -3.41796880
    -3.41796880          -4.39453120          -3.41796880
    -3.41796880          -4.39453120          -3.41796880
    -3.41796880          -4.39453120          -3.41796880
    -3.41796880          -4.39453120          -2.92968760
    -3.41796880          -4.39453120          -3.41796880
    -3.41796880          -4.39453120          -2.92968760
    -3.41796880          -4.39453120          -3.41796880
    -3.41796880          -4.39453120          -2.92968760
    -3.41796880          -4.39453120          -2.92968760
    -3.41796880          -4.39453120          -2.92968760
    -3.41796880          -4.39453120          -2.92968760
    -3.90625000          -4.39453120          -3.41796880
    -3.41796880          -4.39453120          -2.92968760
    -3.41796880          -4.39453120          -2.92968760
    -3.41796880          -4.39453120          -2.92968760
    -3.41796880          -4.39453120          -2.92968760
    -3.90625000          -4.39453120          -2.92968760
    -3.41796880          -4.39453120          -2.92968760
    -3.41796880          -4.39453120          -2.92968760
    -3.41796880          -4.39453120          -2.92968760
    -3.41796880          -4.39453120          -2.92968760
    -3.41796880          -4.39453120          -2.92968760
    -3.41796880          -4.39453120          -2.92968760
    -3.41796880          -4.39453120          -2.92968760
    -3.41796880          -4.39453120          -2.92968760
    -3.41796880          -4.39453120          -2.92968760
    -3.41796880          -4.39453120          -2.92968760
    -3.41796880          -4.39453120          -2.92968760
    -3.41796880          -4.39453120          -2.92968760
    -3.41796880          -4.39453120          -2.92968760
    -3.41796880          -4.39453120          -2.92968760
    -3.41796880          -4.39453120          -2.92968760
    -3.41796880          -4.39453120          -2.92968760
    -3.41796880          -4.39453120          -2.92968760
    -2.92968760          -4.39453120          -2.92968760
    -2.92968760          -4.39453120          -2.92968760
    -2.92968760          -4.39453120          -2.92968760
    -2.92968760          -4.39453120          -2.44140640
    -2.92968760          -4.39453120          -2.92968760
    -2.92968760          -4.39453120          -2.92968760
    -2.92968760          -4.39453120          -2.44140640
    -2.92968760          -4.39453120          -2.44140640
    -2.92968760          -4.39453120          -2.44140640
    -2.92968760          -4.39453120          -2.44140640
    -2.92968760          -4.88281240          -2.44140640
    -2.92968760          -4.39453120          -2.44140640
    -2.92968760          -4.39453120          -2.44140640
    -2.44140640          -4.39453120          -2.44140640
    -2.44140640          -4.39453120          -2.44140640
    -2.44140640          -4.88281240          -2.44140640
    -2.44140640          -4.39453120          -2.44140640
    -2.44140640          -4.88281240          -2.44140640
    -2.44140640          -4.39453120          -2.44140640
    -2.44140640          -4.39453120          -2.44140640
    -2.44140640          -4.88281240          -2.44140640
    -2.44140640          -4.88281240          -2.44140640
    -2.44140640          -4.88281240          -2.44140640
    -2.44140640          -4.88281240          -2.44140640
    -2.44140640          -4.39453120          -2.44140640
    -2.44140640          -4.88281240          -2.44140640
    -2.44140640          -4.88281240          -2.44140640
    -2.44140640          -4.88281240          -2.44140640
    -2.44140640          -4.88281240          -2.44140640
    -1.95312480          -4.88281240          -2.44140640
    -2.44140640          -4.88281240          -2.44140640
    -1.95312480          -4.88281240          -2.44140640
    -1.95312480          -4.88281240          -2.44140640
    -1.95312480          -4.88281240          -2.44140640
    -1.95312480          -4.88281240          -2.92968760
    -1.95312480          -4.88281240          -2.44140640
    -2.44140640          -4.88281240          -2.44140640
    -1.95312480          -4.88281240          -2.44140640
    -1.95312480          -4.88281240          -2.44140640
    -1.95312480          -4.88281240          -2.44140640
    -1.95312480          -4.88281240          -2.92968760
    -1.95312480          -4.88281240          -2.44140640
    -1.95312480          -4.88281240          -2.44140640
    -1.95312480          -4.88281240          -2.92968760
    -1.95312480          -4.88281240          -2.44140640
    -1.95312480          -4.88281240          -2.92968760
    -1.95312480          -4.88281240          -2.92968760
    -1.95312480          -4.88281240          -2.92968760
    -1.95312480          -4.88281240          -2.92968760
    -1.95312480          -4.88281240          -2.92968760
    -1.95312480          -4.88281240          -2.92968760
    -1.95312480          -4.88281240          -2.92968760
    -1.95312480          -4.88281240          -2.92968760
    -1.95312480          -4.88281240          -2.92968760
    -1.95312480          -4.88281240          -2.92968760
    -1.95312480          -4.88281240          -2.92968760
    -1.95312480          -4.88281240          -2.92968760
    -1.95312480          -4.88281240          -2.92968760
    -1.95312480          -4.88281240          -2.92968760
    -1.95312480          -4.88281240          -2.92968760
    -1.95312480          -4.88281240          -3.41796880
    -1.95312480          -4.88281240          -2.92968760
    -1.95312480          -4.88281240          -2.92968760
    -1.95312480          -4.88281240          -2.92968760
    -1.95312480          -4.88281240          -2.92968760
    -1.95312480          -4.88281240          -2.92968760
    -1.95312480          -4.88281240          -2.92968760
    -1.95312480          -4.88281240          -3.41796880
    -1.95312480          -4.88281240          -2.92968760
    -1.46484360          -4.88281240          -2.92968760
    -1.95312480          -4.88281240          -2.92968760
    -1.95312480          -4.88281240          -2.92968760
    -1.95312480          -4.88281240          -2.92968760
    -1.46484360          -4.88281240          -2.92968760
    -1.46484360          -4.88281240          -2.92968760
    -1.46484360          -4.88281240          -2.92968760
    -1.46484360          -4.88281240          -2.92968760
