SERVICIO GEOLOGICO COLOMBIANO- RED NACIONAL DE ACELEROGRAFOS DE COLOMBIA
SISMO DE QUETAME (CUNDINAMARCA) 2008/05/24 19:20:44 ML=5.7
LATITUD DEL EVENTO(GRADOS): 4.4
LONGITUD DEL EVENTO(GRADOS): -73.813
PROFUNDIDAD DEL EVENTO (Km): .3
CODIGO DE LA ESTACION: CMAN1
Estacion:MANIZALES, INGEOMINAS Geol:SUELO Topo:ONDULADA
LATITUD DE LA ESTACION (GRADOS): 5.043
LONGITUD DE LA ESTACION (GRADOS): -75.314
DISTANCIA EPICENTRAL: 181.255 km
DISTANCIA HIPOCENTRAL: 181.255 km
INTERVALO DE MUESTREO (SEGUNDOS): 0.005
NUMERO DE DATOS: 10600
DURACION (SEGUNDOS): 53
UNIDADES: cm/s^2
TIPO DE EQUIPO: ETNA
ESCALA MAXIMA (G): 2
CORRECCION DE LINEA BASE: LINEA BASE NO REMOVIDA
TIPO DE DATOS: NO CORREGIDO
         EW                  VER                  NS
[...]
    -0.20647040           3.39555760          -8.48340960
    -0.24557120           3.45897680          -8.51392720
    -0.24414080           3.52287280          -8.53252400
    -0.22459040           3.58820000          -8.50248320
    -0.20551680           3.62396240          -8.49628480
    -0.22029840           3.58390800          -8.45146160
    -0.27036640           3.55672800          -8.37087600
    -0.31614320           3.54051600          -8.36515440
    -0.36859520           3.46708320          -8.36086240
    -0.41484800           3.41272320          -8.28552240
    -0.42152400           3.36122480          -8.28695280
    -0.42676960           3.34501280          -8.33606720
    -0.41389440           3.33404560          -8.33034480
    -0.36525760           3.31735600          -8.36992240
    -0.33187840           3.34978080          -8.39233360
    -0.33187840           3.34739680          -8.32891440
    -0.32997120           3.36694720          -8.33654400
    -0.31423600           3.39126560          -8.37373760
    -0.40006640           3.38506720          -8.28027760
    -0.51450720           3.36599360          -8.27264800
    -0.52642800           3.32164800          -8.34226640
    -0.55313120           3.29971280          -8.30650320
    -0.56648240           3.23677040          -8.37659840
    -0.56076080           3.18145760          -8.44526320
    -0.57411200           3.17430480          -8.45861440
    -0.51546080           3.17764320          -8.57496240
    -0.47016160           3.19004080          -8.64172000
    -0.48398960           3.17049040          -8.64219680
    -0.43487520           3.17192080          -8.67509840
    -0.40626560           3.14331040          -8.68940320
    -0.44250480           3.05366480          -8.64410400
    -0.38814560           2.98690800          -8.63933600
    -0.38623840           2.91442880          -8.61549360
    -0.39577520           2.86436080          -8.54826000
    -0.31185120           2.85291680          -8.57162480
    -0.34856800           2.85291680          -8.58497600
    -0.34809120           2.85434720          -8.56256480
    -0.32138800           2.82907520          -8.56399520
    -0.38242320           2.78663600          -8.55398160
    -0.36811840           2.74896640          -8.52966320
    -0.39052960           2.71892560          -8.52441760
    -0.41484800           2.68220880          -8.52632560
    -0.35381280           2.65741360          -8.51154320
    -0.36048880           2.65693680          -8.53824640
    -0.35381280           2.65693680          -8.60309600
    -0.34618400           2.66265840          -8.67128400
    -0.38528480           2.67839440          -8.72707360
    -0.32854080           2.67124160          -8.76665120
    -0.32043440           2.64549280          -8.77857200
    -0.33950800           2.63881680          -8.75997520
    -0.26369120           2.64644640          -8.78858560
    -0.27799600           2.65646000          -8.80193680
    -0.33617040           2.66790400          -8.78620160
    -0.34999840           2.70891200          -8.84437600
    -0.37813200           2.77233120          -8.88252240
    -0.37527120           2.82335280          -8.88395280
    -0.35572080           2.86436080          -8.90541040
    -0.34427680           2.90203120          -8.91876240
    -0.30326880           2.95066800          -8.92782240
    -0.32043440           3.01027280          -8.95118720
    -0.33426320           3.06415520          -8.97169120
    -0.32663360           3.13425040          -8.97359840
    -0.38433040           3.22103520          -8.99076480
    -0.34475360           3.29542160          -9.00936160
    -0.30708320           3.38316000          -9.00459280
    -0.31805040           3.47375840          -9.01174560
    -0.26321440           3.56245040          -8.99887120
    -0.25463120           3.66878480          -8.93831280
    -0.19741040           3.76939760          -8.91017920
    -0.11158000           3.86905680          -8.85963440
    -0.09536720           3.97300720          -8.77380400
    -0.01335120           4.06360640          -8.75520720
     0.06532640           4.13084000          -8.69178800
     0.08296960           4.16803360          -8.62550720
     0.11634800           4.17614000          -8.61501680
     0.10776480           4.16612640          -8.53920000
     0.09298320           4.13084000          -8.48293280
     0.12540800           4.09841520          -8.45909120
     0.12874640           4.06074560          -8.39138000
     0.15020400           3.99827920          -8.32176240
     0.22888160           3.96823920          -8.24070000
     0.28181040           3.93581360          -8.17441920
     0.32949440           3.86428800          -8.13627280
     0.41675600           3.79896160          -8.05425680
     0.51116960           3.72743600          -7.99083680
     0.59270880           3.61537920          -7.92455680
     0.64754480           3.48949440          -7.83586480
     0.66995600           3.37934480          -7.81154640
     0.70381200           3.29160720          -7.76433920
     0.75769440           3.24249280          -7.69233680
     0.83446480           3.24058560          -7.66563440
     0.95701200           3.27110320          -7.66324960
     1.05905520           3.30781920          -7.66849520
     1.16777440           3.36504000          -7.66754160
     1.31940880           3.42082960          -7.67803200
     1.42478960           3.45897680          -7.68280000
     1.49250000           3.49140160          -7.68089280
     1.51824960           3.48806400          -7.69901280
     1.49583840           3.48329520          -7.67326320
     1.47438080           3.49092480          -7.66134240
     1.41048400           3.53240960          -7.66658800
     1.33085280           3.62110160          -7.62271920
     1.30844080           3.70502480          -7.64226880
     1.27696960           3.81135920          -7.64703760
     1.26457200           3.90052800          -7.63416320
     1.29461280           3.92389280          -7.67898560
     1.28984480           3.91530960          -7.67517120
     1.32417680           3.89623680          -7.69042960
     1.38950320           3.89623680          -7.76100160
     1.42574320           3.90624960          -7.79008880
     1.48010240           3.91149520          -7.80773200
     1.53017040           3.91769440          -7.85350800
     1.56021120           3.93295280          -7.91358960
     1.59072880           3.95584080          -8.01658640
     1.63745920           3.97968320          -8.10098640
     1.66749920           4.02402880          -8.19253920
     1.67417520           4.07171280          -8.36038560
     1.72328960           4.09603120          -8.49914560
     1.74760800           4.10413760          -8.63027600
     1.76477440           4.07028160          -8.79669200
     1.83486960           3.99065040          -8.94308080
     1.88493760           3.87907040          -9.09042320
     1.94549600           3.76415280          -9.25207120
     2.01749840           3.68499760          -9.38796960
     2.09903680           3.60155120          -9.52100720
     2.20584880           3.51572000          -9.65261440
     2.29740160           3.43656560          -9.74226000
     2.39515280           3.35121120          -9.83381280
     2.47430800           3.29017600          -9.90962960
     2.52342240           3.19719280         -10.00356640
     2.55298640           3.09562720         -10.11466960
     2.54392640           3.00836560         -10.17332080
     2.50339520           2.89678560         -10.28728480
     2.45285040           2.85720800         -10.42747520
     2.39372240           2.86102320         -10.52713360
     2.35939040           2.88105040         -10.62154800
     2.36320480           2.96258960         -10.69021200
     2.36511200           3.04937360         -10.77747360
     2.37607920           3.10325600         -10.85186000
     2.37035760           3.08847440         -10.85329040
     2.35271440           3.00407440         -10.83087920
     2.37131120           2.86817520         -10.78844080
     2.34413120           2.72321680         -10.71310080
     2.26688400           2.61163680         -10.64586640
     2.22349200           2.51960720         -10.59913600
     2.15530400           2.47621520         -10.54906880
     2.06041360           2.47573840         -10.51139840
     1.99079520           2.49814960         -10.47229760
     1.91783920           2.54583360         -10.41316960
     1.86014160           2.59590160         -10.38646720
     1.83010080           2.69842160         -10.33592240
     1.79338480           2.82144560         -10.27727120
     1.73854800           2.90012320         -10.25915120
     1.67369840           2.93445600         -10.20193120
     1.59263600           2.89535520         -10.18953360
     1.48248640           2.82716720         -10.17284400
     1.36041680           2.75135040         -10.10131840
     1.25312800           2.67601040         -10.08081440
     1.13105760           2.63452560          -9.99021520
     1.01327920           2.62451200          -9.85288640
     0.91934240           2.65693680          -9.80663280
     0.80871600           2.73227680          -9.74369040
     0.70905680           2.84767120          -9.65070720
     0.59175520           2.96878800          -9.63544880
     0.48732720           3.05461920          -9.59920880
     0.40435760           3.09276560          -9.51576240
     0.24652480           3.09467280          -9.47904560
     0.11873280           3.08799760          -9.45711120
    -0.01192080           3.08847440          -9.44280640
    -0.18119840           3.10945520          -9.44376000
    -0.28038000           3.14044960          -9.45901840
    -0.38766880           3.19480880          -9.47856880
    -0.48160560           3.26967200          -9.49001280
    -0.53787200           3.33213840          -9.50813280
    -0.62704080           3.40032560          -9.53626640
    -0.68378480           3.49235520          -9.56630720
    -0.72956080           3.59582880          -9.57632080
    -0.79679520           3.69358080          -9.57107520
    -0.80633200           3.77702720          -9.51719280
    -0.84734000           3.85093680          -9.42039520
    -0.89073200           3.95059600          -9.36174400
    -0.87308880           4.07171280          -9.31310640
    -0.91075920           4.16135760          -9.25350160
    -0.91266640           4.22286960          -9.15145840
    -0.89550000           4.29105760          -9.04178640
    -0.89836160           4.36544400          -9.00697680
    -0.87356560           4.43077120          -8.95643200
    -0.90026880           4.50182000          -8.87203200
    -0.90837440           4.53901280          -8.81576560
    -0.90265280           4.57572960          -8.76712800
    -0.91886560           4.66012960          -8.67366800
    -0.89693040           4.69350800          -8.58831440
    -0.91362000           4.67968000          -8.50009920
    -0.94318400           4.65965280          -8.35466400
    -0.91505040           4.64248640          -8.25166720
    -0.90646720           4.62245920          -8.17728080
    -0.90503680           4.59718720          -8.08620480
    -0.85735360           4.60100160          -8.00466560
    -0.83112720           4.57906720          -7.93314000
    -0.80633200           4.53805920          -7.85636880
    -0.75769440           4.50563440          -7.79533360
    -0.73957440           4.45747360          -7.75337200
    -0.69189040           4.39405440          -7.71141040
    -0.63419360           4.28533520          -7.66992560
    -0.60319920           4.12654880          -7.60841360
    -0.53215040           3.91817120          -7.55739200
    -0.46825440           3.71694560          -7.49921760
    -0.44536560           3.57961680          -7.45677920
    -0.44393520           3.47137440          -7.40814240
    -0.43726000           3.40986240          -7.30276080
    -0.40340400           3.39746480          -7.21502320
    -0.34523040           3.40890880          -7.10058240
    -0.24223360           3.45850000          -6.98137280
    -0.14162080           3.46231440          -6.90460240
    -0.09202960           3.39078880          -6.77871680
    -0.05388240           3.27682480          -6.64854080
    -0.03051760           3.10659440          -6.57606160
    -0.07343280           2.92825680          -6.48546240
    -0.12970000           2.74658240          -6.39772400
    -0.16832320           2.58398080          -6.35814640
    -0.19359600           2.51197840          -6.28614400
    -0.17404560           2.50816320          -6.22177120
    -0.12731520           2.55966160          -6.19602240
    -0.03290160           2.66265840          -6.13641760
     0.06580320           2.74181360          -6.06441520
     0.10824240           2.73036960          -5.95903360
     0.11444080           2.66361200          -5.82647360
     0.06532640           2.58684160          -5.70535680
    -0.01382800           2.50577920          -5.57279600
    -0.11348720           2.45094320          -5.46693840
    -0.24128000           2.40993520          -5.42020800
    -0.32091120           2.40707360          -5.39875040
    -0.35810480           2.45475760          -5.40161120
    -0.38194640           2.50053440          -5.47122960
    -0.36191920           2.53772720          -5.52940400
    -0.36001200           2.54201920          -5.60760480
    -0.38051600           2.55155600          -5.73062880
    -0.38719200           2.56872160          -5.82122800
    -0.43439840           2.56300000          -5.96666320
    -0.49114240           2.55823120          -6.11305200
    -0.55980720           2.52342240          -6.26230240
    -0.66518800           2.50148800          -6.45256080
    -0.73194480           2.51483920          -6.61659280
    -0.78821200           2.54392640          -6.80542000
    -0.86975120           2.61068320          -7.01761280
    -0.90551360           2.72560080          -7.24840160
    -0.90599040           2.84719440          -7.52258320
    -0.93221680           2.93445600          -7.80248640
    -0.97894640           3.03411520          -8.03422960
    -1.03044480           3.10993200          -8.25738880
    -1.11389200           3.17049040          -8.47387280
    -1.21784240           3.28445440          -8.67223760
    -1.27172480           3.39937200          -8.92305360
    -1.30796400           3.52430320          -9.13763040
    -1.33705120           3.67116960          -9.30261600
    -1.32799120           3.80754480          -9.51242480
    -1.35374080           3.90148160          -9.68885440
    -1.36470800           3.93724480          -9.82332240
    -1.33848160           3.93581360          -9.97972480
    -1.31273280           3.92627680         -10.13278960
    -1.25741920           3.90911120         -10.29777520
    -1.24168400           3.85236720         -10.45227040
    -1.21688880           3.83710880         -10.55908240
    -1.17397280           3.82423440         -10.70356400
    -1.17921840           3.77559680         -10.85567440
    -1.10197040           3.76558320         -10.93244560
    -0.99706640           3.73554240         -10.99395760
    -0.91886560           3.71503840         -11.02733600
    -0.77867520           3.68166000         -11.02972000
    -0.61368960           3.61156480         -11.05213200
    -0.45490240           3.53717840         -11.07358960
    -0.31662000           3.44610240         -11.11888880
    -0.17356880           3.38459040         -11.15989680
    -0.05435920           3.30972640         -11.16275760
     0.04816080           3.23867760         -11.13986960
     0.18882720           3.16906000         -11.09075520
     0.29325520           3.11660800         -11.06309920
     0.38909920           3.10564080         -11.04068720
     0.50973920           3.06940080         -11.02876640
     0.61607360           3.06224800         -11.00063360
     0.72002400           3.06940080         -10.92576960
     0.83065040           3.07846080         -10.87904000
     0.92315680           3.09133520         -10.83278640
     0.98991360           3.12376000         -10.78033440
     1.07717520           3.20672960         -10.73074320
     1.14727040           3.27682480         -10.68210640
     1.21307360           3.36456320         -10.66732400
     1.31225600           3.44705600         -10.70213280
     1.40094720           3.48281840         -10.73646560
     1.49774560           3.50236880         -10.70070240
     1.56259520           3.51667440         -10.67304640
     1.59168240           3.55768240         -10.63680640
     1.60551040           3.62825360         -10.53953200
     1.61266320           3.71599200         -10.46562160
     1.67798960           3.80706800         -10.36834720
     1.72328960           3.88002400         -10.24293920
     1.77860240           3.93724480         -10.17904320
     1.84726720           3.97253040         -10.10131840
     1.84774400           4.00304800          -9.97495680
     1.86920160           4.05931440          -9.88388080
     1.83963760           4.09889200          -9.76848640
     1.73807120           4.11272080          -9.59157920
     1.70803040           4.12654880          -9.45138960
     1.74236320           4.12750240          -9.31596720
     1.73378000           4.13227120          -9.15050480
     1.69324880           4.12225760          -9.00268560
     1.65510160           4.07648080          -8.86201840
     1.55258160           4.00543200          -8.69846320
     1.47628800           3.91340240          -8.54921360
     1.44338640           3.83472480          -8.39328800
     1.39236480           3.77225840          -8.20636720
     1.35564800           3.71408480          -8.07046880
     1.30748720           3.69787200          -7.93981520
     1.28078480           3.70454800          -7.82585120
     1.24645200           3.73125040          -7.76100160
     1.21593440           3.80468400          -7.67374000
     1.25455840           3.83329360          -7.57026640
     1.27553920           3.79467040          -7.42340080
     1.26171120           3.72648240          -7.26842880
     1.26934080           3.60012080          -7.17687600
     1.29652000           3.46088400          -7.11011920
     1.30319600           3.33404560          -7.05289840
     1.34038960           3.20863760          -7.00855280
     1.39617920           3.10659440          -6.96277600
     1.40523920           3.01742560          -6.91938400
     1.45387680           2.97451040          -6.86597840
     1.52397120           2.95066800          -6.83498400
     1.58882160           2.92587280          -6.82020160
     1.70230880           2.96402000          -6.80637360
     1.83010080           2.98595440          -6.83355360
     1.95074080           2.97212640          -6.85548800
