SERVICIO GEOLOGICO COLOMBIANO- RED NACIONAL DE ACELEROGRAFOS DE COLOMBIA
SISMO DE QUETAME (CUNDINAMARCA) 2008/05/24 19:20:44 ML=5.7
LATITUD DEL EVENTO(GRADOS): 4.4
LONGITUD DEL EVENTO(GRADOS): -73.813
PROFUNDIDAD DEL EVENTO (Km): .3
CODIGO DE LA ESTACION: CCALA
Estacion:CALARCA Geol:ROCA Topo:ONDULADA
LATITUD DE LA ESTACION (GRADOS): 4.509
LONGITUD DE LA ESTACION (GRADOS): -75.627
DISTANCIA EPICENTRAL: 201.717 km
DISTANCIA HIPOCENTRAL: 201.717 km
INTERVALO DE MUESTREO (SEGUNDOS): 0.005
NUMERO DE DATOS: 22400
DURACION (SEGUNDOS): 112
UNIDADES: cm/s^2
TIPO DE EQUIPO: ETNA
ESCALA MAXIMA (G): 2
CORRECCION DE LINEA BASE: LINEA BASE NO REMOVIDA
TIPO DE DATOS: NO CORREGIDO
         EW                  VER                  NS
[...]
    -5.97047840         -17.38929760           8.64458080
    -6.05106320         -17.36402480           8.68988000
    -6.14690800         -17.32063280           8.76808160
    -6.23178480         -17.24338560           8.85582000
    -6.30235680         -17.17996560           8.96930720
    -6.35242480         -17.11225520           9.09757600
    -6.35147120         -17.03214640           9.22870640
    -6.32095360         -16.98493920           9.35697520
    -6.26993200         -16.96491280           9.45758800
    -6.18600880         -16.97874080           9.50670240
    -6.06775280         -17.00115200           9.52291520
    -5.94997440         -17.03596080           9.50908640
    -5.85317600         -17.09127440           9.46712480
    -5.75399360         -17.13657360           9.39369200
    -5.69820400         -17.20333120           9.28449600
    -5.67960720         -17.26818080           9.19580480
    -5.65624240         -17.29917520           9.12952400
    -5.70058800         -17.37070080           9.02652720
    -5.77211360         -17.42124560           8.93783600
    -5.85269920         -17.40312560           8.88061520
    -5.96570960         -17.38309840           8.81338080
    -6.07299840         -17.32778560           8.75711440
    -6.17980960         -17.26150480           8.70323200
    -6.26182560         -17.20428480           8.67128400
    -6.34479520         -17.13609680           8.64362720
    -6.40249280         -17.07315440           8.61358640
    -6.41918160         -17.04406720           8.60548000
    -6.44540800         -17.05074320           8.56733360
    -6.43205680         -17.06409440           8.53109360
    -6.38628000         -17.10796320           8.49533120
    -6.35242480         -17.13848080           8.44001760
    -6.31761520         -17.17805840           8.37802880
    -6.23989120         -17.22145120           8.33225280
    -6.16550480         -17.23623280           8.29172160
    -6.13451040         -17.29488400           8.22639440
    -6.03723520         -17.29631440           8.23926960
    -5.96284880         -17.29679120           8.26740240
    -5.93852960         -17.34304400           8.29648960
    -5.91516480         -17.35496560           8.36801520
    -5.94329840         -17.37451520           8.41808320
    -5.96761680         -17.36927040           8.48579440
    -6.05154000         -17.36402480           8.52155680
    -6.15596800         -17.31634160           8.55875040
    -6.26277920         -17.23909360           8.58736000
    -6.40153920         -17.15517040           8.60214240
    -6.50453600         -17.00925840           8.64744160
    -6.60181040         -16.88861840           8.64553440
    -6.66999840         -16.78895920           8.68988000
    -6.73627840         -16.72077200           8.76140560
    -6.77919360         -16.69883760           8.80384480
    -6.79397600         -16.70455920           8.85152800
    -6.78491600         -16.72792400           8.88061520
    -6.74772240         -16.77513120           8.87203200
    -6.71148320         -16.86716080           8.80718240
    -6.60705600         -16.92247360           8.75377680
    -6.49118400         -16.98541680           8.67795920
    -6.34527200         -17.04406720           8.56637920
    -6.17408720         -17.07840000           8.46624400
    -6.01291680         -17.11845360           8.36133920
    -5.83839440         -17.12036160           8.27598560
    -5.72490720         -17.15278640           8.19683040
    -5.63526160         -17.19236400           8.12721280
    -5.58137920         -17.19474800           8.09001920
    -5.57565680         -17.18092000           8.08620480
    -5.61571120         -17.15421680           8.11576880
    -5.70106480         -17.11320880           8.17680320
    -5.78355760         -17.03166960           8.30221200
    -5.89799920         -16.95632960           8.45384560
    -5.99002800         -16.88575760           8.60977200
    -6.04152640         -16.81613920           8.80622880
    -6.08682640         -16.79372800           8.97979760
    -6.09588640         -16.79801920           9.14621360
    -6.07347520         -16.86334640           9.30213920
    -6.01577760         -16.99876800           9.38653920
    -5.91707200         -17.14468000           9.44948160
    -5.79643280         -17.31729520           9.46617120
    -5.63430800         -17.45271680           9.46521760
    -5.47742880         -17.56000480           9.41467280
    -5.32007200         -17.64440560           9.32264320
    -5.13505920         -17.61817920           9.29450960
    -5.03015520         -17.58146320           9.22155360
    -4.98056400         -17.52185840           9.14144480
    -4.97150400         -17.40837120           9.13476960
    -5.03778480         -17.31109600           9.14382960
    -5.16891440         -17.23575600           9.19246640
    -5.34915920         -17.19760880           9.30118560
    -5.58424000         -17.21525200           9.41228880
    -5.83553280         -17.24100080           9.55534000
    -6.02865200         -17.26198160           9.74941280
    -6.22272480         -17.30060560           9.91106000
    -6.37054480         -17.29154560          10.05411120
    -6.44540800         -17.26150480          10.15090960
    -6.46781920         -17.19522480          10.20622240
    -6.45542160         -17.10462560          10.20193120
    -6.42252000         -17.05169680          10.11848480
    -6.31761520         -16.99733760          10.03694560
    -6.24608960         -17.01879520           9.85956160
    -6.14976880         -17.07458480           9.64117040
    -6.00910160         -17.12942160           9.44900480
    -5.95664960         -17.25864400           9.15527360
    -5.90896640         -17.38739040           8.85200480
    -5.85412960         -17.47703520           8.58688320
    -5.83171840         -17.54808400           8.31937760
    -5.83076480         -17.58861520           8.10384720
    -5.83553280         -17.59243040           7.96127280
    -5.83267200         -17.57812480           7.89308560
    -5.81741360         -17.54236240           7.90977440
    -5.77735920         -17.49610880           8.02373920
    -5.76162320         -17.46606800           8.20207600
    -5.74922560         -17.43316640           8.44430960
    -5.72252240         -17.39406560           8.72612000
    -5.74016560         -17.37403840           9.00316240
    -5.78832640         -17.36450160           9.26256160
    -5.83600960         -17.35544240           9.48762880
    -5.89752160         -17.34733600           9.69696080
    -5.99622720         -17.34685920           9.83715040
    -6.05535520         -17.32826240           9.96351280
    -6.09922400         -17.28677760          10.06984720
    -6.13737120         -17.24767680          10.12086880
    -6.09827040         -17.17042960          10.17093680
    -6.06584560         -17.11320880          10.12134560
    -5.96904720         -17.05551120          10.05220400
    -5.82075120         -16.97444880           9.95922080
    -5.70917120         -16.96205120           9.76038000
    -5.59377680         -16.98017120           9.55963120
    -5.47742880         -17.00353600           9.37700240
    -5.39064400         -17.03929920           9.18769840
    -5.37061680         -17.11988480           8.97598240
    -5.36632560         -17.21000640           8.80384480
    -5.41877760         -17.29583760           8.64553440
    -5.51509840         -17.41933840           8.49723840
    -5.60903520         -17.52519600           8.40282480
    -5.74254960         -17.62008640           8.33654400
    -5.85985200         -17.68827440           8.31413280
    -5.95951120         -17.71831520           8.31413280
    -6.04677200         -17.72117600           8.34894160
    -6.12115840         -17.66300240           8.42809680
    -6.19316080         -17.59862880           8.53443120
    -6.21128080         -17.47942000           8.70466240
    -6.21748000         -17.32349360           8.88395280
    -6.24179840         -17.22097360           9.03749440
    -6.19459120         -17.05741920           9.25159440
    -6.14166240         -16.92771920           9.45282000
    -6.14595440         -16.88241920           9.57202880
    -6.12592720         -16.83950400           9.66453520
    -6.09827040         -16.84379600           9.69791440
    -6.05916960         -16.85380960           9.65070720
    -6.00051840         -16.87717440           9.54246560
    -5.93280800         -16.91007600           9.38653920
    -5.83314880         -16.93677920           9.20009600
    -5.74064240         -16.97158800           9.00077840
    -5.63049280         -16.99829120           8.80670560
    -5.50174720         -17.02547040           8.64505760
    -5.41067120         -17.05980320           8.49342320
    -5.32341040         -17.10224160           8.34560400
    -5.26332880         -17.14944800           8.21447360
    -5.27477280         -17.21763600           8.07857520
    -5.30338320         -17.27151840           7.94458400
    -5.36632560         -17.30394400           7.79962560
    -5.47933600         -17.32587840           7.65991200
    -5.58853120         -17.31681840           7.55405440
    -5.71298560         -17.31729520           7.47013120
    -5.82313520         -17.28200880           7.44152080
    -5.90610480         -17.23957040           7.46250160
    -5.99002800         -17.22478880           7.52162960
    -6.02817520         -17.17948880           7.63654720
    -6.01530080         -17.14277280           7.79628720
    -5.98859760         -17.11082480           7.99942000
    -5.95045120         -17.08221440           8.19826160
    -5.88226320         -17.05265040           8.40854640
    -5.78451120         -17.00830480           8.64076640
    -5.68199120         -16.95394480           8.85438880
    -5.60855840         -16.87431360           9.07325760
    -5.55419920         -16.82186160           9.27543680
    -5.54609280         -16.78085360           9.47904560
    -5.60188320         -16.73698400           9.66692000
    -5.69486640         -16.75605760           9.80234160
    -5.82933440         -16.79325120           9.91344480
    -5.97333920         -16.82138480           9.99212240
    -6.12020480         -16.87622080          10.02120960
    -6.23416880         -16.94440880          10.01596480
    -6.30855600         -17.02594720           9.99641440
    -6.34813280         -17.06934000           9.94348560
    -6.33478160         -17.11320880           9.87100640
    -6.30188000         -17.17329040           9.77659200
    -6.23559920         -17.19617840           9.65404480
    -6.17742560         -17.22240480           9.48905920
    -6.11019120         -17.20142400           9.28068160
    -6.03342080         -17.15707760           9.06515120
    -6.00147280         -17.11130160           8.83245440
    -5.97238560         -17.04120640           8.60595680
    -5.96094160         -16.99066160           8.41331520
    -5.98096880         -16.93201040           8.24785200
    -6.03723520         -16.88146560           8.12339760
    -6.12831120         -16.85619360           8.03613680
    -6.24942800         -16.85810080           7.98368480
    -6.41250640         -16.88766480           7.95841200
    -6.57892240         -16.91818240           7.95602800
    -6.72864880         -16.94870000           7.99894320
    -6.85119600         -16.98160160           8.06474720
    -6.92224480         -16.97874080           8.16822080
    -6.92796720         -16.95346800           8.29887360
    -6.89220400         -16.95346800           8.42094400
    -6.79016080         -16.91627520           8.57400880
    -6.63614240         -16.87383680           8.74614720
    -6.46543520         -16.87383680           8.91017920
    -6.26754800         -16.88814160           9.06705840
    -6.08158080         -16.94250080           9.21249360
    -5.91945680         -17.03310000           9.32598080
    -5.77783600         -17.13943520           9.43470000
    -5.64956640         -17.23098720           9.56487680
    -5.55944480         -17.33636880           9.69123840
    -5.50174720         -17.42506000           9.81664640
    -5.44404960         -17.46320720           9.93442560
    -5.40351840         -17.48609520          10.06174080
    -5.37157040         -17.46559120          10.17904320
    -5.34677520         -17.43936560          10.24675360
    -5.32817840         -17.40217200          10.28871520
    -5.30338320         -17.33875280          10.30492800
    -5.27715680         -17.27724080          10.26105920
    -5.24997680         -17.20523840          10.15520080
    -5.22708880         -17.14468000          10.00165920
    -5.20610800         -17.08841360           9.76800880
    -5.18608080         -17.05741920           9.48476800
    -5.18703440         -17.07267760           9.14382960
    -5.18941840         -17.09270480           8.75043840
    -5.20658480         -17.14658720           8.34512720
    -5.26666640         -17.25006080           7.88307200
    -5.31673440         -17.32397040           7.45534880
    -5.39112080         -17.41313920           7.06815680
    -5.50365440         -17.51279840           6.73627840
    -5.59377680         -17.54188560           6.54315920
    -5.72109200         -17.58670800           6.40964480
    -5.84316240         -17.58766160           6.40964480
    -5.92136400         -17.51470560           6.55794160
    -6.03771200         -17.43602720           6.76536560
    -6.14356960         -17.31491120           7.07435600
    -6.21891040         -17.16995200           7.45773280
    -6.29568080         -17.00353600           7.88402560
    -6.37865040         -16.83998080           8.35418720
    -6.46638880         -16.69216160           8.82434880
    -6.52742400         -16.56389200           9.30261600
    -6.57749200         -16.49236640           9.76467120
    -6.63614240         -16.45517360          10.15758480
    -6.67810480         -16.43466960          10.51473600
    -6.70957600         -16.45803440          10.79273200
    -6.74247760         -16.50619520          10.98775840
    -6.74581520         -16.54434240          11.11745840
    -6.73675520         -16.59059520          11.13605520
    -6.73723200         -16.63684880          11.07072800
    -6.68334960         -16.66450480          10.95294960
    -6.61563840         -16.69359200          10.78701040
    -6.59179680         -16.74604400          10.54763760
    -6.51502640         -16.78800560          10.31827920
    -6.42776480         -16.85380960          10.10227200
    -6.39963120         -16.96252800           9.84001120
    -6.35099440         -17.07553840           9.58919520
    -6.30903280         -17.19093360           9.36174400
    -6.28566720         -17.27533360           9.15718080
    -6.26325600         -17.38309840           8.96120080
    -6.27279280         -17.48895680           8.81385840
    -6.26182560         -17.54808400           8.71801360
    -6.24513600         -17.61007280           8.67938960
    -6.23655280         -17.64822000           8.70943040
    -6.18457760         -17.66586320           8.75568400
    -6.10160800         -17.64917360           8.84008400
    -6.00528720         -17.59195360           8.93735920
    -5.88035600         -17.52185840           9.03081920
    -5.72443040         -17.44318000           9.11664960
    -5.55467600         -17.34924320           9.20534160
    -5.40256480         -17.29679120           9.25302480
    -5.25951360         -17.29011520           9.23728960
    -5.10025040         -17.24720000           9.26303840
    -4.99296160         -17.24720000           9.23538240
    -4.95433840         -17.26913440           9.15336640
    -4.95719920         -17.26341280           9.09376160
    -5.00869760         -17.28057840           9.02938880
    -5.10311120         -17.27390320           8.99600960
    -5.26046720         -17.25816720           8.97502880
    -5.43880480         -17.23146400           8.99124160
    -5.62238720         -17.20285440           9.02509680
    -5.80930720         -17.17281360           9.06276720
    -5.96189520         -17.10557920           9.13810720
    -6.10733040         -17.05312720           9.20248000
    -6.20651280         -16.99113840           9.28401920
    -6.25085840         -16.95299120           9.35077680
    -6.25896480         -16.95537600           9.38796960
    -6.16359680         -16.94726960           9.46044960
    -6.02006880         -16.99638400           9.50670240
    -5.86986560         -17.06934000           9.50288800
    -5.68723680         -17.15040240           9.49478160
    -5.50794640         -17.24863040           9.49621200
    -5.37014000         -17.33779920           9.46331040
    -5.26428240         -17.40694080           9.40990480
    -5.18798800         -17.45557760           9.34886960
    -5.16748400         -17.52233520           9.29164880
    -5.15604000         -17.51899680           9.29307920
    -5.19657120         -17.49753920           9.28735760
    -5.28812400         -17.47703520           9.29975520
    -5.37681600         -17.38739040           9.35554480
    -5.49221040         -17.27819440           9.41705680
    -5.62858560         -17.13275920           9.49287440
    -5.79500160         -17.02356320           9.54961760
    -5.95474240         -16.92676560           9.62018960
    -6.11686720         -16.84904080           9.66405840
    -6.26993200         -16.82901360           9.67884080
    -6.38151200         -16.81852320           9.69123840
    -6.47926320         -16.87145200           9.63640240
    -6.53362240         -16.92533520           9.57107520
    -6.56938560         -16.96205120           9.46712480
    -6.56843200         -16.99256880           9.32741200
    -6.54935840         -17.02165600           9.18436080
    -6.53123840         -17.04216000           9.04130960
    -6.44779200         -17.04406720           8.96644560
    -6.37531280         -17.12322240           8.88109200
    -6.26087200         -17.18235040           8.86058800
    -6.08396560         -17.23146400           8.92972960
    -5.96189520         -17.32635520           8.97216800
    -5.82122800         -17.37737680           9.03129600
    -5.68771360         -17.43459680           9.09376160
    -5.58900800         -17.45319360           9.16719440
    -5.51080720         -17.43364320           9.21583200
    -5.48076640         -17.42124560           9.24348800
    -5.46264640         -17.37976080           9.27257520
    -5.48982640         -17.34256720           9.27734400
    -5.52463520         -17.28916160           9.29975520
    -5.59330000         -17.26579680           9.28592720
    -5.69200480         -17.27581040           9.27305200
    -5.77020640         -17.26961120           9.26303840
    -5.88226320         -17.28630080           9.19914240
    -5.98001520         -17.33016960           9.12952400
    -6.04295760         -17.38357520           9.05180000
