SERVICIO GEOLOGICO COLOMBIANO- RED NACIONAL DE ACELEROGRAFOS DE COLOMBIA
SISMO DE QUETAME (CUNDINAMARCA) 2008/05/24 19:20:44 ML=5.7
LATITUD DEL EVENTO(GRADOS): 4.4
LONGITUD DEL EVENTO(GRADOS): -73.813
PROFUNDIDAD DEL EVENTO (Km): .3
CODIGO DE LA ESTACION: CFQNE
Estacion:EMBALSE DE FUQUENE Geol:ROCA Topo:ONDULADA
LATITUD DE LA ESTACION (GRADOS): 5.47
LONGITUD DE LA ESTACION (GRADOS): -73.738
DISTANCIA EPICENTRAL: 119.061 km
DISTANCIA HIPOCENTRAL: 119.061 km
INTERVALO DE MUESTREO (SEGUNDOS): 0.005
NUMERO DE DATOS: 17800
DURACION (SEGUNDOS): 89
UNIDADES: cm/s^2
TIPO DE EQUIPO: ETNA
ESCALA MAXIMA (G): 2
CORRECCION DE LINEA BASE: LINEA BASE NO REMOVIDA
TIPO DE DATOS: NO CORREGIDO
         EW                  VER                  NS
[...]
    -1.69992480          -7.04240800          11.28149040
    -1.51491200          -7.11536400          11.60669360
    -1.32322320          -7.16638560          11.94334000
    -1.14250160          -7.20310240          12.26949680
    -0.98609920          -7.20644000          12.63856880
    -0.83017360          -7.22646720          12.99428960
    -0.72479280          -7.24458720          13.30280320
    -0.61655040          -7.24697120          13.63754240
    -0.51927600          -7.27558160          13.91124720
    -0.49352640          -7.35235200          14.11581040
    -0.45061120          -7.41815600          14.32132720
    -0.41770960          -7.50970880          14.46294800
    -0.44441200          -7.63893120          14.57023600
    -0.48351280          -7.72523920          14.66846480
    -0.53930320          -7.82918960          14.72568480
    -0.61130560          -7.90739040          14.76716960
    -0.70667280          -7.96079600          14.78958160
    -0.80251680          -8.00943360          14.80960880
    -0.90360640          -7.99846640          14.84060320
    -1.03807440          -7.96842560          14.84298720
    -1.15060800          -7.88974800          14.84918560
    -1.27172480          -7.78198240          14.84632480
    -1.40094720          -7.66038880          14.80245600
    -1.50871280          -7.50923120          14.72568480
    -1.59931200          -7.34663040          14.59407840
    -1.69038800          -7.19785680          14.39952880
    -1.80101360          -7.07244880          14.15157280
    -1.86920160          -6.94894800          13.88931280
    -1.98078160          -6.85358080          13.56029520
    -2.15053520          -6.78014720          13.14973840
    -2.30646160          -6.70862160          12.72153840
    -2.49624240          -6.63614240          12.24470160
    -2.68554720          -6.57558480          11.76309600
    -2.85911600          -6.50644320          11.29388800
    -3.05271120          -6.44254720          10.77747360
    -3.25012240          -6.38675680          10.27250320
    -3.44467200          -6.28900560           9.78851280
    -3.64017520          -6.21175760           9.28497280
    -3.80039200          -6.14595440           8.79669200
    -3.95011920          -6.07538240           8.31556320
    -4.10223040          -6.02483760           7.82299040
    -4.21714800          -5.97000160           7.32851040
    -4.31108480          -5.94758960           6.83212320
    -4.37974960          -5.95426560           6.32810560
    -4.43840000          -5.96094160           5.82551920
    -4.47368640          -5.98144560           5.32579440
    -4.47702400          -5.99050560           4.81557840
    -4.50182000          -5.98716720           4.33874160
    -4.49705120          -5.97190880           3.89146800
    -4.49037520          -5.94139120           3.46231440
    -4.49800480          -5.92184080           3.07703040
    -4.41884960          -5.88321680           2.75945680
    -4.35352320          -5.84316240           2.53152880
    -4.31251520          -5.82170480           2.33268720
    -4.21857840          -5.82361200           2.19011280
    -4.10223040          -5.87129600           2.16579440
    -3.96299360          -5.94806640           2.17247040
    -3.83520160          -6.06393840           2.21729280
    -3.69644160          -6.20937360           2.34174720
    -3.57532480          -6.39009440           2.47907600
    -3.48329520          -6.58178320           2.65169120
    -3.38220560          -6.76584240           2.90012320
    -3.32021680          -6.97994240           3.12280640
    -3.28016320          -7.17449200           3.38983520
    -3.27777840          -7.34949120           3.74746320
    -3.30257440          -7.51447680           4.05502320
    -3.34596640          -7.62367280           4.45985760
    -3.41701520          -7.69281360           4.90427040
    -3.46279120          -7.72142400           5.29909120
    -3.53908560          -7.71474800           5.78975680
    -3.59916720          -7.69424400           6.21557200
    -3.59725920          -7.66229600           6.64901760
    -3.62730000          -7.62176480           7.08627680
    -3.61967120          -7.60984400           7.39669760
    -3.57103360          -7.63320960           7.77530640
    -3.55958960          -7.66038880           8.10098640
    -3.53288640          -7.69662880           8.35609440
    -3.46183760          -7.73716000           8.66222400
    -3.38935840          -7.77482960           8.89682800
    -3.28350080          -7.80153280           9.14287600
    -3.15761600          -7.80773200           9.38796960
    -3.04126720          -7.80534720           9.60111600
    -2.88438800          -7.77435280           9.87005200
    -2.73466080          -7.68804560          10.10847120
    -2.57015200          -7.57312800          10.37597680
    -2.38656960          -7.44342800          10.65683360
    -2.19917280          -7.28797920          10.89811360
    -1.99222560          -7.12633120          11.14559200
    -1.80768960          -6.97755840          11.32345200
    -1.55925760          -6.82306320          11.49368320
    -1.30081200          -6.67238240          11.62672080
    -1.09386480          -6.56223280          11.66582080
    -0.87356560          -6.45065280          11.67964960
    -0.66137280          -6.34336480          11.63387280
    -0.49066560          -6.27231600          11.53945920
    -0.34809120          -6.18791600          11.43026320
    -0.23937200          -6.12497360          11.30867040
    -0.18644320          -6.11019120          11.14892960
    -0.13446800          -6.09540960          10.99062000
    -0.12970000          -6.10494640          10.82897200
    -0.16498560          -6.15310640          10.62345520
    -0.19359600          -6.21652640          10.44511760
    -0.26845920          -6.30617120          10.23292560
    -0.39005280          -6.42395040           9.99927520
    -0.55742240          -6.54649760           9.77325440
    -0.73671360          -6.68430320           9.51576240
    -0.94986000          -6.83879840           9.28163520
    -1.21164320          -6.98471040           9.03272640
    -1.47342720          -7.13300720           8.80336800
    -1.76382080          -7.27939600           8.61406320
    -2.06327440          -7.39526720           8.43954080
    -2.35509840          -7.49444960           8.30554960
    -2.65073760          -7.57551200           8.17394240
    -2.90203120          -7.62701040           8.08191280
    -3.13520400          -7.66706480           7.99894320
    -3.36408640          -7.68995280           7.88784000
    -3.59392160          -7.71427120           7.80248640
    -3.80325280          -7.72380800           7.70711920
    -3.99827920          -7.72094720           7.61175120
    -4.22763840          -7.71188720           7.51972160
    -4.43267840          -7.66849520           7.41386400
    -4.64391680          -7.60936720           7.30228400
    -4.86469280          -7.51066240           7.17639920
    -5.04398320          -7.39288320           7.06052800
    -5.21373760          -7.27558160           6.94370240
    -5.36489520          -7.14349760           6.83450720
    -5.49984000          -7.03859360           6.74867600
    -5.61571120          -6.92892080           6.68382640
    -5.70344960          -6.82354000           6.63948080
    -5.77783600          -6.76727280           6.60371760
    -5.79214080          -6.70671440           6.60657920
    -5.77926640          -6.66904480           6.58273680
    -5.75590160          -6.66999840           6.55698800
    -5.65862640          -6.66570640           6.57415360
    -5.55896720          -6.70194640           6.55603440
    -5.45692480          -6.74819920           6.55364960
    -5.32722480          -6.79111520           6.58130640
    -5.22184400          -6.85262720           6.64710960
    -5.11598560          -6.90507920           6.76345840
    -4.99439200          -6.95991520           6.91700000
    -4.86660000          -7.00378400           7.13682160
    -4.71353520          -7.06481920           7.39574400
    -4.53042960          -7.14016000           7.68947600
    -4.32062160          -7.19976400           7.99608240
    -4.08220320          -7.28130320           8.28742960
    -3.83853920          -7.37428640           8.57782400
    -3.57151040          -7.44199760           8.82911680
    -3.30877280          -7.50350960           9.03654080
    -3.07846080          -7.55691520           9.22584560
    -2.86006960          -7.57837280           9.35745200
    -2.69269920          -7.58695600           9.45711120
    -2.54392640          -7.57646560           9.54532640
    -2.42900880          -7.55643840           9.59920880
    -2.34985360          -7.52258320           9.64212400
    -2.27737440          -7.46965440           9.66978080
    -2.26926800          -7.42149360           9.68360880
    -2.27069840          -7.35139840           9.69266880
    -2.27880480          -7.27510480           9.69648400
    -2.33221040          -7.21120800           9.71651040
    -2.41041200          -7.14588160           9.74702800
    -2.51865360          -7.09152240           9.78469840
    -2.64358560          -7.05480560           9.84239600
    -2.79760400          -7.02571840           9.92679600
    -2.96020480          -7.02095040          10.05077360
    -3.12948240          -7.04288480          10.18619520
    -3.31449520          -7.07578640          10.33592240
    -3.48091120          -7.13110000          10.47802000
    -3.62920800          -7.18545920          10.61201120
    -3.76939760          -7.22932800          10.76841360
    -3.89146800          -7.27224320          10.88142400
    -3.97777520          -7.28321040          10.97440720
    -4.03785680          -7.26890560          11.06357600
    -4.07934160          -7.24506400          11.12461120
    -4.08077200          -7.18402880          11.18183120
    -4.04119520          -7.08913840          11.23428320
    -3.96204000          -6.96611440          11.27004640
    -3.81660480          -6.82783120          11.28006000
    -3.64398960          -6.68764080          11.26909280
    -3.44038000          -6.54554400          11.23237600
    -3.17382800          -6.41441360          11.16657280
    -2.90870640          -6.29472720          11.07215920
    -2.62928000          -6.20508160          10.95914880
    -2.32172000          -6.11925120          10.81562080
    -2.01845200          -6.04534160          10.66780080
    -1.72042880          -6.01387040          10.51139840
    -1.40666960          -5.96332560          10.35594960
    -1.07097600          -5.92947040          10.23101840
    -0.75006480          -5.93709920          10.08224480
    -0.42533840          -5.92994720           9.96732720
    -0.10395040          -5.93233120           9.84478000
     0.22125280          -5.94091440           9.69886800
     0.55122400          -5.93757600           9.56869120
     0.85973760          -5.93852960           9.38892400
     1.14584000          -5.94472880           9.20629520
     1.39760960          -5.98192240           8.99696320
     1.60694160          -6.03723520           8.77857200
     1.75190000          -6.12831120           8.57543920
     1.86109520          -6.25181200           8.36086240
     1.89781200          -6.40010800           8.16965120
     1.84917440          -6.58607520           7.95936560
     1.76382080          -6.79159200           7.76433920
     1.63030640          -7.04145440           7.60412240
     1.45292320          -7.28178000           7.44199760
     1.19113920          -7.53164320           7.30371440
     0.85449200          -7.80153280           7.18498240
     0.47779120          -8.03756720           7.09152240
     0.04529920          -8.25881920           7.02905680
    -0.44393520          -8.44192480           6.96563760
    -0.96225760          -8.58736000           6.90460240
    -1.49345360          -8.69321840           6.86693200
    -2.04849280          -8.78953920           6.82497040
    -2.57635120          -8.84866720           6.79254560
    -3.08179840          -8.86774080           6.78586960
    -3.59678240          -8.88204560           6.76918000
    -4.06312960          -8.84819040           6.76536560
    -4.48417680          -8.81242720           6.77776320
    -4.92620480          -8.78620160           6.75678240
    -5.39302800          -8.76951200           6.72960320
    -5.87844880          -8.76808160           6.73532480
    -6.41155280          -8.76617440           6.72197360
    -6.96229920          -8.75902160           6.74343120
    -7.53021280          -8.73374960           6.77108800
    -8.11815280          -8.71706000           6.76774960
    -8.67509840          -8.69274160           6.84118240
    -9.22012320          -8.65364080           6.87599200
    -9.72604720          -8.60881840           6.88219040
   -10.17093680          -8.53967680           6.94894800
   -10.60724240          -8.47434960           7.01475120
   -11.01684560          -8.39519520           7.08484640
   -11.32822000          -8.28456880           7.15780240
   -11.52610800          -8.14104080           7.22694400
   -11.67535760          -7.94839840           7.25555440
   -11.76548000          -7.72380800           7.24267920
   -11.75022160          -7.46822320           7.19213520
   -11.65151600          -7.22169840           7.11298000
   -11.45839680          -6.97660480           6.99949280
   -11.16943360          -6.71100640           6.86740880
   -10.77508960          -6.45923600           6.76822640
   -10.23721680          -6.21509520           6.67905840
    -9.57489040          -6.00433360           6.63757360
    -8.78190960          -5.84316240           6.66236880
    -7.85684560          -5.72538400           6.77347200
    -6.87313040          -5.64956640           6.96325280
    -5.82218160          -5.59806800           7.20834720
    -4.70733680          -5.59043920           7.52401360
    -3.66401680          -5.65862640           7.81869920
    -2.70891200          -5.78737280           8.14151760
    -1.80959680          -5.95140480           8.48913200
    -1.01041760          -6.13403360           8.78953920
    -0.33187840          -6.30378720           9.11521920
     0.28753280          -6.45685200           9.42516320
     0.90312960          -6.59799600           9.73606080
     1.47342720          -6.71434400          10.02883920
     2.01845200          -6.83403040          10.27298000
     2.54535680          -6.93750400          10.52761040
     2.98452400          -6.99424720          10.69927200
     3.32832320          -7.02619520          10.81132880
     3.61824000          -7.04145440          10.91814080
     3.81994240          -7.04336160          10.98108320
     3.86762640          -7.04574560          10.96439360
     3.78036480          -7.07960160          10.88190080
     3.55434400          -7.13253040          10.79893120
     3.20100800          -7.18450560          10.65444960
     2.74896640          -7.23123520          10.52904160
     2.17866880          -7.27796560          10.44702560
     1.49488480          -7.33232480          10.30063600
     0.76723120          -7.37333280          10.25819760
    -0.03194800          -7.44485840          10.20526880
    -0.89883840          -7.50923120          10.07366160
    -1.68514240          -7.53831840          10.05315760
    -2.44331360          -7.59983040           9.92345840
    -3.17621200          -7.63893120           9.76467120
    -3.80182240          -7.65419040           9.62781920
    -4.35543040          -7.69329040           9.40132160
    -4.81414800          -7.71951680           9.27257520
    -5.17606720          -7.74002080           9.11045040
    -5.43355920          -7.72810000           8.95547840
    -5.60331360          -7.66468080           8.84437600
    -5.68771360          -7.56645200           8.69798640
    -5.70058800          -7.41195680           8.63027600
    -5.69200480          -7.23886480           8.54063040
    -5.64527520          -7.06243520           8.45289200
    -5.60617440          -6.85501120           8.39662560
    -5.56802720          -6.63757360           8.31222560
    -5.51795920          -6.46066640           8.20922880
    -5.45883200          -6.31427760           8.09526480
    -5.35392800          -6.19888320           7.96461120
    -5.24473200          -6.15501440           7.79294960
    -5.09882000          -6.14786160           7.63797760
    -4.93288080          -6.20269760           7.44342800
    -4.73833120          -6.27803840           7.23934160
    -4.48036160          -6.34431840           7.07197200
    -4.24337360          -6.45971280           6.86216320
    -3.98254400          -6.53171520           6.67142880
    -3.69644160          -6.56700160           6.49881360
    -3.41796880          -6.58893600           6.36863680
    -3.14140320          -6.55603440           6.28519040
    -2.88963280          -6.50787360           6.22415520
    -2.61306800          -6.44540800           6.24799760
    -2.34603920          -6.39534000           6.29282000
    -2.07996400          -6.35290160           6.38294240
    -1.77860240          -6.34288800           6.51168800
    -1.51014320          -6.38055840           6.59990320
    -1.22356400          -6.42013520           6.71529760
    -0.94080000          -6.51741040           6.80017440
    -0.70953360          -6.63948080           6.84356720
    -0.49209600          -6.77299520           6.88838960
    -0.32520320          -6.93178160           6.91366160
    -0.18024480          -7.07101840           6.94322560
    -0.09965920          -7.21120800           6.95943840
    -0.06103520          -7.31420480           7.03477840
    -0.01859680          -7.39717520           7.14874240
    -0.07677040          -7.47919120           7.23981840
    -0.16260160          -7.53116640           7.39717520
    -0.26607520          -7.56359120           7.60555280
    -0.43058400          -7.60746000           7.82918960
    -0.58794000          -7.66468080           8.08572800
    -0.78916560          -7.70950320           8.34655760
    -1.02043120          -7.74526560           8.60071200
    -1.22785600          -7.75909440           8.88872160
    -1.48916240          -7.77959840           9.16576400
    -1.74522400          -7.78007520           9.43088560
    -1.97362880          -7.75909440           9.71078880
    -2.23112080          -7.74288160           9.96923440
    -2.48193760          -7.71141040          10.23101840
    -2.76899360          -7.70187360          10.47039040
    -3.05652640          -7.68995280          10.68306000
    -3.34215200          -7.70616560          10.86282720
    -3.65686400          -7.76004800          10.98966560
    -3.93915200          -7.81059280          11.08312640
    -4.21714800          -7.88640960          11.10839840
    -4.45413600          -7.94172320          11.08837120
