SERVICIO GEOLOGICO COLOMBIANO- RED NACIONAL DE ACELEROGRAFOS DE COLOMBIA
SISMO DE QUETAME (CUNDINAMARCA) 2008/05/24 19:20:44 ML=5.7
LATITUD DEL EVENTO(GRADOS): 4.4
LONGITUD DEL EVENTO(GRADOS): -73.813
PROFUNDIDAD DEL EVENTO (Km): .3
CODIGO DE LA ESTACION: CFILA
Estacion:FILADELFIA Geol:ROCA Topo:ONDULADA
LATITUD DE LA ESTACION (GRADOS): 5.297
LONGITUD DE LA ESTACION (GRADOS): -75.568
DISTANCIA EPICENTRAL: 218.775 km
DISTANCIA HIPOCENTRAL: 218.775 km
INTERVALO DE MUESTREO (SEGUNDOS): 0.005
NUMERO DE DATOS: 5400
DURACION (SEGUNDOS): 27
UNIDADES: cm/s^2
TIPO DE EQUIPO: ETNA
ESCALA MAXIMA (G): 2
CORRECCION DE LINEA BASE: LINEA BASE NO REMOVIDA
TIPO DE DATOS: NO CORREGIDO
         EW                  VER                  NS
[...]
    -5.90610480         -10.70356400           8.24832880
    -5.91707200         -10.69545760           8.23974640
    -5.93471520         -10.69450400           8.23640800
    -5.94186800         -10.67447680           8.21876560
    -5.94520560         -10.66684720           8.19921520
    -5.96380240         -10.67066160           8.19540000
    -5.98430640         -10.66160240           8.18395600
    -5.99622720         -10.65635680           8.17441920
    -6.01005520         -10.65158880           8.16535920
    -6.02483760         -10.64491280           8.16106800
    -6.02769840         -10.65254240           8.15057760
    -6.03199040         -10.66350960           8.12912000
    -6.02912880         -10.66207920           8.13627280
    -6.01577760         -10.65301920           8.12578240
    -6.01387040         -10.65301920           8.10623200
    -6.02340720         -10.65111200           8.10527840
    -6.01100960         -10.64300560           8.08238960
    -5.99098240         -10.64872720           8.07189920
    -5.98621360         -10.64538960           8.06045520
    -5.97524640         -10.63537600           8.02707680
    -5.97763040         -10.62631600           8.01277200
    -5.96237200         -10.61153440           8.01038720
    -5.95426560         -10.60676560           7.98988320
    -5.97095520         -10.60342800           7.96937920
    -5.95474240         -10.59675200           7.95364400
    -5.94568240         -10.58864560           7.93409360
    -5.95474240         -10.57195680           7.91502000
    -5.96046480         -10.55908240           7.89165520
    -5.95474240         -10.54811440           7.88831680
    -5.95903360         -10.53476320           7.86399840
    -5.95760320         -10.51187520           7.84015680
    -5.95331200         -10.49709360           7.83729520
    -5.97143200         -10.48898720           7.80296320
    -5.97143200         -10.47468160           7.78675040
    -5.98764400         -10.47182080           7.76290880
    -5.99336640         -10.46037680           7.74192800
    -5.99098240         -10.44845600           7.73572960
    -6.01673120         -10.45084000           7.69948960
    -6.02245360         -10.45799280           7.68423120
    -6.02388400         -10.44082640           7.66801840
    -6.02436080         -10.43558160           7.63893120
    -6.03961920         -10.45417760           7.61222800
    -6.05869280         -10.44225680           7.59744640
    -6.05964640         -10.43939600           7.59792320
    -6.06870640         -10.44893280           7.57741920
    -6.06250800         -10.44273360           7.56359120
    -6.06536880         -10.43319680           7.56645200
    -6.06393840         -10.43891920           7.56072960
    -6.05106320         -10.44178000           7.55167040
    -6.06012320         -10.44416400           7.55023920
    -6.06632240         -10.45703920           7.55119360
    -6.07204400         -10.46991360           7.54451760
    -6.06489200         -10.49327840           7.53450400
    -6.06775280         -10.49709360           7.53212000
    -6.07538240         -10.49852400           7.53498080
    -6.07538240         -10.51044480           7.52592080
    -6.07919680         -10.51664320           7.52401360
    -6.07585920         -10.51425920           7.52067600
    -6.08491920         -10.50949120           7.50732400
    -6.07872000         -10.51187520           7.49731040
    -6.08062720         -10.49852400           7.48634320
    -6.09016400         -10.50186160           7.48538960
    -6.09064080         -10.50376880           7.48395920
    -6.08539600         -10.49470880           7.47871360
    -6.07490560         -10.49613920           7.48538960
    -6.08634960         -10.49709360           7.49874080
    -6.08730320         -10.49566240           7.50303280
    -6.09159440         -10.48708000           7.52592080
    -6.09684000         -10.48755680           7.54642480
    -6.09970080         -10.47515840           7.54737840
    -6.11829760         -10.47563520           7.57694240
    -6.12688080         -10.47706640           7.59840000
    -6.14595440         -10.46323760           7.62653360
    -6.16931920         -10.45894640           7.66992560
    -6.18553200         -10.44511760           7.70902640
    -6.20698960         -10.44225680           7.75671040
    -6.21128080         -10.42795200           7.78532000
    -6.22320160         -10.42175280           7.83157360
    -6.26802480         -10.41841520           7.89737680
    -6.29282000         -10.39695760           7.94267680
    -6.29186640         -10.39314240           7.98702240
    -6.30712480         -10.36739360           8.04901120
    -6.34384160         -10.34498240           8.09478720
    -6.34908640         -10.33782960           8.14199440
    -6.35671600         -10.30111280           8.20159920
    -6.37102160         -10.28108560           8.22830240
    -6.36243840         -10.26821120           8.26358800
    -6.39057120         -10.25438320           8.30364240
    -6.39867760         -10.25390640           8.33749760
    -6.40106240         -10.24770720           8.37945920
    -6.41727440         -10.24913760           8.41236080
    -6.40821440         -10.24484640           8.46052160
    -6.41012160         -10.24341600           8.49294640
    -6.41346000         -10.24341600           8.52108000
    -6.42013520         -10.23817040           8.55445840
    -6.43014880         -10.23674000           8.56542560
    -6.42299680         -10.23578640           8.61072560
    -6.41489040         -10.23960080           8.64315040
    -6.41679760         -10.24770720           8.65888560
    -6.40726080         -10.24627680           8.69035760
    -6.40821440         -10.24913760           8.70561600
    -6.40153920         -10.27011840           8.74233280
    -6.37626640         -10.27250320           8.76617440
    -6.37292880         -10.28156320           8.76188240
    -6.35004080         -10.30492800           8.75949840
    -6.33192080         -10.32161680           8.76760480
    -6.32047680         -10.33449200           8.78000240
    -6.29615760         -10.34355200           8.76665120
    -6.28185280         -10.35833360           8.74805440
    -6.24465920         -10.37168480           8.73041120
    -6.22415520         -10.39218880           8.71515280
    -6.21461840         -10.41650800           8.69655600
    -6.18791600         -10.44464080           8.67938960
    -6.17074960         -10.47229760           8.66985360
    -6.14643120         -10.49518560           8.63695120
    -6.13212560         -10.51187520           8.61787760
    -6.10208480         -10.53571680           8.59498960
    -6.06966000         -10.57052640           8.55875040
    -6.06727600         -10.58006320           8.53872320
    -6.04581840         -10.59865920           8.49771520
    -6.02388400         -10.61296480           8.47816480
    -6.01100960         -10.61534880           8.44144800
    -6.00004160         -10.62870000           8.38518160
    -5.99098240         -10.62345520           8.37230720
    -5.98812080         -10.62631600           8.33845120
    -5.99479680         -10.62965360           8.30173520
    -5.98573680         -10.62726960           8.27646240
    -5.96904720         -10.62965360           8.24546800
    -5.95283520         -10.61630240           8.22210320
    -5.95617280         -10.61105760           8.19492320
    -5.96523280         -10.60819600           8.17775760
    -5.94091440         -10.60104400           8.16440560
    -5.92899360         -10.60199760           8.14437840
    -5.94186800         -10.59627520           8.12435120
    -5.92756240         -10.59007680           8.11195360
    -5.92470160         -10.59389120           8.11243040
    -5.93662240         -10.59246080           8.09669520
    -5.92136400         -10.57243360           8.08715840
    -5.94091440         -10.56480400           8.08715840
    -5.94758960         -10.57529440           8.07476080
    -5.93805280         -10.58006320           8.08000560
    -5.96809360         -10.57577120           8.07523760
    -5.96189520         -10.56480400           8.06760800
    -5.95855680         -10.58435440           8.06665440
    -5.96904720         -10.59675200           8.06474720
    -5.97143200         -10.58578480           8.06903840
    -5.98526000         -10.60914960           8.05854800
    -5.97572320         -10.61868640           8.05950160
    -5.97333920         -10.61534880           8.06999200
    -5.98287600         -10.62345520           8.08811200
    -5.97620000         -10.61344160           8.09574160
    -5.97286240         -10.61820960           8.08715840
    -5.97000160         -10.62631600           8.10098640
    -5.93996080         -10.61916320           8.09812560
    -5.92470160         -10.63680640           8.09478720
    -5.92660880         -10.63966720           8.10480080
    -5.90181360         -10.63299200           8.10718560
    -5.89036960         -10.65588000           8.11481440
    -5.88417040         -10.66017120           8.09860240
    -5.85889840         -10.66589360           8.09955600
    -5.84602320         -10.67733760           8.11338400
    -5.83028800         -10.68496720           8.10766240
    -5.82742720         -10.69688800           8.10718560
    -5.82408880         -10.68925840           8.10766240
    -5.81789040         -10.69736480           8.13484160
    -5.83028800         -10.70308720           8.14962400
    -5.82551920         -10.70070240           8.14914720
    -5.83744080         -10.72311440           8.17489600
    -5.84840800         -10.71453120           8.18967840
    -5.84316240         -10.70928560           8.20398320
    -5.86700400         -10.73312720           8.21781120
    -5.88369360         -10.73455840           8.23402400
    -5.89752160         -10.73169680           8.26215760
    -5.91945680         -10.73837280           8.27789280
    -5.93709920         -10.76650640           8.29982720
    -5.96237200         -10.77890400           8.33606720
    -5.98621360         -10.77604320           8.34941840
    -6.00957840         -10.79320880           8.37039920
    -6.04057280         -10.80226880           8.40187040
    -6.06918320         -10.82420320           8.42714320
    -6.07633600         -10.83660160           8.46195200
    -6.09684000         -10.84089280           8.47959520
    -6.12688080         -10.86092000           8.50248320
    -6.12926480         -10.86187360           8.52966320
    -6.14595440         -10.86950320           8.56065760
    -6.15358320         -10.89763680           8.58688320
    -6.14356960         -10.90145120           8.60548000
    -6.15310640         -10.90002080           8.62884560
    -6.15930560         -10.92433920           8.62646080
    -6.14356960         -10.93149200           8.64410400
    -6.11639040         -10.94388960           8.66174720
    -6.09302560         -10.95962560           8.65459440
    -6.08396560         -10.96534720           8.65650160
    -6.06012320         -10.98537440           8.66365440
    -5.99718080         -10.97965280           8.66556160
    -5.97333920         -10.99395760           8.64219680
    -5.94806640         -11.01970640           8.63695120
    -5.90753520         -11.01636880           8.63552080
    -5.89084640         -11.04021040           8.59975840
    -5.85079200         -11.05690000           8.57686960
    -5.84602320         -11.05403920           8.54158400
    -5.82933440         -11.05737680           8.51249680
    -5.80358480         -11.05737680           8.48674800
    -5.81264480         -11.06214560           8.42952720
    -5.80167760         -11.05308560           8.38565840
    -5.81121440         -11.03544240           8.34226640
    -5.82075120         -11.01732240           8.28790640
    -5.81789040         -10.99777200           8.22782480
    -5.83791760         -10.98966560           8.17012800
    -5.84983840         -10.96487040           8.11529120
    -5.85937520         -10.94436640           8.04615040
    -5.87701760         -10.93769040           7.97939280
    -5.89084640         -10.92004800           7.92551040
    -5.91611840         -10.89477520           7.86495200
    -5.93948400         -10.87236400           7.79628720
    -5.95951120         -10.84899920           7.73286800
    -5.97620000         -10.81418960           7.66849520
    -5.99622720         -10.78462640           7.61270560
    -6.02817520         -10.75696960           7.54022560
    -6.02817520         -10.72406800           7.47728320
    -6.04200400         -10.68544400           7.42960000
    -6.07013680         -10.65921760           7.36093520
    -6.07252160         -10.63060800           7.31086720
    -6.08205760         -10.59770560           7.25269280
    -6.09159440         -10.58864560           7.20787040
    -6.10733040         -10.56480400           7.18116800
    -6.11591360         -10.53857840           7.13491440
    -6.11686720         -10.51282880           7.10678080
    -6.12735760         -10.49089440           7.07769360
    -6.13689440         -10.46848320           7.05099120
    -6.13832480         -10.43939600           7.04097760
    -6.13689440         -10.42175280           7.03144080
    -6.15739840         -10.39743440           7.02476480
    -6.15739840         -10.37788400           7.02667200
    -6.14595440         -10.34688960           7.03287120
    -6.15453760         -10.31064960           7.04002400
    -6.15501440         -10.30254400           7.06958800
    -6.15167600         -10.29491440           7.08723040
    -6.14404640         -10.27488720           7.09629040
    -6.14452400         -10.26153600           7.13062320
    -6.14690800         -10.26153600           7.14540480
    -6.13260240         -10.24436960           7.18021360
    -6.13594080         -10.23674000           7.22122160
    -6.15739840         -10.24198560           7.23695760
    -6.15549120         -10.21146800           7.27415120
    -6.14070880         -10.19430160           7.29703920
    -6.15453760         -10.18905600           7.31563600
    -6.16359680         -10.16235360           7.35139840
    -6.15549120         -10.14661760           7.38334640
    -6.16312000         -10.12802160           7.40957280
    -6.16407360         -10.10560960           7.44485840
    -6.18124000         -10.11133200           7.48109840
    -6.19173040         -10.11705360           7.50207920
    -6.17742560         -10.12372960           7.53355040
    -6.19316080         -10.14137280           7.56883600
    -6.21032720         -10.15520080           7.60078400
    -6.21080400         -10.18476480           7.64131520
    -6.21461840         -10.19716240           7.69567520
    -6.23464560         -10.20145440           7.73620640
    -6.25514960         -10.23674000           7.75718720
    -6.26182560         -10.25199920           7.80820880
    -6.26611680         -10.25438320           7.85160080
    -6.27946880         -10.29205360           7.87210480
    -6.29758800         -10.30635840           7.92455680
    -6.29854240         -10.32257120           7.96556480
    -6.30950960         -10.34402880           8.00037360
    -6.31427760         -10.33353840           8.05473360
    -6.31141680         -10.36548640           8.08238960
    -6.32238400         -10.37216160           8.12149040
    -6.31141680         -10.37025440           8.16154480
    -6.29997280         -10.38456000           8.18014160
    -6.29949600         -10.35785680           8.20636720
    -6.30521760         -10.36882400           8.22687120
    -6.29949600         -10.37979120           8.24165360
    -6.27660720         -10.36977760           8.26501840
    -6.26802480         -10.37406960           8.29362880
    -6.25991840         -10.36882400           8.29315200
    -6.25038160         -10.36930080           8.31222560
    -6.22940080         -10.37120800           8.34178960
    -6.21366480         -10.36930080           8.35752480
    -6.20317440         -10.37597680           8.38613520
    -6.17599520         -10.38026800           8.40711600
    -6.16407360         -10.38885120           8.41951360
    -6.15310640         -10.40840160           8.42142080
    -6.12545040         -10.39791120           8.45527680
    -6.11257520         -10.40601760           8.46290560
    -6.10399280         -10.45084000           8.45718400
    -6.06203040         -10.45274720           8.49151600
    -6.04915600         -10.44607200           8.48340960
    -6.05058640         -10.47754320           8.47721120
    -6.00051840         -10.49423200           8.48293280
    -5.98716720         -10.49852400           8.47339600
    -5.97333920         -10.52713360           8.45813760
    -5.92517840         -10.54191600           8.46004480
    -5.91325760         -10.55049920           8.45432320
    -5.90038320         -10.57386400           8.42285120
    -5.85842160         -10.57910880           8.42571280
    -5.82838080         -10.59198400           8.39757920
    -5.82981120         -10.63537600           8.35752480
    -5.80930720         -10.64538960           8.35514080
    -5.77068320         -10.64491280           8.34035840
    -5.74874880         -10.67543040           8.30698000
    -5.71823120         -10.67400000           8.29648960
    -5.70917120         -10.67161600           8.28838320
    -5.70917120         -10.69879520           8.24594480
    -5.68580640         -10.70737840           8.23211680
    -5.66816320         -10.68830480           8.22877920
    -5.65099680         -10.67447680           8.21352000
    -5.65624240         -10.67972160           8.19349280
    -5.65195120         -10.67781440           8.17775760
    -5.65671920         -10.68878160           8.16631280
    -5.67340880         -10.68878160           8.15534560
    -5.65385840         -10.66303280           8.15153120
    -5.68628320         -10.66303280           8.13150400
    -5.72156880         -10.66732400           8.10861600
    -5.72586080         -10.63823680           8.10623200
    -5.74874880         -10.62345520           8.11719920
    -5.77592880         -10.63203840           8.10241680
    -5.81121440         -10.60485840           8.10003280
    -5.85079200         -10.59103040           8.09192640
    -5.87844880         -10.57672480           8.08286640
    -5.90753520         -10.53714720           8.11958320
    -5.96237200         -10.53380960           8.10527840
    -6.00481040         -10.53619360           8.09860240
    -6.04057280         -10.51473600           8.12768960
    -6.05535520         -10.48708000           8.13436480
    -6.07633600         -10.46991360           8.14628640
    -6.12640400         -10.45942320           8.16345200
    -6.14500080         -10.45417760           8.18252560
    -6.15549120         -10.44845600           8.19778480
    -6.13307920         -10.41936880           8.22258000
    -6.14023200         -10.41460000           8.24403760
