SERVICIO GEOLOGICO COLOMBIANO- RED NACIONAL DE ACELEROGRAFOS DE COLOMBIA
SISMO DE QUETAME (CUNDINAMARCA) 2008/05/24 19:20:44 ML=5.7
LATITUD DEL EVENTO(GRADOS): 4.4
LONGITUD DEL EVENTO(GRADOS): -73.813
PROFUNDIDAD DEL EVENTO (Km): .3
CODIGO DE LA ESTACION: CSJGU
Estacion:SAN JOSE DEL GUAVIARE Geol:SUELO Topo:PLANA
LATITUD DE LA ESTACION (GRADOS): 2.545
LONGITUD DE LA ESTACION (GRADOS): -72.627
DISTANCIA EPICENTRAL: 244.392 km
DISTANCIA HIPOCENTRAL: 244.392 km
INTERVALO DE MUESTREO (SEGUNDOS): 0.005
NUMERO DE DATOS: 18432
DURACION (SEGUNDOS): 92.16
UNIDADES: cm/s^2
TIPO DE EQUIPO: SSA
ESCALA MAXIMA (G): 2
CORRECCION DE LINEA BASE: LINEA BASE NO REMOVIDA
TIPO DE DATOS: NO CORREGIDO
         EW                  VER                  NS
[...]
    19.53124960         -11.71875040         -14.64843760
    19.53124960         -12.69531280         -13.67187520
    19.53124960         -12.69531280         -12.69531280
    20.50781280         -12.69531280         -11.71875040
    20.50781280         -12.69531280         -10.74218720
    21.48437520         -12.69531280         -10.74218720
    22.46093760         -11.71875040          -9.76562480
    23.43750000         -10.74218720          -9.76562480
    25.39062480          -9.76562480         -10.74218720
    27.34375040          -7.81250000         -11.71875040
    28.32031280          -6.83593760         -12.69531280
    29.29687520          -5.85937520         -13.67187520
    29.29687520          -5.85937520         -14.64843760
    29.29687520          -5.85937520         -14.64843760
    29.29687520          -5.85937520         -15.62500000
    28.32031280          -6.83593760         -13.67187520
    27.34375040          -6.83593760         -12.69531280
    26.36718720          -7.81250000         -10.74218720
    26.36718720          -7.81250000          -9.76562480
    25.39062480          -7.81250000          -7.81250000
    25.39062480          -7.81250000          -5.85937520
    25.39062480          -7.81250000          -4.88281280
    25.39062480          -6.83593760          -3.90624960
    24.41406240          -6.83593760          -2.92968720
    23.43750000          -6.83593760          -1.95312480
    22.46093760          -7.81250000          -1.95312480
    20.50781280          -7.81250000          -2.92968720
    19.53124960          -7.81250000          -3.90624960
    19.53124960          -8.78906240          -5.85937520
    18.55468720          -8.78906240          -8.78906240
    18.55468720          -8.78906240         -11.71875040
    19.53124960          -8.78906240         -13.67187520
    19.53124960          -9.76562480         -16.60156240
    20.50781280          -9.76562480         -18.55468720
    21.48437520          -9.76562480         -19.53124960
    21.48437520          -9.76562480         -19.53124960
    20.50781280          -9.76562480         -18.55468720
    19.53124960          -9.76562480         -17.57812480
    18.55468720          -9.76562480         -15.62500000
    17.57812480         -10.74218720         -13.67187520
    16.60156240         -10.74218720         -11.71875040
    16.60156240         -10.74218720         -10.74218720
    16.60156240         -10.74218720          -9.76562480
    17.57812480         -10.74218720          -8.78906240
    19.53124960          -9.76562480          -8.78906240
    21.48437520          -9.76562480          -7.81250000
    23.43750000          -9.76562480          -6.83593760
    24.41406240          -8.78906240          -5.85937520
    25.39062480          -7.81250000          -4.88281280
    26.36718720          -7.81250000          -3.90624960
    26.36718720          -6.83593760          -2.92968720
    26.36718720          -6.83593760          -1.95312480
    26.36718720          -5.85937520          -2.92968720
    25.39062480          -6.83593760          -2.92968720
    24.41406240          -6.83593760          -4.88281280
    23.43750000          -6.83593760          -5.85937520
    23.43750000          -6.83593760          -7.81250000
    22.46093760          -7.81250000          -8.78906240
    21.48437520          -7.81250000         -10.74218720
    20.50781280          -8.78906240         -11.71875040
    20.50781280          -8.78906240         -12.69531280
    19.53124960          -9.76562480         -13.67187520
    19.53124960         -10.74218720         -15.62500000
    19.53124960         -10.74218720         -16.60156240
    20.50781280         -11.71875040         -18.55468720
    21.48437520         -12.69531280         -20.50781280
    22.46093760         -12.69531280         -22.46093760
    23.43750000         -12.69531280         -23.43750000
    24.41406240         -12.69531280         -25.39062480
    25.39062480         -12.69531280         -27.34375040
    27.34375040         -12.69531280         -28.32031280
    29.29687520         -11.71875040         -28.32031280
    30.27343760         -11.71875040         -28.32031280
    32.22656240         -10.74218720         -28.32031280
    33.20312480         -10.74218720         -28.32031280
    34.17968720          -9.76562480         -27.34375040
    34.17968720          -9.76562480         -26.36718720
    34.17968720          -9.76562480         -25.39062480
    33.20312480          -9.76562480         -24.41406240
    31.25000000          -9.76562480         -22.46093760
    30.27343760          -9.76562480         -21.48437520
    28.32031280          -8.78906240         -19.53124960
    27.34375040          -8.78906240         -18.55468720
    25.39062480          -7.81250000         -16.60156240
    24.41406240          -6.83593760         -16.60156240
    23.43750000          -6.83593760         -15.62500000
    22.46093760          -5.85937520         -14.64843760
    21.48437520          -5.85937520         -14.64843760
    20.50781280          -5.85937520         -14.64843760
    19.53124960          -4.88281280         -13.67187520
    18.55468720          -5.85937520         -13.67187520
    17.57812480          -5.85937520         -13.67187520
    16.60156240          -5.85937520         -13.67187520
    16.60156240          -5.85937520         -13.67187520
    16.60156240          -6.83593760         -13.67187520
    17.57812480          -6.83593760         -12.69531280
    19.53124960          -6.83593760         -11.71875040
    21.48437520          -6.83593760          -9.76562480
    23.43750000          -6.83593760          -7.81250000
    25.39062480          -6.83593760          -5.85937520
    27.34375040          -6.83593760          -3.90624960
    29.29687520          -6.83593760          -1.95312480
    31.25000000          -6.83593760          -0.97656240
    32.22656240          -6.83593760          -0.97656240
    32.22656240          -7.81250000          -1.95312480
    32.22656240          -9.76562480          -3.90624960
    32.22656240          -9.76562480          -5.85937520
    31.25000000         -10.74218720          -6.83593760
    31.25000000         -11.71875040          -8.78906240
    31.25000000         -12.69531280         -10.74218720
    31.25000000         -13.67187520         -11.71875040
    30.27343760         -13.67187520         -12.69531280
    30.27343760         -13.67187520         -12.69531280
    30.27343760         -13.67187520         -13.67187520
    29.29687520         -12.69531280         -12.69531280
    29.29687520         -12.69531280         -12.69531280
    28.32031280         -12.69531280         -12.69531280
    27.34375040         -12.69531280         -12.69531280
    26.36718720         -12.69531280         -11.71875040
    24.41406240         -12.69531280         -12.69531280
    23.43750000         -12.69531280         -12.69531280
    23.43750000         -12.69531280         -13.67187520
    22.46093760         -12.69531280         -14.64843760
    23.43750000         -11.71875040         -15.62500000
    23.43750000         -11.71875040         -17.57812480
    24.41406240         -11.71875040         -18.55468720
    25.39062480         -10.74218720         -19.53124960
    25.39062480         -10.74218720         -21.48437520
    26.36718720          -9.76562480         -21.48437520
    26.36718720          -9.76562480         -22.46093760
    26.36718720          -8.78906240         -21.48437520
    25.39062480          -8.78906240         -21.48437520
    23.43750000          -8.78906240         -21.48437520
    21.48437520          -8.78906240         -20.50781280
    19.53124960          -8.78906240         -19.53124960
    16.60156240          -8.78906240         -18.55468720
    14.64843760          -9.76562480         -16.60156240
    12.69531280          -9.76562480         -15.62500000
    11.71875040         -10.74218720         -14.64843760
    11.71875040         -10.74218720         -13.67187520
    10.74218720         -10.74218720         -13.67187520
    11.71875040         -10.74218720         -13.67187520
    11.71875040         -10.74218720         -14.64843760
    12.69531280         -10.74218720         -15.62500000
    12.69531280         -10.74218720         -17.57812480
    13.67187520         -11.71875040         -18.55468720
    14.64843760         -12.69531280         -19.53124960
    15.62500000         -12.69531280         -19.53124960
    16.60156240         -13.67187520         -18.55468720
    17.57812480         -13.67187520         -17.57812480
    18.55468720         -13.67187520         -15.62500000
    19.53124960         -12.69531280         -13.67187520
    20.50781280         -12.69531280         -11.71875040
    21.48437520         -10.74218720          -9.76562480
    21.48437520         -10.74218720          -8.78906240
    22.46093760          -8.78906240          -7.81250000
    23.43750000          -8.78906240          -8.78906240
    23.43750000          -7.81250000          -9.76562480
    23.43750000          -7.81250000         -10.74218720
    23.43750000          -8.78906240         -12.69531280
    23.43750000          -8.78906240         -14.64843760
    23.43750000          -8.78906240         -15.62500000
    23.43750000          -8.78906240         -16.60156240
    24.41406240          -8.78906240         -17.57812480
    25.39062480          -8.78906240         -17.57812480
    26.36718720          -8.78906240         -17.57812480
    27.34375040          -8.78906240         -16.60156240
    28.32031280          -7.81250000         -15.62500000
    29.29687520          -7.81250000         -14.64843760
    29.29687520          -6.83593760         -13.67187520
    29.29687520          -5.85937520         -12.69531280
    29.29687520          -5.85937520         -11.71875040
    28.32031280          -5.85937520         -10.74218720
    27.34375040          -5.85937520          -9.76562480
    25.39062480          -6.83593760          -8.78906240
    24.41406240          -6.83593760          -7.81250000
    23.43750000          -7.81250000          -7.81250000
    22.46093760          -7.81250000          -6.83593760
    22.46093760          -7.81250000          -6.83593760
    23.43750000          -7.81250000          -7.81250000
    23.43750000          -6.83593760          -7.81250000
    23.43750000          -6.83593760          -7.81250000
    24.41406240          -6.83593760          -8.78906240
    24.41406240          -6.83593760          -8.78906240
    23.43750000          -7.81250000          -8.78906240
    21.48437520          -8.78906240          -8.78906240
    19.53124960          -9.76562480          -8.78906240
    17.57812480         -10.74218720          -9.76562480
    15.62500000         -11.71875040          -9.76562480
    13.67187520         -12.69531280         -10.74218720
    12.69531280         -13.67187520         -11.71875040
    11.71875040         -14.64843760         -13.67187520
    11.71875040         -14.64843760         -14.64843760
    12.69531280         -14.64843760         -16.60156240
    13.67187520         -14.64843760         -18.55468720
    15.62500000         -13.67187520         -21.48437520
    17.57812480         -13.67187520         -23.43750000
    19.53124960         -12.69531280         -26.36718720
    21.48437520         -12.69531280         -27.34375040
    21.48437520         -12.69531280         -29.29687520
    22.46093760         -12.69531280         -29.29687520
    22.46093760         -12.69531280         -30.27343760
    21.48437520         -13.67187520         -29.29687520
    21.48437520         -13.67187520         -28.32031280
    21.48437520         -13.67187520         -27.34375040
    21.48437520         -13.67187520         -25.39062480
    21.48437520         -13.67187520         -23.43750000
    21.48437520         -13.67187520         -22.46093760
    22.46093760         -12.69531280         -20.50781280
    22.46093760         -11.71875040         -18.55468720
    23.43750000         -10.74218720         -17.57812480
    24.41406240         -10.74218720         -16.60156240
    24.41406240          -9.76562480         -15.62500000
    24.41406240          -8.78906240         -14.64843760
    24.41406240          -8.78906240         -14.64843760
    24.41406240          -8.78906240         -13.67187520
    23.43750000          -9.76562480         -13.67187520
    22.46093760          -9.76562480         -13.67187520
    22.46093760          -9.76562480         -12.69531280
    21.48437520         -10.74218720         -12.69531280
    21.48437520         -10.74218720         -11.71875040
    22.46093760         -10.74218720         -11.71875040
    23.43750000         -10.74218720         -10.74218720
    25.39062480          -9.76562480         -10.74218720
    28.32031280          -9.76562480          -9.76562480
    31.25000000          -8.78906240          -8.78906240
    34.17968720          -7.81250000          -7.81250000
    36.13281280          -6.83593760          -7.81250000
    38.08593760          -5.85937520          -6.83593760
    40.03906240          -4.88281280          -6.83593760
    41.01562480          -4.88281280          -6.83593760
    41.99218720          -4.88281280          -6.83593760
    41.99218720          -4.88281280          -6.83593760
    41.01562480          -5.85937520          -6.83593760
    40.03906240          -5.85937520          -6.83593760
    39.06250000          -6.83593760          -6.83593760
    37.10937520          -6.83593760          -7.81250000
    35.15624960          -7.81250000          -8.78906240
    34.17968720          -7.81250000          -9.76562480
    32.22656240          -8.78906240         -10.74218720
    30.27343760          -9.76562480         -11.71875040
    28.32031280         -10.74218720         -11.71875040
    25.39062480         -10.74218720         -11.71875040
    23.43750000         -11.71875040         -10.74218720
    21.48437520         -11.71875040         -10.74218720
    19.53124960         -12.69531280          -9.76562480
    18.55468720         -12.69531280          -9.76562480
    16.60156240         -12.69531280          -9.76562480
    16.60156240         -12.69531280         -10.74218720
    15.62500000         -12.69531280         -11.71875040
    15.62500000         -12.69531280         -12.69531280
    15.62500000         -12.69531280         -14.64843760
    15.62500000         -12.69531280         -17.57812480
    15.62500000         -12.69531280         -19.53124960
    14.64843760         -12.69531280         -21.48437520
    14.64843760         -11.71875040         -22.46093760
    13.67187520         -12.69531280         -23.43750000
    12.69531280         -11.71875040         -23.43750000
    12.69531280         -11.71875040         -22.46093760
    12.69531280         -11.71875040         -21.48437520
    13.67187520         -11.71875040         -19.53124960
    13.67187520         -11.71875040         -16.60156240
    15.62500000         -10.74218720         -14.64843760
    16.60156240         -10.74218720         -12.69531280
    17.57812480          -9.76562480         -10.74218720
    19.53124960          -9.76562480          -8.78906240
    19.53124960          -9.76562480          -7.81250000
    20.50781280          -9.76562480          -7.81250000
    19.53124960          -9.76562480          -6.83593760
    19.53124960         -10.74218720          -5.85937520
    18.55468720         -10.74218720          -4.88281280
    17.57812480         -10.74218720          -4.88281280
    16.60156240         -10.74218720          -4.88281280
    16.60156240         -10.74218720          -3.90624960
    16.60156240          -9.76562480          -3.90624960
    17.57812480          -9.76562480          -4.88281280
    19.53124960          -7.81250000          -6.83593760
    21.48437520          -6.83593760          -8.78906240
    23.43750000          -5.85937520         -10.74218720
    25.39062480          -4.88281280         -12.69531280
    27.34375040          -4.88281280         -15.62500000
    28.32031280          -4.88281280         -16.60156240
    29.29687520          -4.88281280         -18.55468720
    29.29687520          -5.85937520         -19.53124960
    29.29687520          -5.85937520         -20.50781280
    29.29687520          -6.83593760         -21.48437520
    29.29687520          -6.83593760         -21.48437520
    29.29687520          -7.81250000         -21.48437520
    28.32031280          -7.81250000         -21.48437520
    29.29687520          -7.81250000         -21.48437520
    29.29687520          -7.81250000         -21.48437520
    29.29687520          -7.81250000         -21.48437520
    29.29687520          -8.78906240         -21.48437520
    30.27343760          -8.78906240         -20.50781280
    30.27343760          -8.78906240         -19.53124960
    30.27343760          -8.78906240         -18.55468720
    31.25000000          -9.76562480         -16.60156240
    32.22656240          -9.76562480         -15.62500000
    33.20312480          -8.78906240         -14.64843760
    34.17968720          -8.78906240         -13.67187520
    35.15624960          -8.78906240         -12.69531280
    36.13281280          -8.78906240         -12.69531280
    37.10937520          -7.81250000         -13.67187520
    37.10937520          -7.81250000         -14.64843760
    37.10937520          -7.81250000         -14.64843760
    36.13281280          -8.78906240         -15.62500000
    34.17968720          -8.78906240         -15.62500000
    32.22656240          -9.76562480         -15.62500000
    30.27343760          -9.76562480         -15.62500000
    28.32031280          -9.76562480         -15.62500000
    26.36718720          -9.76562480         -14.64843760
    25.39062480          -9.76562480         -14.64843760
    24.41406240          -8.78906240         -13.67187520
    23.43750000          -8.78906240         -12.69531280
    22.46093760          -8.78906240         -11.71875040
    20.50781280          -7.81250000         -10.74218720
    19.53124960          -7.81250000          -9.76562480
    17.57812480          -8.78906240          -7.81250000
    16.60156240          -9.76562480          -6.83593760
    14.64843760          -9.76562480          -4.88281280
    12.69531280         -10.74218720          -3.90624960
    12.69531280         -11.71875040          -2.92968720
    11.71875040         -12.69531280          -2.92968720
    11.71875040         -12.69531280          -1.95312480
    12.69531280         -12.69531280          -2.92968720
    13.67187520         -12.69531280          -2.92968720
    15.62500000         -12.69531280          -2.92968720
    16.60156240         -11.71875040          -3.90624960
    17.57812480         -11.71875040          -4.88281280
    18.55468720         -11.71875040          -5.85937520
    18.55468720         -10.74218720          -6.83593760
