SERVICIO GEOLOGICO COLOMBIANO- RED NACIONAL DE ACELEROGRAFOS DE COLOMBIA
SISMO DE QUETAME (CUNDINAMARCA) 2008/05/24 19:20:44 ML=5.7
LATITUD DEL EVENTO(GRADOS): 4.4
LONGITUD DEL EVENTO(GRADOS): -73.813
PROFUNDIDAD DEL EVENTO (Km): .3
CODIGO DE LA ESTACION: COCAN
Estacion:OCANA Geol:ROCA Topo:ONDULADA
LATITUD DE LA ESTACION (GRADOS): 8.241
LONGITUD DE LA ESTACION (GRADOS): -73.323
DISTANCIA EPICENTRAL: 429.806 km
DISTANCIA HIPOCENTRAL: 429.806 km
INTERVALO DE MUESTREO (SEGUNDOS): 0.005
NUMERO DE DATOS: 8704
DURACION (SEGUNDOS): 43.52
UNIDADES: cm/s^2
TIPO DE EQUIPO: SSA
ESCALA MAXIMA (G): 1
CORRECCION DE LINEA BASE: LINEA BASE NO REMOVIDA
TIPO DE DATOS: NO CORREGIDO
         EW                  VER                  NS
[...]
   -29.78515640          -1.46484360           7.81250000
   -29.78515640          -1.95312480           7.81250000
   -29.78515640          -1.95312480           7.81250000
   -29.78515640          -1.46484360           8.30078120
   -29.78515640          -1.46484360           7.81250000
   -29.78515640          -1.46484360           8.30078120
   -29.78515640          -1.95312480           8.30078120
   -29.78515640          -1.46484360           8.30078120
   -29.78515640          -1.46484360           8.30078120
   -29.78515640          -1.46484360           8.30078120
   -29.78515640          -1.46484360           8.30078120
   -29.78515640          -1.46484360           8.30078120
   -29.78515640          -1.46484360           8.30078120
   -29.78515640          -1.46484360           8.30078120
   -29.78515640          -1.46484360           8.30078120
   -29.78515640          -1.46484360           8.30078120
   -29.78515640          -1.46484360           8.30078120
   -29.78515640          -1.46484360           8.78906240
   -29.29687520          -1.46484360           8.78906240
   -29.29687520          -1.46484360           8.78906240
   -29.29687520          -1.46484360           8.78906240
   -29.29687520          -1.46484360           8.78906240
   -29.29687520          -1.95312480           8.78906240
   -29.29687520          -1.46484360           8.78906240
   -29.29687520          -1.95312480           8.78906240
   -29.29687520          -1.46484360           8.78906240
   -29.29687520          -1.95312480           8.78906240
   -29.29687520          -1.95312480           8.78906240
   -29.29687520          -1.95312480           9.27734360
   -29.29687520          -1.95312480           8.78906240
   -29.29687520          -1.95312480           8.78906240
   -29.29687520          -1.95312480           9.27734360
   -29.29687520          -1.95312480           9.27734360
   -29.29687520          -1.95312480           9.27734360
   -29.29687520          -1.95312480           9.27734360
   -29.29687520          -1.95312480           8.78906240
   -29.29687520          -1.95312480           9.27734360
   -29.29687520          -1.95312480           8.78906240
   -29.29687520          -1.95312480           9.27734360
   -29.29687520          -1.95312480           8.78906240
   -29.29687520          -2.44140640           8.78906240
   -29.29687520          -1.95312480           8.78906240
   -29.29687520          -1.95312480           8.78906240
   -29.29687520          -1.95312480           8.78906240
   -29.29687520          -1.95312480           8.78906240
   -29.29687520          -1.95312480           8.78906240
   -29.29687520          -1.95312480           8.78906240
   -29.29687520          -1.95312480           8.78906240
   -29.29687520          -1.95312480           8.78906240
   -29.29687520          -2.44140640           8.78906240
   -29.29687520          -1.95312480           8.78906240
   -29.29687520          -2.44140640           8.78906240
   -29.29687520          -2.44140640           8.78906240
   -29.29687520          -2.44140640           8.78906240
   -29.29687520          -2.44140640           8.78906240
   -29.29687520          -2.44140640           8.78906240
   -29.29687520          -2.44140640           8.78906240
   -29.29687520          -1.95312480           8.78906240
   -29.29687520          -1.95312480           9.27734360
   -29.29687520          -1.95312480           8.78906240
   -29.29687520          -2.44140640           9.27734360
   -29.29687520          -1.95312480           9.27734360
   -29.78515640          -1.95312480           9.27734360
   -29.78515640          -1.95312480           8.78906240
   -29.78515640          -1.95312480           9.27734360
   -29.78515640          -1.95312480           9.27734360
   -29.78515640          -1.95312480           9.27734360
   -29.78515640          -1.95312480           9.27734360
   -29.78515640          -1.95312480           9.27734360
   -29.78515640          -1.95312480           9.27734360
   -29.78515640          -1.95312480           9.27734360
   -29.78515640          -1.95312480           8.78906240
   -29.78515640          -1.95312480           8.78906240
   -29.78515640          -1.95312480           8.78906240
   -29.78515640          -1.95312480           8.78906240
   -29.78515640          -1.95312480           8.78906240
   -29.78515640          -1.95312480           8.78906240
   -29.78515640          -1.95312480           8.78906240
   -29.78515640          -1.95312480           8.78906240
   -29.78515640          -1.95312480           8.78906240
   -29.29687520          -1.95312480           8.78906240
   -29.29687520          -1.95312480           8.30078120
   -29.29687520          -1.95312480           8.30078120
   -29.29687520          -1.95312480           8.30078120
   -29.29687520          -1.95312480           8.30078120
   -29.29687520          -1.95312480           8.30078120
   -29.29687520          -1.95312480           8.30078120
   -29.29687520          -1.95312480           8.30078120
   -29.29687520          -1.95312480           8.30078120
   -29.29687520          -1.95312480           8.30078120
   -29.29687520          -1.95312480           8.30078120
   -29.29687520          -1.95312480           7.81250000
   -29.29687520          -1.95312480           8.30078120
   -29.29687520          -1.95312480           8.30078120
   -29.29687520          -1.95312480           8.30078120
   -29.29687520          -1.95312480           8.30078120
   -29.29687520          -1.95312480           8.30078120
   -29.29687520          -1.95312480           8.30078120
   -29.29687520          -1.95312480           8.30078120
   -29.29687520          -1.95312480           8.30078120
   -29.29687520          -1.95312480           8.30078120
   -29.29687520          -1.95312480           8.30078120
   -29.29687520          -1.95312480           8.30078120
   -29.29687520          -1.95312480           8.30078120
   -29.29687520          -1.95312480           8.30078120
   -29.29687520          -1.95312480           8.30078120
   -29.78515640          -1.95312480           8.30078120
   -29.78515640          -1.95312480           8.30078120
   -29.78515640          -1.95312480           8.30078120
   -29.78515640          -1.95312480           8.30078120
   -29.78515640          -1.95312480           8.78906240
   -29.78515640          -1.95312480           8.30078120
   -29.78515640          -1.95312480           8.78906240
   -29.78515640          -1.46484360           8.78906240
   -29.78515640          -1.95312480           8.78906240
   -30.27343760          -1.95312480           8.78906240
   -30.27343760          -1.95312480           8.78906240
   -30.27343760          -1.95312480           8.78906240
   -30.27343760          -1.95312480           8.78906240
   -30.27343760          -1.95312480           8.78906240
   -30.27343760          -1.95312480           8.30078120
   -30.27343760          -1.95312480           8.78906240
   -30.27343760          -1.95312480           8.30078120
   -30.27343760          -1.95312480           8.30078120
   -30.27343760          -1.95312480           8.30078120
   -30.27343760          -1.95312480           8.30078120
   -30.27343760          -1.95312480           8.30078120
   -30.27343760          -1.95312480           8.30078120
   -30.27343760          -1.95312480           8.30078120
   -30.27343760          -1.95312480           8.30078120
   -30.27343760          -1.95312480           8.30078120
   -30.27343760          -1.95312480           8.30078120
   -30.27343760          -1.95312480           8.30078120
   -30.27343760          -1.95312480           8.30078120
   -30.27343760          -1.95312480           8.30078120
   -30.27343760          -1.95312480           8.30078120
   -30.27343760          -1.95312480           8.30078120
   -30.27343760          -1.95312480           8.30078120
   -30.27343760          -1.95312480           8.30078120
   -30.27343760          -1.95312480           8.30078120
   -29.78515640          -1.95312480           8.30078120
   -29.78515640          -1.95312480           8.30078120
   -29.78515640          -1.95312480           8.30078120
   -29.78515640          -1.95312480           8.30078120
   -29.78515640          -1.95312480           8.30078120
   -29.78515640          -1.95312480           8.30078120
   -29.78515640          -1.95312480           8.30078120
   -29.29687520          -1.95312480           8.30078120
   -29.78515640          -1.95312480           8.30078120
   -29.78515640          -1.95312480           8.30078120
   -29.29687520          -1.95312480           8.30078120
   -29.29687520          -1.95312480           8.30078120
   -29.29687520          -1.95312480           8.30078120
   -29.29687520          -1.95312480           8.30078120
   -29.29687520          -1.95312480           8.30078120
   -29.29687520          -1.95312480           8.30078120
   -29.29687520          -1.95312480           8.30078120
   -29.29687520          -1.95312480           8.30078120
   -29.29687520          -1.95312480           8.30078120
   -29.29687520          -1.95312480           8.30078120
   -29.29687520          -1.46484360           8.30078120
   -29.29687520          -1.95312480           8.30078120
   -29.29687520          -1.46484360           8.30078120
   -29.29687520          -1.46484360           8.30078120
   -29.29687520          -1.46484360           8.30078120
   -29.29687520          -1.46484360           8.30078120
   -29.29687520          -1.95312480           8.30078120
   -29.29687520          -1.46484360           8.30078120
   -29.29687520          -1.46484360           8.30078120
   -29.29687520          -1.46484360           8.30078120
   -29.29687520          -1.46484360           8.30078120
   -29.29687520          -1.46484360           8.30078120
   -29.29687520          -1.46484360           8.30078120
   -29.29687520          -1.46484360           8.78906240
   -29.29687520          -1.46484360           8.78906240
   -29.29687520          -1.46484360           8.78906240
   -29.29687520          -1.46484360           8.78906240
   -29.29687520          -1.46484360           8.78906240
   -29.78515640          -1.46484360           8.78906240
   -29.78515640          -1.46484360           8.78906240
   -29.78515640          -1.95312480           8.78906240
   -29.78515640          -1.95312480           8.78906240
   -29.78515640          -1.46484360           8.78906240
   -29.78515640          -1.46484360           8.78906240
   -29.78515640          -1.46484360           8.78906240
   -29.78515640          -1.46484360           8.78906240
   -29.78515640          -1.95312480           8.78906240
   -29.78515640          -1.46484360           8.78906240
   -29.78515640          -1.95312480           8.78906240
   -29.78515640          -1.95312480           8.30078120
   -29.78515640          -1.95312480           8.78906240
   -30.27343760          -1.95312480           8.30078120
   -30.27343760          -1.95312480           8.30078120
   -30.27343760          -1.95312480           8.30078120
   -30.27343760          -1.95312480           8.30078120
   -30.27343760          -1.95312480           8.30078120
   -30.27343760          -1.95312480           8.30078120
   -30.27343760          -1.95312480           8.30078120
   -30.27343760          -1.95312480           8.30078120
   -30.27343760          -1.95312480           8.30078120
   -30.27343760          -1.95312480           8.30078120
   -30.27343760          -1.95312480           7.81250000
   -30.27343760          -1.95312480           8.30078120
   -30.27343760          -1.95312480           8.30078120
   -30.27343760          -1.95312480           7.81250000
   -30.27343760          -1.95312480           8.30078120
   -30.27343760          -1.95312480           8.30078120
   -30.27343760          -1.95312480           8.30078120
   -30.27343760          -1.95312480           8.30078120
   -30.27343760          -1.95312480           8.30078120
   -29.78515640          -1.95312480           8.30078120
   -29.78515640          -1.95312480           8.30078120
   -29.78515640          -1.95312480           8.30078120
   -29.78515640          -1.95312480           8.30078120
   -29.78515640          -1.95312480           8.30078120
   -29.78515640          -1.95312480           8.30078120
   -29.78515640          -1.95312480           8.30078120
   -29.29687520          -1.95312480           8.30078120
   -29.29687520          -1.95312480           8.30078120
   -29.29687520          -1.95312480           8.30078120
   -29.29687520          -1.95312480           8.78906240
   -29.29687520          -1.95312480           8.30078120
   -29.29687520          -1.95312480           8.78906240
   -28.80859360          -1.95312480           8.78906240
   -28.80859360          -1.95312480           8.78906240
   -28.80859360          -1.95312480           8.78906240
   -28.80859360          -2.44140640           8.78906240
   -28.80859360          -2.44140640           8.78906240
   -28.80859360          -1.95312480           8.78906240
   -28.80859360          -1.95312480           8.78906240
   -28.80859360          -2.44140640           8.78906240
   -28.80859360          -2.44140640           8.78906240
   -28.32031240          -1.95312480           8.78906240
   -28.32031240          -2.44140640           8.78906240
   -28.32031240          -2.44140640           8.78906240
   -28.32031240          -1.95312480           8.78906240
   -28.32031240          -2.44140640           8.78906240
   -28.32031240          -2.44140640           8.78906240
   -28.32031240          -1.95312480           8.78906240
   -28.32031240          -2.44140640           8.78906240
   -28.32031240          -2.44140640           8.78906240
   -28.80859360          -2.44140640           8.78906240
   -28.80859360          -2.44140640           8.78906240
   -28.80859360          -1.95312480           8.78906240
   -28.80859360          -1.95312480           8.78906240
   -28.80859360          -1.95312480           8.78906240
   -28.80859360          -1.95312480           8.78906240
   -28.80859360          -1.95312480           8.78906240
   -28.80859360          -1.95312480           8.78906240
   -28.80859360          -1.95312480           8.78906240
   -29.29687520          -1.95312480           8.78906240
   -29.29687520          -1.95312480           8.78906240
   -29.29687520          -1.95312480           8.78906240
   -29.29687520          -1.95312480           8.78906240
   -29.29687520          -1.95312480           8.78906240
   -29.29687520          -1.95312480           8.78906240
   -29.78515640          -1.95312480           8.78906240
   -29.78515640          -1.95312480           8.78906240
   -29.78515640          -1.95312480           8.78906240
   -29.78515640          -1.95312480           8.78906240
   -29.78515640          -1.95312480           8.78906240
   -29.78515640          -1.95312480           8.78906240
   -29.78515640          -1.95312480           8.78906240
   -29.78515640          -1.95312480           8.78906240
   -29.78515640          -1.95312480           8.78906240
   -29.78515640          -1.95312480           8.78906240
   -29.78515640          -1.95312480           8.78906240
   -29.78515640          -1.95312480           8.78906240
   -29.78515640          -1.95312480           8.78906240
   -29.78515640          -1.95312480           8.78906240
   -29.78515640          -1.95312480           8.78906240
   -29.78515640          -1.95312480           8.78906240
   -29.78515640          -1.95312480           8.78906240
   -29.78515640          -1.95312480           8.78906240
   -29.78515640          -1.95312480           8.78906240
   -29.78515640          -1.95312480           8.78906240
   -29.78515640          -1.95312480           8.78906240
   -29.78515640          -1.95312480           8.78906240
   -29.78515640          -1.95312480           8.78906240
   -29.78515640          -1.95312480           8.78906240
   -29.78515640          -1.95312480           8.78906240
   -29.78515640          -1.95312480           8.78906240
   -29.78515640          -1.95312480           8.78906240
   -29.78515640          -1.95312480           8.78906240
   -29.78515640          -1.95312480           8.78906240
   -29.78515640          -1.95312480           8.78906240
   -29.78515640          -1.95312480           8.78906240
   -29.78515640          -1.95312480           8.78906240
   -29.78515640          -1.95312480           8.78906240
   -29.78515640          -1.95312480           8.78906240
   -29.78515640          -1.95312480           8.78906240
   -30.27343760          -1.95312480           8.78906240
   -29.78515640          -1.95312480           8.78906240
   -30.27343760          -1.95312480           8.78906240
   -30.27343760          -1.95312480           8.78906240
   -30.27343760          -1.95312480           8.78906240
   -30.27343760          -1.95312480           8.30078120
   -30.27343760          -1.95312480           8.30078120
   -30.27343760          -1.95312480           8.78906240
   -30.27343760          -1.95312480           8.30078120
   -30.27343760          -1.95312480           8.30078120
   -30.27343760          -1.95312480           8.30078120
   -30.27343760          -1.95312480           8.30078120
   -30.27343760          -1.95312480           8.30078120
   -30.27343760          -1.95312480           8.30078120
   -30.27343760          -1.95312480           8.30078120
   -30.27343760          -1.95312480           7.81250000
   -30.27343760          -1.95312480           7.81250000
   -30.27343760          -1.95312480           7.81250000
   -30.27343760          -1.95312480           7.81250000
   -30.27343760          -1.95312480           7.81250000
   -30.27343760          -1.95312480           7.81250000
   -30.27343760          -1.95312480           7.81250000
   -30.27343760          -1.95312480           7.81250000
   -30.27343760          -1.95312480           7.81250000
   -30.27343760          -1.95312480           7.81250000
   -30.27343760          -1.95312480           7.81250000
   -30.27343760          -1.95312480           7.81250000
   -30.27343760          -1.95312480           7.81250000
   -29.78515640          -1.95312480           7.81250000
   -29.78515640          -1.95312480           7.81250000
   -30.27343760          -1.95312480           7.81250000
   -29.78515640          -1.46484360           7.81250000
   -29.78515640          -1.46484360           7.81250000
   -29.78515640          -1.95312480           7.81250000
   -29.78515640          -1.46484360           7.81250000
   -29.78515640          -1.95312480           7.81250000
   -29.78515640          -1.46484360           7.81250000
   -29.78515640          -1.46484360           8.30078120
   -29.78515640          -1.46484360           8.30078120
   -29.78515640          -1.46484360           8.30078120
   -29.78515640          -1.46484360           8.30078120
