SERVICIO GEOLOGICO COLOMBIANO- RED NACIONAL DE ACELEROGRAFOS DE COLOMBIA
SISMO DE QUETAME (CUNDINAMARCA) 2008/05/24 19:20:44 ML=5.7
LATITUD DEL EVENTO(GRADOS): 4.4
LONGITUD DEL EVENTO(GRADOS): -73.813
PROFUNDIDAD DEL EVENTO (Km): .3
CODIGO DE LA ESTACION: CVIL1
Estacion:VILLAVICENCIO Geol:ROCA Topo:PLANA
LATITUD DE LA ESTACION (GRADOS): 4.174
LONGITUD DE LA ESTACION (GRADOS): -73.639
DISTANCIA EPICENTRAL: 31.66 km
DISTANCIA HIPOCENTRAL: 31.661 km
INTERVALO DE MUESTREO (SEGUNDOS): 0.005
NUMERO DE DATOS: 26600
DURACION (SEGUNDOS): 133
UNIDADES: cm/s^2
TIPO DE EQUIPO: ETNA
ESCALA MAXIMA (G): 2
CORRECCION DE LINEA BASE: LINEA BASE NO REMOVIDA
TIPO DE DATOS: NO CORREGIDO
         EW                  VER                  NS
[...]
    15.07949840          19.71817040           2.42805520
    14.57071280          14.11676400          -0.09965920
    11.57140720           9.00411600          -2.40659680
     6.22654000           5.66291840          -4.62245920
    -0.56314480           6.06489200          -6.40821440
    -6.48021680          11.19232160          -7.35759760
    -9.52529920          18.72396480          -7.60316880
    -8.88967520          23.89049520          -6.80780400
    -4.96816640          23.94771600          -4.36067600
     0.66041920          19.26660560          -0.77295280
     5.58996240          11.86466240           2.60400800
     8.26120400           5.13219840           4.73356240
     9.16338000           1.78527840           5.29289280
    10.02597840           2.09808320           4.50658800
    12.26425200           3.96537760           3.18670240
    15.86866400           4.67824960           2.14290640
    19.68193040           3.23247920           1.67608240
    21.19302720           0.53310400           1.78146400
    18.75591280          -2.45809520           2.66122800
    13.62514480          -6.02769840           4.25863280
     8.03566000         -10.18476480           6.19125360
     3.49330880         -13.34428800           8.26835600
    -0.21219280         -13.31329360           9.37461840
    -3.61776320          -9.64880000           8.24403760
    -6.65473920          -5.23996320           4.72831760
    -8.94928000          -3.86524240          -0.82683600
   -10.27584080          -6.82163200          -7.21263920
   -11.38401040         -12.10403440         -12.65764240
   -12.57991760         -16.10851280         -15.82431760
   -13.77058000         -17.05551120         -16.37983360
   -14.21165440         -15.42043680         -14.93310960
   -12.53700240         -12.38393760         -11.90376320
    -8.93688240          -9.02414320          -7.40242000
    -5.04541360          -6.05726240          -1.61647760
    -3.03411520          -5.06734880           4.88519680
    -4.55760960          -7.26938240          11.19518320
    -9.71746480         -11.39831520          16.36076000
   -16.60251600         -14.16730880          19.51074640
   -22.44710960         -13.07249040          20.52974720
   -25.45547520          -8.96453840          19.68717600
   -24.87707120          -4.53567520          17.26579680
   -21.35467520          -2.31170640          13.55504960
   -16.32928880          -3.51572000           8.42762000
   -10.94675040          -8.26787920           1.91307040
    -6.58941280         -16.19720480          -4.35495360
    -4.43792320         -24.64151360          -8.14724000
    -4.69303120         -28.56779120          -9.00650000
    -6.79588320         -25.23231520          -7.52830480
    -9.45138960         -17.66586320          -5.33485440
   -11.47413280         -11.06691360          -4.56047040
   -12.85314560          -7.73286800          -5.41544000
   -14.54639440          -6.42204320          -6.58559760
   -17.49897040          -5.34200640          -7.07864800
   -21.48389840          -4.35113920          -7.07483280
   -24.81842080          -3.06558640          -7.09533680
   -25.69294000           0.79965600          -7.05146800
   -23.68211760           7.97319440          -6.35099440
   -19.46210880          14.14823520          -4.95862960
   -14.13297680          14.44911920          -3.85475120
    -8.76760480           9.49287440          -3.24583040
    -4.08124960           4.20570400          -1.93214400
    -0.60796720           2.29406320           0.77056880
     1.79910640           3.40890880           4.17566320
     4.14562240           5.79166400           7.59696960
     7.85017040           9.04321680          10.23340240
    13.77058000          13.19313040          10.91146480
    21.31605120          17.10605600           9.77420800
    29.51145200          18.42594160           7.97128640
    37.48941440          15.04850400           6.31809200
    43.99013520           7.17496880           5.20134000
    47.88208000          -2.58874880           4.80032000
    48.97117600         -10.65635680           4.71878080
    47.80197120         -14.41383360           4.15802000
    44.59857920         -12.91799520           2.73275360
    39.43300240          -6.20460480           0.33140160
    32.75680560           3.42321360          -2.35796000
    25.25186560          12.42017760          -4.11748880
    17.12179200          18.67103600          -4.30202480
     8.07046880          21.63982400          -2.83050560
    -1.27029440          21.94356880          -0.23031200
    -9.14049120          20.30706400           2.84385680
   -13.70525360          17.79365520           6.07967360
   -14.36471920          16.25204080           9.42420960
   -11.88135120          16.83807360          13.18502400
    -7.66515760          18.38159600          17.09365840
    -3.52144240          18.55564080          19.79494080
    -0.94032320          17.16613760          20.93410480
    -0.25796880          16.24298080          22.04608880
    -0.10204320          17.98343680          24.97291600
     1.58023840          23.21767840          30.13992320
     5.31387360          30.96437440          36.07273120
    10.20956000          39.29185840          41.21494320
    15.65742480          46.03576640          45.01914960
    21.18158320          48.93922800          47.19162000
    26.48878080          45.45640960          47.32418080
    31.15558640          34.79528400          45.34006080
    34.22117200          20.65610880          41.90826400
    35.46953200           9.12475600          37.85514800
    35.03036480           4.16708000          33.65898160
    33.53166560           4.95052320          29.75177760
    32.16600400           7.22885120          26.54933920
    31.45456320           8.05473360          23.89764800
    30.70211440           6.72769520          21.53062800
    28.92971040           3.36360960          19.89030800
    26.56793600          -0.37384000          19.79684800
    24.40261840          -1.52492560          22.11999920
    23.34213280           1.64508800          26.83353440
    24.53613280           7.40575760          31.92996960
    28.14865120          11.80458080          35.36558160
    33.30755200          11.69538480          37.34493280
    37.83893600           7.08103200          38.51222960
    39.66236080           1.57594720          39.00861760
    38.82455840          -0.64945200          39.03055200
    37.20092800           1.69706320          38.17749040
    36.79180160           5.84840800          36.07511520
    38.42306160           7.86590560          32.66811360
    41.49007760           7.22646720          28.45907200
    43.19715520           5.71107840          24.46746800
    40.56930560           4.01115440          21.00801440
    33.66899520           1.42908080          17.30966560
    24.92284800          -2.01225280          12.74633440
    16.72410960          -3.90243520           7.94458400
     9.52720640          -2.05707520           3.85189040
     3.28350080           2.85244000           0.70333520
    -1.39379520           7.75098800          -2.56252320
    -4.25052640          10.60295120          -6.91509280
    -5.36632560          12.59613040         -11.09361680
    -5.59330000          14.21785360         -12.84074800
    -5.72109200          13.54837440         -11.38877840
    -5.97095520           9.68980800          -7.88164160
    -6.23559920           5.17416000          -3.53384000
    -5.97286240           3.49044800           0.84352480
    -5.38301440           5.03015520           4.01210800
    -4.91237680           6.98709520           5.10454160
    -4.59146480           5.91230400           4.07934160
    -5.05161280           1.09243360           1.56688720
    -7.07483280          -4.76455680          -1.20306000
   -10.35165760          -8.25881920          -3.44848640
   -13.23223120          -7.79962560          -5.16843760
   -13.97418960          -3.82471120          -5.98478320
   -12.10022000           2.50577920          -5.23328800
    -7.72094720           9.37318800          -3.41701520
    -1.32370000          14.64462320          -1.89304320
     6.00719440          16.95823680          -0.70333520
    12.68291440          16.03746400           1.23596160
    17.00782800          12.76779200           3.97014640
    18.62764320           7.73859040           6.35576240
    18.51892480           0.58984720           7.56359120
    18.04304160          -7.98225440           7.68709200
    17.39835760         -15.04564320           6.60991680
    15.38133600         -16.61729840           4.02832000
    11.11030560         -11.59238800           0.92792480
     4.88376640          -3.50141520          -1.48200960
    -1.63888960           3.13806560          -2.94780720
    -6.55317280           6.29615760          -2.29454080
    -8.72421280           6.34002720           1.65176400
    -8.39328800           4.27246080           7.41100320
    -7.04145440           1.66463840          12.32147200
    -5.33723840           0.69427520          14.86301440
    -2.71415680           2.79951120          14.98556160
     0.48732720           7.38286960          13.62466800
     2.16865520          11.05737680          11.82031600
     1.18589440           9.95111440           9.06658160
    -0.90169920           3.81088240           4.18615360
    -1.91545520          -3.41939920          -2.45332720
    -1.11961360          -7.58647920          -9.17482400
     0.80013280          -7.78293600         -14.03856240
     2.94017760          -5.49078000         -15.80047600
     4.83322160          -3.22055840         -14.07623280
     6.06632240          -2.86817520          -9.22346080
     6.18171680          -4.02069120          -2.65741360
     5.02777120          -5.83744080           3.32403200
     2.79521920          -8.03375280           7.16590880
     0.02145760          -8.86869440           8.89492000
    -2.24638000          -5.25951360           8.90445680
    -2.91204480           3.00645840           7.93933840
    -1.78146400          11.27052320           6.64615600
     0.48160560          14.22214480           4.39357760
     2.97117200          10.90431200           1.50585200
     4.68921680           4.84323520          -0.17213840
     4.92143600           0.22029840          -0.44250480
     3.95202640          -0.22888160          -0.37431680
     3.35645680           3.71694560          -0.42295440
     4.71973440           9.87911200          -0.61941120
     8.27074080          15.65313360          -0.73194480
    12.90321360          18.59569520          -0.22411360
    17.03023920          17.46749840           0.61655040
    19.65665840          13.11159120           0.30326880
    20.76768880           8.47911840          -1.79338480
    21.23212800           6.83546080          -4.63438000
    21.04377760           8.41474560          -7.26890560
    19.06251920          10.86807280         -10.19668560
    15.29741280          12.30478320         -14.24789440
    11.23189920          13.26608640         -19.26565200
     8.94165040          15.24925200         -23.83804320
     8.96167760          18.21804080         -25.94947840
    10.09368880          21.11530320         -24.25813680
    11.49416000          23.10276000         -18.82362400
    12.75634800          24.18232000         -10.94818080
    13.87977600          23.93674880          -2.23350560
    14.99557520          21.48151360           5.72395360
    15.84482160          18.43595520          12.07494720
    15.52391040          17.37356160          16.97015760
    13.31806160          17.47560480          20.47395680
     9.38367840          15.55585840          21.67415600
     4.15658960          10.96630080          19.61183520
    -1.29890480           6.97565040          14.90402240
    -6.03914240           6.43110240           8.82148720
   -10.00452080           8.01229440           2.59923920
   -13.19885280           8.07094560          -2.48861280
   -14.94550720           4.86898400          -5.30719760
   -14.31846640           0.00381440          -4.80270400
   -11.47079440          -3.41892240          -0.38146960
    -7.60650640          -3.56626480           7.44295120
    -3.89099120          -1.90973280          16.57676720
    -0.78248960          -1.69038800          23.97632560
     2.08425520          -3.43799600          27.88162240
     5.34009920          -4.98247120          29.27350960
     8.79859920          -4.98533280          29.69312640
    11.62195200          -3.81946560          29.41417680
    13.30709440          -2.63690960          27.82726320
    14.05906640          -2.43663760          24.26004400
    14.87731920          -3.55291360          19.31953440
    16.54672640          -5.39398160          15.36321680
    18.72968640          -7.14302080          15.24972880
    20.53546880          -8.16583600          20.08676560
    22.06277840          -8.20398320          29.00552720
    24.54185520          -8.08906560          40.38429280
    28.36465840          -8.65364080          52.40392720
    32.48357760          -9.72700080          63.63248800
    35.14909760         -10.99491120          73.03619360
    35.01796720         -12.41397840          79.26845520
    31.89182320         -12.81452160          80.79052000
    26.36575680         -10.19620880          76.95436480
    19.66619520          -4.76360320          67.91305520
    12.95709600           0.63610080          54.57973520
     7.15208080           3.23820080          39.46733440
     3.08084480           2.46954000          25.83885200
     1.11866000          -0.36096560          15.76423680
     1.25885040          -3.67450720           9.80567920
     3.00407440          -6.03437440           7.37571680
     5.89132320          -6.10876080           6.81161920
     9.50336480          -3.43370400           6.82210960
    12.78066640           0.46920800           6.77442560
    14.81723760           2.54249600           5.55229200
    15.70367840           0.63657760           2.44474400
    16.23439760          -5.90181360          -1.40380880
    16.89577120         -16.16191840          -4.23479120
    17.32730880         -26.38483040          -5.70344960
    16.88194240         -31.95381200          -5.93042400
    15.06567040         -31.41355520          -4.64200960
    11.81507120         -26.80444720          -1.59454320
     8.43477280         -20.50161360           3.39365040
     7.37667120         -13.26560960           9.46617120
    10.14184960          -5.45454000          14.85586160
    15.48242560           1.91211680          18.63098160
    20.55692640           7.95126000          21.26264560
    24.09410480          12.51125360          23.43797680
    26.02052720          16.21007920          24.88517760
    25.88272080          19.43016080          24.84273920
    23.94151680          21.17204640          22.97639840
    21.20208720          18.51129520          19.56844320
    18.57566800           8.89682800          14.91642000
    15.58303840          -4.94480160           9.28926480
     9.56869120         -17.03357680           3.73744960
    -1.08289680         -23.51808560          -0.87976480
   -14.37902480         -23.59580960          -4.96101360
   -26.08966800         -18.77737040          -9.12332560
   -32.60612480         -11.52038560         -12.99810400
   -33.28132640          -4.07409680         -15.70940000
   -29.64735040           2.14481360         -17.03453040
   -23.16570320           6.95943840         -16.85333280
   -14.92643360          11.48462320         -14.79864160
    -6.28900560          16.67070400         -11.06023760
     1.40523920          21.83580400          -6.91795360
     7.20691680          25.66242240          -3.87001040
    10.90240480          26.92985520          -1.92165360
    13.41390640          24.58763120          -0.23841840
    15.79236960          18.83935920           1.58166880
    18.08071120          11.71445840           3.38983520
    19.76299280           5.97143200           5.05113600
    20.45917520           3.43322720           6.83116880
    20.09058000           3.22484960           8.42666640
    18.96524400           2.07233440           9.56916800
    17.85469040          -2.36177440          10.54430000
    17.49515520          -9.20629520          10.86807280
    17.05598800         -15.03992080          10.36691680
    14.70088960         -17.00353600           9.99879840
    10.02168640         -15.14101040          10.09273520
     4.05979120         -11.09123200          10.07986080
    -1.59072880          -6.06250800           9.39702960
    -5.27524960          -0.51736800           8.07666800
    -6.42967200           5.38682960           6.67619680
    -6.09827040          11.11412080           5.48267360
    -5.57088880          15.79952240           4.84371200
    -5.09214400          19.10257360           5.32579440
    -4.61053840          20.33090560           6.81781760
    -3.96394720          19.03820000           8.68558880
    -2.95734400          16.79182080          10.20956000
    -2.09140800          15.68651200          10.55383680
    -1.71041520          16.54386560           9.13000080
    -1.29699680          18.23949840           5.90753520
    -0.04434560          18.27335360           2.11620320
     2.17103920          14.56737520           0.19884080
     4.66442080           7.31372800           1.25741920
     6.41059840           0.01859680           4.25863280
     6.31332400          -3.08942800           8.02707680
     4.32348240          -1.41906720          11.81316400
     1.24931360           2.25448640          14.95599760
    -2.22206080           5.94425200          17.57192640
    -5.11217120          10.11133200          20.65515520
    -6.69097920          15.49673120          24.03163920
    -7.30896000          21.04377760          25.69246320
    -8.20922880          25.02632160          23.88143520
   -10.05506480          27.17638000          18.44739920
   -11.39164000          28.19967280          10.74600240
   -10.50901440          28.29980880           2.71558800
    -7.44056720          26.50213280          -4.24528160
    -3.41320000          22.07517600          -9.22107680
     0.31518960          16.83330560         -11.67202000
     3.10802480          13.03815840         -11.58475840
     4.01163120          11.20710400          -8.86344880
     2.26593040          10.81371280          -3.90624960
    -1.19686160          10.02883920           2.46858560
    -4.75406640           7.29084000           9.81855360
    -7.31897360           4.13513200          17.24147760
    -8.24117680           3.78751760          23.38171040
    -7.37524000           6.70290000          26.93080880
    -5.65385840          10.92386240          27.22549440
    -4.23288320          15.09666480          24.54233200
    -3.31592560          18.00394080          19.60706720
    -2.28929520          19.04773680          13.93508880
