SERVICIO GEOLOGICO COLOMBIANO- RED NACIONAL DE ACELEROGRAFOS DE COLOMBIA
SISMO DE QUETAME (CUNDINAMARCA) 2008/05/24 19:20:44 ML=5.7
LATITUD DEL EVENTO(GRADOS): 4.4
LONGITUD DEL EVENTO(GRADOS): -73.813
PROFUNDIDAD DEL EVENTO (Km): .3
CODIGO DE LA ESTACION: CARBE
Estacion:ARBELAEZ Geol:ROCA Topo:ONDULADA
LATITUD DE LA ESTACION (GRADOS): 4.253
LONGITUD DE LA ESTACION (GRADOS): -74.437
DISTANCIA EPICENTRAL: 71.16 km
DISTANCIA HIPOCENTRAL: 71.161 km
INTERVALO DE MUESTREO (SEGUNDOS): 0.005
NUMERO DE DATOS: 16800
DURACION (SEGUNDOS): 84
UNIDADES: cm/s^2
TIPO DE EQUIPO: ETNA
ESCALA MAXIMA (G): 2
CORRECCION DE LINEA BASE: LINEA BASE NO REMOVIDA
TIPO DE DATOS: NO CORREGIDO
         NS                  EW                  VER
[...]
     3.51238240          -5.10072720          20.44868480
     3.13234320          -4.95243040          21.01755120
     2.62689600          -4.82273120          21.45433440
     2.06947360          -4.78410720          21.63219440
     1.49965280          -4.84228160          21.57211280
     0.98562240          -5.02395600          21.36182800
     0.57268160          -5.27191200          21.10147440
     0.21648400          -5.54180160          20.90024960
    -0.07200240          -5.80120080          20.81966400
    -0.31852720          -6.01148640          20.84732080
    -0.61512000          -6.18696240          20.94030400
    -0.96464160          -6.33716560          21.06332800
    -1.34420400          -6.48450880          21.15678800
    -1.74236320          -6.64854080          21.22831360
    -2.14052240          -6.80446640          21.28744160
    -2.55823120          -6.92796720          21.29316320
    -2.97784800          -7.03382480          21.22020720
    -3.39460400          -7.12776160          21.01373680
    -3.80563760          -7.25221600          20.74956880
    -4.18424640          -7.37619440          20.54262160
    -4.55141040          -7.45630240          20.43771760
    -4.87566000          -7.50684720          20.48444720
    -5.14078160          -7.49349600          20.61796160
    -5.35726560          -7.43150720          20.73621760
    -5.52701920          -7.33089440          20.78247040
    -5.65385840          -7.21788400          20.72095840
    -5.71155520          -7.13777520          20.54452880
    -5.67626960          -7.09581360          20.29180560
    -5.52558880          -7.09247600          20.01714720
    -5.27954080          -7.09342960          19.78826560
    -4.96196720          -7.09104560          19.62709440
    -4.60672400          -7.13443760          19.49977840
    -4.23908240          -7.21836080          19.42014720
    -3.88717680          -7.32612640          19.37627760
    -3.59058400          -7.45487200          19.34432960
    -3.31544880          -7.56168400          19.31095120
    -3.05271120          -7.64513040          19.24657840
    -2.77423840          -7.70139680          19.13404480
    -2.46334080          -7.72047040          18.99242400
    -2.16293360          -7.72190080          18.87607600
    -1.85298880          -7.72190080          18.78929120
    -1.54686000          -7.71045680          18.71013680
    -1.25074400          -7.66897200          18.59283440
    -0.99945040          -7.62128800          18.39351680
    -0.85353840          -7.56406800          18.13364000
    -0.76007840          -7.47156160          17.85469040
    -0.71048720          -7.38573040          17.62104000
    -0.64897520          -7.28845600          17.49467840
    -0.51021600          -7.11679440          17.48943360
    -0.37050240          -6.88695920          17.52996480
    -0.21696080          -6.60085680          17.54188560
    -0.02288800          -6.32429120          17.52853360
     0.19359600          -6.09064080          17.49515520
     0.45299520          -5.87224960          17.53616320
     0.74386560          -5.69200480          17.67587680
     1.05619440          -5.53131120          17.84420000
     1.35612480          -5.37586240          18.00966240
     1.55448880          -5.27143440          18.10789120
     1.63173680          -5.22375120          18.19992080
     1.60741840          -5.22661200          18.32580560
     1.51777280          -5.31387360          18.45026000
     1.44767760          -5.42449920          18.57233040
     1.41429920          -5.55610640          18.70203040
     1.37376800          -5.71250880          18.84126640
     1.26314160          -5.87129600          18.99385440
     1.09624880          -6.06679920          19.21081520
     0.90837440          -6.27326960          19.45209520
     0.68950640          -6.42108880          19.67811600
     0.49495680          -6.45828240          19.90699760
     0.27704240          -6.37578960          20.11060720
     0.03576240          -6.19030000          20.23124720
    -0.15115760          -5.99479680          20.25127440
    -0.28991680          -5.81169120          20.19929920
    -0.37240960          -5.67626960          20.11251440
    -0.45394880          -5.59043920          20.05147920
    -0.55408480          -5.52749600          20.05910880
    -0.67806240          -5.55419920          20.12872720
    -0.85544560          -5.61857200          20.18976240
    -1.08623520          -5.72490720          20.25365840
    -1.37901280          -5.86748160          20.34664160
    -1.70278560          -5.98478320          20.44677760
    -2.04467760          -6.08491920          20.57647680
    -2.38609280          -6.12497360          20.62463760
    -2.72893920          -6.13975520          20.51258080
    -3.05080400          -6.16598160          20.29371280
    -3.33356880          -6.20317440          19.99998080
    -3.59058400          -6.28709760          19.72389200
    -3.79323920          -6.39867760          19.54889280
    -3.94773520          -6.52074800          19.47069200
    -4.06265280          -6.63232800          19.48738080
    -4.19807440          -6.70528400          19.56510560
    -4.36401360          -6.74057040          19.62995520
    -4.49276000          -6.77967040          19.62280240
    -4.56762320          -6.83879840          19.52552800
    -4.58002080          -6.85977920          19.35577360
    -4.52280080          -6.83689120          19.17743680
    -4.37974960          -6.73675520          19.03629280
    -4.15134400          -6.53219200          18.94998560
    -3.82232640          -6.25419600          18.93377280
    -3.39174240          -5.89180000          18.94760160
    -2.89535520          -5.46979920          18.97478080
    -2.33840960          -5.05590400          19.00005360
    -1.70946160          -4.67205040          19.02627920
    -1.03092160          -4.31156160          19.07253280
    -0.38480720          -4.02879680          19.11830880
     0.18739680          -3.85332080          19.15597920
     0.67567840          -3.76796720          19.15836320
     1.02996800          -3.80659120          19.12593840
     1.27935440          -3.93390640          19.07205600
     1.46245920          -4.11224400          19.03104800
     1.56068800          -4.29773360          19.06633360
     1.64032000          -4.42647920          19.17886720
     1.72090560          -4.51231040          19.34719120
     1.79815280          -4.55570240          19.50073280
     1.90067280          -4.60052480          19.61994160
     1.99985520          -4.69493840          19.72484560
     2.10142160          -4.86707680          19.80257040
     2.19154320          -5.09929680          19.91176640
     2.28357280          -5.32913200          20.06292320
     2.39086160          -5.54895440          20.26176480
     2.44808160          -5.74922560          20.50781280
     2.44712800          -5.90705840          20.73383360
     2.33793280          -6.00433360          20.90406400
     2.12335600          -6.08539600          21.01087600
     1.86777120          -6.11972800          21.05951280
     1.57690080          -6.07967360          21.07095680
     1.27744640          -5.97476960          21.07334160
     0.98991360          -5.80215440          21.10195120
     0.74815760          -5.62095680          21.18778240
     0.58364880          -5.41544000          21.29554720
     0.46539280          -5.24330160          21.39472960
     0.35047520          -5.14554960          21.47626880
     0.25701520          -5.13553600          21.48199120
     0.14543520          -5.21516800          21.39663680
    -0.01192080          -5.38110720          21.21162400
    -0.17452240          -5.67674640          20.93648880
    -0.37622480          -6.02912880          20.61224000
    -0.61893440          -6.44588480          20.24841280
    -0.89740720          -6.88266720          19.91748800
    -1.23596160          -7.28654880          19.65141280
    -1.63650480          -7.67421760          19.42634560
    -2.05802880          -8.00752640          19.27709600
    -2.44426720          -8.32176240          19.17982080
    -2.81095520          -8.60595680          19.09256000
    -3.16095360          -8.82864000          18.99719200
    -3.46994400          -8.98218160          18.89324160
    -3.75556960          -9.06705840          18.79215280
    -4.00018720          -9.05370720          18.70727520
    -4.20284240          -8.91828560          18.64528640
    -4.33969520          -8.71992080          18.58520480
    -4.41789600          -8.45575360          18.53132240
    -4.49085200          -8.12864320          18.46647280
    -4.54568880          -7.78293600          18.38254960
    -4.62341280          -7.43532160          18.29147360
    -4.68778640          -7.09199920          18.16034320
    -4.69684640          -6.80875760          17.99678800
    -4.64868560          -6.56843200          17.81988160
    -4.53424480          -6.35290160          17.62294800
    -4.39024000          -6.18362400          17.45510080
    -4.19521360          -5.99861120          17.34209040
    -3.96823920          -5.81264480          17.29154560
    -3.71313120          -5.60617440          17.36021040
    -3.43370400          -5.39827360          17.58194000
    -3.13949600          -5.21707520          17.94242880
    -2.86483760          -5.05876560          18.36299920
    -2.60543840          -4.95529200          18.78881440
    -2.34079360          -4.88042800          19.14501200
    -2.13909120          -4.84943360          19.39487440
    -1.90305680          -4.83655920          19.59848400
    -1.61552400          -4.87136880          19.79112640
    -1.31320960          -4.93097280          20.05624800
    -0.97846960          -4.97102720          20.40958400
    -0.63896160          -5.04255280          20.79772960
    -0.31948080          -5.13029120          21.22449840
    -0.11253360          -5.24950000          21.61502800
     0.02288800          -5.37538560          21.91686640
     0.09441360          -5.51271440          22.10378640
     0.11158000          -5.63764560          22.10140240
     0.15592560          -5.67674640          21.98457680
     0.22554400          -5.62906240          21.81959120
     0.34856800          -5.54275520          21.66509600
     0.54645520          -5.45072560          21.64506880
     0.82922000          -5.36346400          21.79288880
     1.15728400          -5.34391440          22.09711040
     1.46102880          -5.36346400          22.46332160
     1.69754000          -5.43689760          22.76897440
     1.86443360          -5.58710080          22.87244800
     1.97792080          -5.81598320          22.73225760
     2.05469120          -6.14452400          22.43518800
     2.14147600          -6.51121120          22.09043520
     2.25687040          -6.92462960          21.84104880
     2.39133840          -7.29179360          21.75331120
     2.50291840          -7.56597520          21.80385600
     2.52485280          -7.78722800          21.84629440
     2.39706000          -7.91978800          21.84534080
     2.14958160          -8.03947440          21.77858320
     1.80292160          -8.16631280          21.54064160
     1.43098800          -8.25786560          21.23403520
     1.16443600          -8.34941840          20.90168000
     0.98609920          -8.42046720          20.57600000
     0.87499600          -8.43858720          20.31421680
     0.81014640          -8.44430960          20.09725600
     0.74958800          -8.46052160          19.95325120
     0.70047360          -8.48388640          19.84262480
     0.62608720          -8.49056240          19.73438240
     0.48637360          -8.47625760          19.59228480
     0.28276480          -8.44860080          19.35482000
    -0.00333760          -8.43334160          19.02532560
    -0.34761440          -8.45003120          18.67818800
    -0.77390640          -8.46672080          18.39590080
    -1.28984480          -8.48770160          18.17607840
    -1.82104080          -8.49294640          17.96531680
    -2.34174720          -8.46385920          17.72022240
    -2.82764400          -8.35037200          17.44508720
    -3.29303760          -8.15343840          17.16613760
    -3.69644160          -7.97128640          16.91722880
    -3.98016000          -7.81774560          16.78562160
    -4.19378320          -7.68995280          16.77608480
    -4.36830560          -7.58123360          16.79849600
    -4.54282800          -7.49540320          16.87669760
    -4.79126000          -7.43389120          16.97063440
    -5.09595840          -7.38382320          17.03500720
    -5.41591680          -7.32612640          17.10700960
    -5.71918480          -7.25507760          17.16899840
    -5.96475600          -7.17687600          17.29869840
    -6.19363760          -7.07054160          17.50278480
    -6.41727440          -6.97612800          17.75646240
    -6.68048880          -6.89029680          18.03016640
    -6.97231280          -6.79302240          18.26095600
    -7.22599040          -6.68954880          18.46075040
    -7.44295120          -6.53171520          18.62382880
    -7.57455840          -6.28280640          18.77880080
    -7.58600240          -5.95903360          18.94092560
    -7.47013120          -5.61428080          19.12069360
    -7.26699840          -5.27000400          19.30856720
    -6.99043280          -4.95719920          19.46210880
    -6.65426240          -4.72879440          19.57225760
    -6.28423680          -4.62055200          19.64569120
    -5.82504240          -4.64963920          19.69194400
    -5.32531760          -4.78124640          19.74964160
    -4.82988320          -5.00154480          19.85120800
    -4.32252880          -5.28335600          19.95134320
    -3.80897520          -5.59997520          20.02048480
    -3.29160720          -5.96046480          20.04480400
    -2.79331200          -6.34479520          20.01476320
    -2.31790560          -6.76012000          19.92750160
    -1.85346640          -7.19547280          19.76442320
    -1.40571600          -7.59172400          19.51837520
    -0.96273440          -7.96127280          19.21463040
    -0.52499760          -8.29935040          18.90373200
    -0.11968640          -8.57067120          18.59998720
     0.28085680          -8.85725040          18.30720880
     0.70858000          -9.18388400          18.00155600
     1.11770640          -9.53388240          17.67826080
     1.44004800          -9.92345840          17.43459680
     1.66749920         -10.32495520          17.34542880
     1.78194080         -10.72168320          17.40121840
     1.77717200         -11.06643680          17.53854720
     1.68943440         -11.32011440          17.63725280
     1.51681920         -11.46841040          17.60625840
     1.28555280         -11.51561760          17.49944720
     1.04332000         -11.47413280          17.40646400
     0.88310240         -11.35969200          17.37499200
     0.86641280         -11.14034640          17.46606800
     0.95510480         -10.78271840          17.64488240
     1.11627600         -10.34164400          17.81511280
     1.24645200          -9.82999840          17.93813680
     1.32322320          -9.32979600          17.98677440
     1.41239200          -8.88156880          17.92716960
     1.52063360          -8.46242880          17.79413200
     1.63984320          -8.10241680          17.65823360
     1.74999200          -7.77864480          17.53902400
     1.84488320          -7.48729680          17.51995120
     1.87826160          -7.28225680          17.63296160
     1.84297600          -7.19738000          17.84944560
     1.77431120          -7.17163120          18.13077920
     1.67703600          -7.20071760          18.39065520
     1.56927120          -7.25793840          18.61810720
     1.46150560          -7.31182080          18.81933200
     1.37138400          -7.37190240          19.05441280
     1.29795040          -7.40289680          19.37484720
     1.24692880          -7.40718880          19.68240720
     1.18827840          -7.33661680          19.90938160
     1.07526800          -7.19785680          20.04814160
     0.91457360          -7.01952000          20.06721520
     0.69332160          -6.82640080          19.98949040
     0.43916720          -6.65950800          19.83308800
     0.21171600          -6.54220560          19.60229840
     0.02050400          -6.46781920          19.40584160
    -0.16546240          -6.34670240          19.30999760
    -0.39386720          -6.20269760          19.33288560
    -0.61750400          -6.07538240          19.42539200
    -0.78535040          -5.94425200          19.45495600
    -0.92220320          -5.79452480          19.37866240
    -1.00374240          -5.61046640          19.21176880
    -1.01566320          -5.39636640          19.01149760
    -0.94413760          -5.16414640          18.89038080
    -0.80680880          -4.95004640          18.94235600
    -0.67663200          -4.74739040          19.19126480
    -0.61178240          -4.52661520          19.54984640
    -0.69952000          -4.32395920          19.86455920
    -0.93746160          -4.17184800          20.02191520
    -1.26552560          -4.08887840          19.97518560
    -1.66606880          -4.13084000          19.78492720
    -2.04229360          -4.28152080          19.56987360
    -2.30312320          -4.53615200          19.36292640
    -2.44808160          -4.86707680          19.22702800
    -2.52056160          -5.23424160          19.20747760
    -2.54535680          -5.66673280          19.28424800
    -2.54488000          -6.14023200          19.46258560
    -2.53438960          -6.66189200          19.63853840
    -2.45332720          -7.20834720          19.73390560
    -2.30026240          -7.75909440          19.72579920
    -2.12144880          -8.28361520          19.59848400
    -1.94215760          -8.75711440          19.46020160
    -1.76906560          -9.22870640          19.37246320
    -1.62553760          -9.65070720          19.31476560
    -1.55019760         -10.01024240          19.25086960
    -1.56497920         -10.28251680          19.10066640
    -1.67226800         -10.41221600          18.85700240
    -1.85585040         -10.42270640          18.54515040
    -2.07901040         -10.34402880          18.18561520
    -2.21824640         -10.18381120          17.86804160
    -2.25973120          -9.95445280          17.58670800
    -2.23255120          -9.69409920          17.33541520
    -2.13909120          -9.41324240          17.13323600
    -2.05946000          -9.15432000          16.91102960
    -2.00462320          -8.92162320          16.68834720
    -1.94549600          -8.70180160          16.51000960
    -1.84440640          -8.48627120          16.42227200
    -1.68228160          -8.20779840          16.44325280
    -1.42288240          -7.87639600          16.54195760
