SERVICIO GEOLOGICO COLOMBIANO- RED NACIONAL DE ACELEROGRAFOS DE COLOMBIA
SISMO DE QUETAME (CUNDINAMARCA) 2008/05/24 19:20:44 ML=5.7
LATITUD DEL EVENTO(GRADOS): 4.4
LONGITUD DEL EVENTO(GRADOS): -73.813
PROFUNDIDAD DEL EVENTO (Km): .3
CODIGO DE LA ESTACION: CTUN3
Estacion:TUNJA Geol:ROCA Topo:ONDULADA
LATITUD DE LA ESTACION (GRADOS): 5.557
LONGITUD DE LA ESTACION (GRADOS): -73.361
DISTANCIA EPICENTRAL: 137.879 km
DISTANCIA HIPOCENTRAL: 137.879 km
INTERVALO DE MUESTREO (SEGUNDOS): 0.005
NUMERO DE DATOS: 22400
DURACION (SEGUNDOS): 112
UNIDADES: cm/s^2
TIPO DE EQUIPO: ETNA
ESCALA MAXIMA (G): 2
CORRECCION DE LINEA BASE: LINEA BASE NO REMOVIDA
TIPO DE DATOS: NO CORREGIDO
         EW                  VER                  NS
[...]
   -14.24980160          -2.53057440           8.59308240
   -14.08100160          -2.48289120           8.62360000
   -13.96226880          -2.45904960           8.64601120
   -13.89265040          -2.42900880           8.66842240
   -13.84496720          -2.36415840           8.67509840
   -13.82494000          -2.26736080           8.69131120
   -13.82732400          -2.17294720           8.69798640
   -13.83829120          -2.06375120           8.67557520
   -13.84687440          -1.96600000           8.65078000
   -13.88502160          -1.94263440           8.58783760
   -13.90171040          -1.89399680           8.49342320
   -13.89122000          -1.87206240           8.40997680
   -13.94510240          -1.92022320           8.28933680
   -13.98897200          -1.94549600           8.18252560
   -14.04476160          -1.97935120           8.14771680
   -14.16254080          -2.01749840           8.11004640
   -14.28079600          -2.05326080           8.10003280
   -14.39571360          -2.08806960           8.12959680
   -14.52779760          -2.12049520           8.13484160
   -14.66894160          -2.16007200           8.12053680
   -14.76812400          -2.15864160           8.10003280
   -14.85490800          -2.14576720           8.05568720
   -14.91975760          -2.15196640           7.98892960
   -14.95504400          -2.14624400           7.93123280
   -15.00654240          -2.11238880           7.88784000
   -15.03753680          -2.07948720           7.88307200
   -15.06567040          -2.08902320           7.87973440
   -15.10524720          -2.10142160           7.86685920
   -15.13052000          -2.10762000           7.84778560
   -15.15626880          -2.13527680           7.78532000
   -15.17295840          -2.18248400           7.70902640
   -15.16437520          -2.20680240           7.59029360
   -15.15054720          -2.21920000           7.44962720
   -15.13767280          -2.23636640           7.29942320
   -15.09237280          -2.23112080           7.12060960
   -15.03610640          -2.22158400           6.92939760
   -14.97602480          -2.21824640           6.71863520
   -14.88065680          -2.22969040           6.52265520
   -14.77384560          -2.23732000           6.30855600
   -14.66369600          -2.28452720           6.07395200
   -14.53781120          -2.35462160           5.87558720
   -14.39523680          -2.37703360           5.69725040
   -14.28699520          -2.43568400           5.54466240
   -14.20068720          -2.51674640           5.44404960
   -14.10579680          -2.56586080           5.37252400
   -14.05954400          -2.61735920           5.31005840
   -14.02902640          -2.67028800           5.25903680
   -13.99564720          -2.69937520           5.21230720
   -13.96989840          -2.70986560           5.18417360
   -13.95177840          -2.71320320           5.16653040
   -13.93699680          -2.70557440           5.16223920
   -13.88883600          -2.70652800           5.18512720
   -13.86737840          -2.72035600           5.20324720
   -13.83304560          -2.74467440           5.23567200
   -13.75675200          -2.75230400           5.28669360
   -13.72337360          -2.75707280           5.32102560
   -13.69953120          -2.79808080           5.35392800
   -13.64135760          -2.79903440           5.40781040
   -13.59558080          -2.78425200           5.43928160
   -13.59558080          -2.81047840           5.45549360
   -13.57316960          -2.83765760           5.49697840
   -13.55123520          -2.87914240           5.52034400
   -13.56077200          -2.92491920           5.55419920
   -13.53359200          -2.97498720           5.61714160
   -13.49020000          -3.02839280           5.68389920
   -13.48209360          -3.10754800           5.75876240
   -13.49735280          -3.18098080           5.86605040
   -13.53502240          -3.22103520           6.04248080
   -13.63277440          -3.27920880           6.24275200
   -13.77630240          -3.30495840           6.45160640
   -13.96512960          -3.32164800           6.70051600
   -14.18876640          -3.31258800           6.98089600
   -14.41669440          -3.28445440           7.26842880
   -14.65272880          -3.27205680           7.55882240
   -14.88637920          -3.24440000           7.84158720
   -15.10572400          -3.23677040           8.12292080
   -15.32077760          -3.23724720           8.37612160
   -15.54203040          -3.26633440           8.58783760
   -15.70796960          -3.26347360           8.79859920
   -15.84243760          -3.26585760           8.97455200
   -15.94162000          -3.29542160           9.09566880
   -15.96069360          -3.28159360           9.17434720
   -15.95687840          -3.28350080           9.23538240
   -15.90490320          -3.26681120           9.21869280
   -15.80476800          -3.26585760           9.12809360
   -15.67602160          -3.24106240           9.03749440
   -15.50483680          -3.17287440           8.88442960
   -15.28739920          -3.09181200           8.69369520
   -15.05804080          -2.91776640           8.45432320
   -14.84298720          -2.70462000           8.18300240
   -14.62650320          -2.47764560           7.90023840
   -14.45960960          -2.26116160           7.56740560
   -14.31322080          -2.09712960           7.23314320
   -14.18924320          -1.99460960           6.87742240
   -14.10770400          -1.94549600           6.53648400
   -14.03570160          -1.92832960           6.23655280
   -14.02521120          -1.93500480           5.95092800
   -14.02187360          -1.93452800           5.70678720
   -14.05382160          -1.91831600           5.50746880
   -14.16540160          -1.89447440           5.34868240
   -14.28794880          -1.88970560           5.21755200
   -14.44816560          -1.88112240           5.12123120
   -14.65320560          -1.93595920           5.05065920
   -14.84680160          -2.04181680           5.01108160
   -14.98317680          -2.09569920           5.03063200
   -15.12861280          -2.17819200           5.06496400
   -15.25688160          -2.22969040           5.14364240
   -15.32793040          -2.24065760           5.26094400
   -15.42615920          -2.27689760           5.37252400
   -15.50817520          -2.30550800           5.52606560
   -15.55109040          -2.36272800           5.68389920
   -15.55919680          -2.42900880           5.82408880
   -15.50579040          -2.50959360           5.94758960
   -15.37609120          -2.60686880           6.06870640
   -15.17057440          -2.68554720           6.18457760
   -14.92977120          -2.77090080           6.27374640
   -14.65225200          -2.83098240           6.38437280
   -14.36901120          -2.86436080           6.49356880
   -14.11962480          -2.89726240           6.61134720
   -13.89789600          -2.92539600           6.74724560
   -13.70668400          -2.97784800           6.89268080
   -13.53597680          -3.04365120           7.08389280
   -13.35716240          -3.12232960           7.28321040
   -13.18073280          -3.21435920           7.47489920
   -13.00096480          -3.28683840           7.67326320
   -12.81404480          -3.35121120           7.86542880
   -12.67766960          -3.39078880           8.02469280
   -12.57562640          -3.38506720           8.15629920
   -12.53747920          -3.36456320           8.27026400
   -12.57705680          -3.34835040           8.35752480
   -12.66145680          -3.32641600           8.42380560
   -12.80307760          -3.29685200           8.48531760
   -12.96663280          -3.27587120           8.55827360
   -13.17453360          -3.29780560           8.61740080
   -13.38958720          -3.35645680           8.66270080
   -13.61322400          -3.42369040           8.69321840
   -13.85641120          -3.50522960           8.70704640
   -14.05668240          -3.57103360           8.68988000
   -14.26696800          -3.59010720           8.61930880
   -14.48154480          -3.60918080           8.51011280
   -14.66846480          -3.60345840           8.34751120
   -14.82820480          -3.53384000           8.15868400
   -14.97697840          -3.49426240           7.93981520
   -15.10667840          -3.47614320           7.67803200
   -15.18297200          -3.46517600           7.40194320
   -15.28549200          -3.48472560           7.11822480
   -15.39325680          -3.49855440           6.84928880
   -15.46907440          -3.49855440           6.57606160
   -15.57540880          -3.45945360           6.35051760
   -15.70701600          -3.41320000           6.14356960
   -15.81430400          -3.32403200           5.94568240
   -15.90633360          -3.18098080           5.82504240
   -16.04032480          -3.06558640           5.69200480
   -16.13521600          -2.94399280           5.58900800
   -16.15381280          -2.82955200           5.52034400
   -16.16811760          -2.75039680           5.43498960
   -16.14046080          -2.69174560           5.38253760
   -16.07131920          -2.65073760           5.32102560
   -16.02935760          -2.66361200           5.27715680
   -15.96879920          -2.72560080           5.28574000
   -15.86389520          -2.77042400           5.34915920
   -15.75994480          -2.84814800           5.46264640
   -15.64025840          -2.94923760           5.58805440
   -15.48576320          -3.03745280           5.75780880
   -15.29693600          -3.08036800           5.94758960
   -15.09141920          -3.07273840           6.14738480
   -14.88924000          -3.04603600           6.36100800
   -14.65702080          -2.96211280           6.55555760
   -14.44149040          -2.87771200           6.77299520
   -14.27936560          -2.79235840           6.97517360
   -14.13011520          -2.71940240           7.16829280
   -14.01138320          -2.71034240           7.38334640
   -13.87786880          -2.71081920           7.59601600
   -13.71097600          -2.72035600           7.82775840
   -13.58413680          -2.72130960           8.02183120
   -13.48066320          -2.72893920           8.16392880
   -13.40389280          -2.75373440           8.27741600
   -13.38243520          -2.75754960           8.33177600
   -13.37814320          -2.76422480           8.36563120
   -13.39054080          -2.80475600           8.36706160
   -13.42725760          -2.85291680           8.33892800
   -13.48114000          -2.86483760           8.32414640
   -13.57507680          -2.85577760           8.31651680
   -13.72003520          -2.84528720           8.36038560
   -13.93699680          -2.82621360           8.42571280
   -14.23406640          -2.80857120           8.50915920
   -14.57262000          -2.82144560           8.61597040
   -14.92261920          -2.83336640           8.70513920
   -15.28596880          -2.83432000           8.78381760
   -15.63262960          -2.86245360           8.83483920
   -15.92636080          -2.87723520           8.85582000
   -16.19148240          -2.87389760           8.81719600
   -16.41607280          -2.88581840           8.74376320
   -16.60537680          -2.91156800           8.63599760
   -16.75891840          -2.91299840           8.50200640
   -16.90483120          -2.93254880           8.33654400
   -17.06171040          -2.97594080           8.12149040
   -17.12799040          -2.94780720           7.93361680
   -17.17233680          -2.91728960           7.71141040
   -17.18664160          -2.89821600           7.46107120
   -17.12894400          -2.85863840           7.19785680
   -17.04931280          -2.82430640           6.90841680
   -16.93534880          -2.78902080           6.60753280
   -16.79801920          -2.75898000           6.27470000
   -16.58105840          -2.71368000           5.95569600
   -16.38603200          -2.68459360           5.61285040
   -16.17097840          -2.64263120           5.30719760
   -15.88487600          -2.57444400           5.06067280
   -15.66457760          -2.53677360           4.81891600
   -15.43474160          -2.52008400           4.65869920
   -15.21873440          -2.52676000           4.55141040
   -15.03658320          -2.54583360           4.52041600
   -14.89448560          -2.57206000           4.55904000
   -14.79291920          -2.59685520           4.64200960
   -14.68801520          -2.59447120           4.82797600
   -14.65606720          -2.56872160           5.06687200
   -14.67466320          -2.56300000           5.35345040
   -14.72187040          -2.55966160           5.70201840
   -14.82868160          -2.54297280           6.09302560
   -14.98889920          -2.57110560           6.50882720
   -15.13910320          -2.61831280           6.95896160
   -15.23494720          -2.70986560           7.43055360
   -15.29598240          -2.85959280           7.89260880
   -15.31219520          -3.00264320           8.35657120
   -15.30504240          -3.15713920           8.78953920
   -15.25449760          -3.26824160           9.22203040
   -15.18154160          -3.33452240           9.61399040
   -15.09809520          -3.34453600           9.93824000
   -14.95647440          -3.25489040          10.23292560
   -14.84155680          -3.18479520          10.42461360
   -14.72044000          -3.09991840          10.53905520
   -14.55640800          -2.98643120          10.61916320
   -14.42480080          -2.91633600          10.62822320
   -14.26124560          -2.85196320          10.56671120
   -14.07814000          -2.77519200          10.46085360
   -13.91840000          -2.71034240          10.29872880
   -13.75579840          -2.67791760          10.06889360
   -13.61703840          -2.63786320           9.80663280
   -13.52071760          -2.62451200           9.50336480
   -13.47637200          -2.65550640           9.16385680
   -13.46015920          -2.68840800           8.81958000
   -13.44823840          -2.71701840           8.46529040
   -13.47255680          -2.71940240           8.11719920
   -13.52500880          -2.68411600           7.82156000
   -13.59796560          -2.59065600           7.55119360
   -13.70763760          -2.48003040           7.28178000
   -13.82589360          -2.37989440           7.05528240
   -13.97228240          -2.27832800           6.84452080
   -14.14871200          -2.23207440           6.66999840
   -14.31369760          -2.23398240           6.52790080
   -14.45055040          -2.22158400           6.41346000
   -14.53113520          -2.21586240           6.35147120
   -14.59646240          -2.21538560           6.28566720
   -14.60790640          -2.16245680           6.25371920
   -14.57595840          -2.07614880           6.24895120
   -14.60266080          -2.02274320           6.23464560
   -14.64414560          -2.00319280           6.20937360
   -14.68849200          -1.98602640           6.18648560
   -14.73856000          -2.00796160           6.17361040
   -14.80484000          -2.08425520           6.17265680
   -14.85014000          -2.16674800           6.21938720
   -14.86635200          -2.27594400           6.29568080
   -14.92261920          -2.43186960           6.42108880
   -14.97125600          -2.60496160           6.56557120
   -15.02561600          -2.76613200           6.70290000
   -15.10381680          -2.91919680           6.85405760
   -15.15245440          -3.08704400           6.97374320
   -15.17438880          -3.21006800           7.08913840
   -15.17772640          -3.28445440           7.22026800
   -15.14196400          -3.34644320           7.32851040
   -15.05517920          -3.38316000           7.42340080
   -14.95361360          -3.36551680           7.54118000
   -14.82915840          -3.31544880           7.65562080
   -14.70184320          -3.27825520           7.74002080
   -14.60456880          -3.22198880           7.79342640
   -14.51301600          -3.18431840           7.82918960
   -14.42384720          -3.18098080           7.84969360
   -14.32657280          -3.17525840           7.83968000
   -14.25361600          -3.18098080           7.84158720
   -14.19639600          -3.19290160           7.83205040
   -14.11962480          -3.17144400           7.81250000
   -14.08338560          -3.11374640           7.79342640
   -14.08290880          -3.09181200           7.73429840
   -14.07337200          -3.06749360           7.67135600
   -14.08958400          -3.01504160           7.58695600
   -14.15681840          -3.01408800           7.48825040
   -14.23549680          -3.03888320           7.40337360
   -14.33372480          -3.05414160           7.33232480
   -14.44911920          -3.06892400           7.28940960
   -14.56165280          -3.11326960           7.24935520
   -14.65511360          -3.14855600           7.25173920
   -14.70756560          -3.11470000           7.27319680
   -14.78099840          -3.10325600           7.24792480
   -14.85109360          -3.09228880           7.20739360
   -14.88876320          -3.03173040           7.16352480
   -14.97220960          -3.00836560           7.12633120
   -15.06853120          -2.99835200           7.11154960
   -15.12622800          -3.00645840           7.11774800
   -15.18964800          -3.05366480           7.14874240
   -15.23256320          -3.10277920           7.22742080
   -15.21444320          -3.14331040           7.32040400
   -15.17152800          -3.15427760           7.38954560
   -15.11383040          -3.13091280           7.44867360
   -15.02800000          -3.06177120           7.48062160
   -14.94455360          -2.98070880           7.50446320
   -14.91165200          -2.90441520           7.54737840
   -14.88971680          -2.83145920           7.59935360
   -14.87493520          -2.79092800           7.67135600
   -14.87112080          -2.79426560           7.79581040
   -14.86968960          -2.83336640           7.95173680
   -14.89353200          -2.87532800           8.11529120
   -14.91165200          -2.94685360           8.27503200
   -14.95742800          -3.04985040           8.40663920
   -15.01655600          -3.14521760           8.53109360
   -15.09571040          -3.23820080           8.61597040
   -15.21492000          -3.31258800           8.67652880
   -15.31124080          -3.36122480           8.74471680
   -15.40899280          -3.43084320           8.76379040
   -15.48385600          -3.47995760           8.76665120
   -15.53869280          -3.48329520           8.75186960
   -15.54822960          -3.48854080           8.70513920
   -15.54060000          -3.48997120           8.63313680
   -15.58399200          -3.48711040           8.52823280
   -15.61164880          -3.47042080           8.43191120
   -15.64645760          -3.43370400           8.32319280
   -15.68746560          -3.38649760           8.23020960
   -15.71559920          -3.31306480           8.14962400
   -15.71655280          -3.21388240           8.05664080
   -15.73228800          -3.11946880           7.98177680
   -15.77281920          -3.02648560           7.89165520
   -15.77758800          -2.95114480           7.78770480
   -15.79284640          -2.88009680           7.67850880
