SERVICIO GEOLOGICO COLOMBIANO- RED NACIONAL DE ACELEROGRAFOS DE COLOMBIA
SISMO DE QUETAME (CUNDINAMARCA) 2008/05/24 19:20:44 ML=5.7
LATITUD DEL EVENTO(GRADOS): 4.4
LONGITUD DEL EVENTO(GRADOS): -73.813
PROFUNDIDAD DEL EVENTO (Km): .3
CODIGO DE LA ESTACION: CPENS
Estacion:PENSILVANIA Geol:ROCA Topo:ONDULADA
LATITUD DE LA ESTACION (GRADOS): 5.393
LONGITUD DE LA ESTACION (GRADOS): -75.161
DISTANCIA EPICENTRAL: 185.843 km
DISTANCIA HIPOCENTRAL: 185.843 km
INTERVALO DE MUESTREO (SEGUNDOS): 0.005
NUMERO DE DATOS: 17920
DURACION (SEGUNDOS): 89.6
UNIDADES: cm/s^2
TIPO DE EQUIPO: SSA
ESCALA MAXIMA (G): 1
CORRECCION DE LINEA BASE: LINEA BASE NO REMOVIDA
TIPO DE DATOS: NO CORREGIDO
         EW                  VER                  NS
[...]
   -14.16015640          -1.46484360           7.81250000
   -14.64843760          -1.95312480           7.81250000
   -15.13671880          -1.95312480           7.32421880
   -15.62500000          -1.95312480           7.32421880
   -16.60156240          -1.95312480           7.32421880
   -17.08984360          -2.44140640           7.32421880
   -18.06640640          -2.44140640           7.32421880
   -18.55468760          -2.44140640           6.83593760
   -19.04296880          -2.44140640           6.83593760
   -20.01953120          -2.44140640           6.34765640
   -20.50781240          -1.95312480           6.34765640
   -20.99609360          -1.95312480           5.85937520
   -21.97265640          -1.95312480           5.37109360
   -21.97265640          -1.95312480           5.37109360
   -22.46093760          -1.95312480           4.88281240
   -22.94921880          -1.95312480           4.88281240
   -22.94921880          -1.95312480           4.88281240
   -22.94921880          -1.95312480           4.88281240
   -22.94921880          -1.95312480           4.39453120
   -23.43750000          -1.95312480           4.88281240
   -23.43750000          -1.95312480           4.88281240
   -23.43750000          -1.95312480           4.88281240
   -23.43750000          -1.95312480           4.88281240
   -23.92578120          -1.95312480           4.39453120
   -23.92578120          -1.95312480           4.88281240
   -23.92578120          -1.95312480           4.88281240
   -24.41406240          -1.46484360           4.39453120
   -24.41406240          -1.46484360           4.39453120
   -24.41406240          -1.46484360           4.39453120
   -24.41406240          -0.97656240           4.39453120
   -23.92578120          -0.97656240           4.39453120
   -23.43750000          -0.97656240           4.39453120
   -22.94921880          -0.48828120           4.39453120
   -22.46093760          -0.48828120           4.39453120
   -21.48437520          -0.48828120           4.39453120
   -20.99609360          -0.48828120           4.39453120
   -20.50781240          -0.97656240           4.39453120
   -20.01953120          -0.97656240           4.39453120
   -19.53125000          -0.97656240           4.39453120
   -18.55468760          -0.97656240           4.39453120
   -18.55468760          -0.97656240           3.90625000
   -18.06640640          -0.97656240           3.90625000
   -17.57812480          -1.46484360           3.90625000
   -17.57812480          -1.46484360           3.90625000
   -17.08984360          -1.46484360           3.90625000
   -17.08984360          -1.46484360           3.41796880
   -17.08984360          -1.46484360           3.41796880
   -17.08984360          -1.46484360           3.41796880
   -16.60156240          -1.46484360           3.41796880
   -16.60156240          -1.46484360           3.41796880
   -16.60156240          -1.95312480           2.92968760
   -16.60156240          -1.95312480           3.41796880
   -16.60156240          -1.95312480           3.41796880
   -16.11328120          -1.95312480           3.41796880
   -16.11328120          -1.95312480           3.90625000
   -16.60156240          -1.46484360           3.90625000
   -16.60156240          -1.46484360           4.39453120
   -16.60156240          -1.46484360           4.88281240
   -16.60156240          -0.97656240           5.37109360
   -17.08984360          -0.97656240           5.85937520
   -17.08984360          -0.48828120           6.34765640
   -17.08984360          -0.48828120           6.34765640
   -17.08984360          -0.48828120           6.83593760
   -17.08984360          -0.48828120           6.83593760
   -17.08984360          -0.48828120           7.32421880
   -17.08984360          -0.48828120           7.32421880
   -17.08984360          -0.48828120           7.81250000
   -17.08984360          -0.48828120           7.81250000
   -17.08984360          -0.48828120           7.81250000
   -17.08984360          -0.48828120           8.30078120
   -17.08984360          -0.48828120           8.30078120
   -17.57812480          -0.48828120           8.78906240
   -18.06640640          -0.48828120           9.27734360
   -18.06640640          -0.48828120           9.76562480
   -18.55468760          -0.48828120          10.25390640
   -19.04296880          -0.48828120          11.23046880
   -19.04296880          -0.48828120          12.20703120
   -19.53125000          -0.48828120          12.69531240
   -19.53125000          -0.48828120          13.18359360
   -19.53125000          -0.48828120          14.16015640
   -20.01953120          -0.48828120          14.16015640
   -20.01953120          -0.48828120          14.64843760
   -20.01953120          -0.48828120          14.64843760
   -19.53125000          -0.97656240          14.16015640
   -19.53125000          -0.97656240          13.67187520
   -19.04296880          -0.97656240          13.18359360
   -18.55468760          -1.46484360          12.20703120
   -18.06640640          -1.46484360          10.74218760
   -17.57812480          -1.46484360           9.76562480
   -17.08984360          -1.46484360           8.30078120
   -17.08984360          -1.46484360           6.83593760
   -17.08984360          -1.46484360           5.37109360
   -17.08984360          -1.46484360           4.39453120
   -17.08984360          -1.46484360           3.41796880
   -17.08984360          -1.46484360           2.44140640
   -17.08984360          -1.46484360           1.46484360
   -17.57812480          -1.46484360           0.48828120
   -18.06640640          -1.95312480           0.00000000
   -18.55468760          -1.46484360          -0.48828120
   -18.55468760          -1.95312480          -0.48828120
   -19.04296880          -1.95312480          -0.48828120
   -19.53125000          -1.95312480          -0.48828120
   -19.53125000          -1.95312480          -0.48828120
   -19.53125000          -1.46484360          -0.48828120
   -19.53125000          -1.46484360          -0.48828120
   -19.53125000          -1.46484360          -0.48828120
   -19.53125000          -1.46484360          -0.48828120
   -19.53125000          -1.46484360          -0.48828120
   -19.04296880          -1.46484360           0.00000000
   -19.04296880          -1.46484360           0.48828120
   -19.04296880          -1.46484360           0.48828120
   -19.04296880          -1.46484360           0.48828120
   -18.55468760          -1.46484360           0.97656240
   -18.55468760          -0.97656240           1.46484360
   -18.55468760          -0.97656240           1.95312480
   -18.55468760          -0.97656240           2.44140640
   -18.55468760          -0.48828120           2.92968760
   -19.04296880          -0.48828120           3.41796880
   -19.04296880          -0.48828120           3.90625000
   -19.04296880          -0.48828120           4.88281240
   -19.04296880          -0.48828120           5.37109360
   -18.55468760          -0.48828120           5.85937520
   -18.55468760          -0.48828120           6.34765640
   -18.55468760          -0.48828120           7.32421880
   -18.06640640          -0.48828120           7.81250000
   -18.06640640          -0.97656240           8.30078120
   -17.57812480          -0.97656240           8.78906240
   -17.57812480          -0.97656240           9.27734360
   -17.57812480          -0.97656240          10.25390640
   -17.57812480          -0.97656240          10.74218760
   -17.57812480          -0.97656240          11.23046880
   -18.06640640          -0.97656240          12.20703120
   -18.06640640          -0.97656240          12.69531240
   -18.06640640          -0.97656240          13.18359360
   -18.55468760          -0.97656240          13.67187520
   -18.55468760          -0.97656240          14.16015640
   -18.06640640          -0.97656240          14.64843760
   -18.55468760          -0.97656240          14.64843760
   -18.06640640          -0.97656240          14.64843760
   -18.06640640          -0.97656240          14.64843760
   -18.06640640          -0.97656240          14.64843760
   -17.57812480          -0.97656240          14.64843760
   -17.57812480          -0.97656240          14.16015640
   -17.08984360          -0.97656240          14.16015640
   -17.08984360          -0.97656240          13.18359360
   -17.08984360          -0.97656240          12.69531240
   -17.08984360          -0.97656240          11.71875000
   -17.57812480          -0.97656240          10.74218760
   -18.06640640          -1.46484360           9.76562480
   -18.55468760          -1.46484360           8.30078120
   -19.04296880          -1.95312480           7.32421880
   -19.53125000          -1.95312480           6.34765640
   -20.01953120          -1.95312480           5.85937520
   -20.50781240          -1.46484360           4.88281240
   -20.50781240          -1.46484360           3.90625000
   -20.99609360          -1.95312480           2.92968760
   -21.48437520          -1.46484360           2.44140640
   -21.48437520          -1.46484360           1.46484360
   -21.97265640          -1.46484360           0.48828120
   -21.97265640          -1.46484360           0.00000000
   -21.97265640          -1.95312480          -0.48828120
   -21.97265640          -1.95312480          -0.97656240
   -21.97265640          -1.95312480          -1.46484360
   -21.97265640          -1.95312480          -1.95312480
   -21.48437520          -1.95312480          -2.44140640
   -21.48437520          -1.95312480          -2.92968760
   -20.99609360          -1.95312480          -2.92968760
   -20.99609360          -1.95312480          -2.92968760
   -20.50781240          -1.95312480          -2.92968760
   -20.50781240          -1.95312480          -2.44140640
   -20.01953120          -1.95312480          -2.44140640
   -20.01953120          -1.95312480          -1.95312480
   -20.01953120          -1.95312480          -1.95312480
   -19.53125000          -1.95312480          -1.95312480
   -19.53125000          -1.95312480          -1.46484360
   -19.53125000          -1.95312480          -1.46484360
   -19.53125000          -1.95312480          -0.97656240
   -19.53125000          -1.95312480          -0.48828120
   -20.01953120          -1.95312480          -0.48828120
   -20.01953120          -1.95312480           0.00000000
   -20.50781240          -1.95312480           0.48828120
   -20.50781240          -1.95312480           1.46484360
   -20.50781240          -1.95312480           1.95312480
   -20.50781240          -1.46484360           2.92968760
   -20.50781240          -1.46484360           3.90625000
   -20.50781240          -1.95312480           4.39453120
   -20.50781240          -1.95312480           5.37109360
   -20.01953120          -1.95312480           6.34765640
   -19.53125000          -1.95312480           6.83593760
   -19.53125000          -1.95312480           7.81250000
   -19.04296880          -1.95312480           8.30078120
   -18.55468760          -1.95312480           9.27734360
   -18.06640640          -1.95312480          10.25390640
   -17.57812480          -1.95312480          10.74218760
   -16.60156240          -1.95312480          11.23046880
   -16.60156240          -1.95312480          12.20703120
   -15.62500000          -1.95312480          12.69531240
   -15.62500000          -1.95312480          13.18359360
   -15.13671880          -1.95312480          13.67187520
   -15.13671880          -1.95312480          14.16015640
   -15.13671880          -1.95312480          14.16015640
   -15.62500000          -1.46484360          14.64843760
   -15.62500000          -1.46484360          15.13671880
   -15.62500000          -1.46484360          14.64843760
   -16.11328120          -1.46484360          14.64843760
   -16.11328120          -1.46484360          14.64843760
   -16.60156240          -1.46484360          14.16015640
   -16.60156240          -0.97656240          14.16015640
   -17.08984360          -0.97656240          13.18359360
   -17.08984360          -0.97656240          12.69531240
   -17.08984360          -0.97656240          12.20703120
   -17.08984360          -0.97656240          11.23046880
   -17.08984360          -0.97656240          10.74218760
   -17.57812480          -0.97656240           9.76562480
   -17.08984360          -0.97656240           9.27734360
   -17.57812480          -0.97656240           8.78906240
   -17.57812480          -1.46484360           8.30078120
   -17.57812480          -1.46484360           7.81250000
   -17.57812480          -1.46484360           7.32421880
   -18.06640640          -1.46484360           6.83593760
   -18.06640640          -1.95312480           6.34765640
   -18.55468760          -1.95312480           5.37109360
   -19.04296880          -1.95312480           4.39453120
   -19.53125000          -1.95312480           3.41796880
   -20.01953120          -1.95312480           2.44140640
   -20.99609360          -1.95312480           0.97656240
   -21.48437520          -1.95312480           0.00000000
   -21.97265640          -1.46484360          -0.48828120
   -22.46093760          -1.95312480          -1.95312480
   -22.94921880          -1.46484360          -2.92968760
   -23.43750000          -1.95312480          -3.90625000
   -23.92578120          -1.46484360          -4.39453120
   -24.41406240          -1.46484360          -5.37109360
   -24.41406240          -1.95312480          -5.37109360
   -24.41406240          -1.95312480          -5.37109360
   -24.90234360          -1.95312480          -5.37109360
   -24.90234360          -1.95312480          -4.88281240
   -24.90234360          -1.95312480          -3.90625000
   -24.90234360          -1.95312480          -2.92968760
   -24.90234360          -1.95312480          -1.46484360
   -24.90234360          -1.95312480          -0.48828120
   -24.41406240          -1.95312480           0.97656240
   -23.92578120          -1.46484360           2.44140640
   -23.43750000          -1.46484360           3.90625000
   -22.94921880          -1.46484360           5.37109360
   -21.97265640          -1.46484360           6.34765640
   -20.99609360          -1.46484360           7.32421880
   -20.01953120          -1.46484360           8.30078120
   -19.04296880          -1.46484360           8.30078120
   -17.57812480          -1.95312480           8.78906240
   -17.08984360          -1.95312480           8.30078120
   -16.11328120          -1.95312480           8.30078120
   -15.13671880          -1.95312480           8.30078120
   -14.64843760          -1.95312480           8.30078120
   -14.16015640          -1.95312480           8.78906240
   -14.16015640          -1.95312480           8.78906240
   -14.16015640          -1.95312480           8.78906240
   -13.67187520          -1.95312480           9.27734360
   -14.16015640          -1.95312480           9.27734360
   -14.16015640          -1.95312480           9.76562480
   -14.16015640          -1.95312480          10.25390640
   -14.16015640          -1.95312480          10.25390640
   -14.16015640          -1.95312480          10.25390640
   -14.16015640          -1.95312480          10.25390640
   -14.16015640          -1.95312480          10.25390640
   -14.16015640          -1.95312480           9.76562480
   -14.16015640          -1.95312480           9.27734360
   -14.16015640          -1.95312480           9.27734360
   -14.64843760          -1.95312480           8.78906240
   -14.64843760          -2.44140640           8.30078120
   -15.13671880          -2.44140640           8.30078120
   -15.62500000          -2.44140640           7.81250000
   -16.11328120          -2.44140640           7.32421880
   -17.08984360          -2.44140640           7.32421880
   -18.06640640          -2.44140640           7.32421880
   -19.04296880          -2.44140640           7.32421880
   -20.01953120          -2.44140640           7.32421880
   -20.99609360          -2.44140640           7.32421880
   -22.46093760          -1.95312480           7.32421880
   -23.43750000          -1.95312480           7.32421880
   -24.41406240          -1.95312480           7.32421880
   -24.90234360          -1.46484360           6.83593760
   -25.39062480          -1.46484360           6.83593760
   -25.87890640          -1.46484360           6.34765640
   -25.87890640          -0.97656240           5.37109360
   -25.87890640          -0.48828120           4.88281240
   -25.39062480          -0.48828120           4.39453120
   -24.90234360          -0.48828120           3.90625000
   -24.41406240          -0.48828120           2.92968760
   -23.43750000          -0.48828120           2.44140640
   -22.94921880          -0.48828120           2.44140640
   -22.46093760          -0.48828120           1.95312480
   -21.97265640          -0.48828120           1.95312480
   -21.48437520          -0.48828120           1.95312480
   -20.99609360          -0.48828120           2.44140640
   -20.99609360          -0.48828120           2.44140640
   -20.50781240          -0.48828120           2.92968760
   -20.50781240          -0.97656240           3.41796880
   -20.50781240          -0.97656240           3.90625000
   -20.50781240          -0.97656240           4.39453120
   -20.50781240          -0.97656240           4.88281240
   -20.50781240          -0.97656240           5.37109360
   -20.50781240          -0.97656240           6.34765640
   -20.50781240          -1.46484360           6.34765640
   -20.01953120          -1.46484360           6.83593760
   -19.53125000          -1.46484360           6.83593760
   -19.04296880          -1.46484360           7.32421880
   -18.06640640          -1.46484360           6.83593760
   -17.08984360          -1.46484360           6.83593760
   -16.11328120          -1.46484360           6.34765640
   -15.62500000          -1.46484360           6.34765640
   -14.64843760          -1.95312480           5.85937520
   -14.16015640          -1.46484360           5.37109360
   -13.67187520          -1.46484360           4.39453120
   -13.67187520          -1.46484360           3.90625000
   -13.67187520          -1.46484360           3.41796880
   -13.67187520          -1.46484360           3.41796880
   -13.67187520          -1.46484360           2.92968760
   -14.16015640          -0.97656240           2.92968760
   -14.16015640          -0.97656240           2.92968760
   -14.64843760          -0.97656240           2.92968760
   -15.13671880          -0.97656240           3.41796880
   -15.13671880          -0.48828120           3.90625000
   -15.13671880          -0.48828120           4.39453120
   -15.62500000          -0.48828120           4.88281240
   -15.62500000          -0.48828120           5.85937520
   -15.62500000          -0.48828120           6.34765640
   -15.62500000          -0.48828120           7.32421880
   -15.62500000          -0.48828120           8.30078120
   -15.62500000          -0.48828120           8.78906240
   -15.62500000          -0.48828120           9.76562480
   -15.62500000          -0.48828120          10.25390640
