SERVICIO GEOLOGICO COLOMBIANO- RED NACIONAL DE ACELEROGRAFOS DE COLOMBIA
SISMO DE QUETAME (CUNDINAMARCA) 2008/05/24 19:20:44 ML=5.7
LATITUD DEL EVENTO(GRADOS): 4.4
LONGITUD DEL EVENTO(GRADOS): -73.813
PROFUNDIDAD DEL EVENTO (Km): .3
CODIGO DE LA ESTACION: CCUC3
Estacion:CUCUTA, SANTO DOMINGO Geol:ROCA Topo:ONDULADA
LATITUD DE LA ESTACION (GRADOS): 7.873
LONGITUD DE LA ESTACION (GRADOS): -72.507
DISTANCIA EPICENTRAL: 411.859 km
DISTANCIA HIPOCENTRAL: 411.859 km
INTERVALO DE MUESTREO (SEGUNDOS): 0.005
NUMERO DE DATOS: 14600
DURACION (SEGUNDOS): 73
UNIDADES: cm/s^2
TIPO DE EQUIPO: ETNA
ESCALA MAXIMA (G): 2
CORRECCION DE LINEA BASE: LINEA BASE NO REMOVIDA
TIPO DE DATOS: NO CORREGIDO
         EW                  VER                  NS
[...]
    -9.82904400          -5.39922720           0.67377120
    -9.85145600          -5.41114800           0.66757200
    -9.85193280          -5.40828720           0.66089600
    -9.85002480          -5.40733360           0.65374400
    -9.87863520          -5.42497600           0.65612800
    -9.88721840          -5.41496240           0.64134560
    -9.90152320          -5.43165200           0.64420720
    -9.90438480          -5.43165200           0.64182320
    -9.92250480          -5.42449920           0.62131920
    -9.92393520          -5.42211520           0.63705440
    -9.93728640          -5.43069840           0.62656400
    -9.96398960          -5.43498960           0.61941120
    -9.95302240          -5.42068480           0.61798080
    -9.95922080          -5.42211520           0.62847120
    -9.97543360          -5.40781040           0.62990160
    -9.98258560          -5.43546640           0.59509280
    -9.97400320          -5.43260560           0.61321280
    -9.97448000          -5.41734720           0.59890720
    -9.97972480          -5.42354560           0.58269520
    -9.97543360          -5.40447200           0.59556960
    -9.98830800          -5.42879120           0.57697280
   -10.00785840          -5.41782400           0.58460240
   -10.00595120          -5.40494880           0.57411200
   -10.01214960          -5.40590320           0.56076080
   -10.02836240          -5.40351840           0.53978000
   -10.02502480          -5.39922720           0.54168720
   -10.05220400          -5.38301440           0.54597840
   -10.05220400          -5.40447200           0.51593760
   -10.03408400          -5.38349120           0.51260000
   -10.05268080          -5.39112080           0.49781760
   -10.04552880          -5.40494880           0.49591040
   -10.03646880          -5.38063040           0.48208240
   -10.03694560          -5.39779680           0.46300880
   -10.03694560          -5.38969040           0.45204160
   -10.02216320          -5.36966320           0.44298160
   -10.01405680          -5.35726560           0.44631920
   -10.01119600          -5.36537200           0.42104720
    -9.98973840          -5.36727920           0.43010720
    -9.98830800          -5.36394080           0.43296800
    -9.96589680          -5.36680240           0.41914000
    -9.95302240          -5.34820560           0.42247760
    -9.94062400          -5.34629840           0.41723280
    -9.91916640          -5.33103920           0.42724640
    -9.93204080          -5.33151600           0.42820000
    -9.91296800          -5.32436400           0.44250480
    -9.90629200          -5.30767440           0.45061120
    -9.89437120          -5.30910480           0.45061120
    -9.89294080          -5.29766080           0.48303600
    -9.91058320          -5.31005840           0.48208240
    -9.88531120          -5.29575360           0.49066560
    -9.90152320          -5.28478640           0.51975280
    -9.90056960          -5.27477280           0.53358080
    -9.89294080          -5.26571280           0.54836240
    -9.90533840          -5.28287920           0.54836240
    -9.90819920          -5.25379200           0.56934320
    -9.92488880          -5.23710240           0.58889360
    -9.91630560          -5.23328800           0.58174160
    -9.95016080          -5.21898240           0.60272240
    -9.97304880          -5.21183040           0.61798080
    -9.96923440          -5.19275680           0.61845760
    -9.99259920          -5.18751120           0.63371680
   -10.02120960          -5.18512720           0.62799440
   -10.05458800          -5.16939200           0.66518800
   -10.05315760          -5.18178960           0.67758560
   -10.06794000          -5.19561760           0.66137280
   -10.10227200          -5.17463680           0.71382560
   -10.12182240          -5.19704800           0.69952000
   -10.14852560          -5.22756560           0.70095040
   -10.15758480          -5.21087680           0.74434320
   -10.16187680          -5.22470480           0.75387920
   -10.18905600          -5.25903680           0.78010560
   -10.20193120          -5.26523600           0.79584160
   -10.20240800          -5.27143440           0.83208080
   -10.23769360          -5.30958160           0.82683600
   -10.23769360          -5.31911840           0.84161760
   -10.22386560          -5.30719760           0.88930160
   -10.25486000          -5.33866880           0.86927440
   -10.26487360          -5.34009920           0.90742080
   -10.27059520          -5.32293280           0.91981920
   -10.26916480          -5.32579440           0.90932880
   -10.27584080          -5.33771520           0.92601760
   -10.29253040          -5.35058960           0.89931520
   -10.29109920          -5.34534480           0.91457360
   -10.28680800          -5.33533120           0.91457360
   -10.28490080          -5.31530400           0.91123600
   -10.31589520          -5.32436400           0.91075920
   -10.32161680          -5.32102560           0.89168560
   -10.30492800          -5.29384640           0.89883840
   -10.31875600          -5.30672080           0.87594960
   -10.32972320          -5.31244240           0.85449200
   -10.31303440          -5.31292000           0.84829360
   -10.32590880          -5.33246960           0.83780320
   -10.33973680          -5.33914560           0.81968320
   -10.29872880          -5.33437760           0.80871600
   -10.32066320          -5.35249680           0.79250320
   -10.33830640          -5.36012640           0.77486000
   -10.31255760          -5.35774240           0.77629120
   -10.32400160          -5.37538560           0.74911120
   -10.31398800          -5.37157040           0.73719040
   -10.31637200          -5.38110720           0.72431600
   -10.33353840          -5.39779680           0.69665920
   -10.31255760          -5.38873680           0.69093680
   -10.32209360          -5.40351840           0.66852560
   -10.33973680          -5.39970400           0.66757200
   -10.32400160          -5.39445840           0.64563760
   -10.34307440          -5.42545280           0.58794000
   -10.33401520          -5.41877760           0.60939760
   -10.30349760          -5.41210160           0.60844400
   -10.31875600          -5.43642080           0.56552880
   -10.31208000          -5.44691120           0.56743600
   -10.29491440          -5.45310960           0.54979360
   -10.31017280          -5.45644800           0.55122400
   -10.31160320          -5.44548000           0.55503840
   -10.29586800          -5.45263280           0.53978000
   -10.30826560          -5.47170640           0.55360800
   -10.30874240          -5.46646080           0.55456160
   -10.30540480          -5.46979920           0.54407120
   -10.30921920          -5.47647440           0.54121040
   -10.30683520          -5.46216960           0.55789920
   -10.32400160          -5.46407680           0.55456160
   -10.32447840          -5.46360000           0.54931680
   -10.32257120          -5.45358640           0.57411200
   -10.32829280          -5.46264640           0.57029760
   -10.34259760          -5.46693840           0.59223200
   -10.35404240          -5.47361360           0.60415280
   -10.34069040          -5.47599760           0.60844400
   -10.36119440          -5.47742880           0.62561040
   -10.36882400          -5.48744240           0.62131920
   -10.36500960          -5.47456720           0.65994240
   -10.39457360          -5.48744240           0.64754480
   -10.37836080          -5.50222400           0.66804880
   -10.35356560          -5.48362720           0.72240800
   -10.37311520          -5.49364080           0.69427520
   -10.36977760          -5.49459440           0.72622320
   -10.35356560          -5.48791920           0.75340240
   -10.35642640          -5.50222400           0.75197200
   -10.33830640          -5.48982640           0.78487360
   -10.31303440          -5.49745520           0.78868880
   -10.29253040          -5.51223760           0.79154960
   -10.26821120          -5.48744240           0.81300720
   -10.26582720          -5.48410400           0.82778960
   -10.25724400          -5.50079360           0.84066400
   -10.22195840          -5.48553440           0.85163120
   -10.19859280          -5.47647440           0.85210800
   -10.18905600          -5.47456720           0.86545920
   -10.14614080          -5.45215600           0.88071840
   -10.12420640          -5.46407680           0.87833440
   -10.10799440          -5.46503040           0.88787040
   -10.08749040          -5.45120240           0.89502320
   -10.10036480          -5.44261920           0.89454640
   -10.06078720          -5.42497600           0.91457360
   -10.04076000          -5.44309600           0.92458720
   -10.03360720          -5.43689760           0.91409680
   -10.02550160          -5.41973120           0.93460080
   -10.03265360          -5.42736080           0.93269360
   -10.01501120          -5.42306880           0.91981920
   -10.03789920          -5.40828720           0.95319760
   -10.04171360          -5.40542640           0.94986000
   -10.04314400          -5.40781040           0.94461440
   -10.05172720          -5.39827360           0.94890560
   -10.05506480          -5.39875040           0.94223040
   -10.08129120          -5.38921360           0.95033680
   -10.07938400          -5.37729280           0.95415120
   -10.08367520          -5.38396800           0.95272080
   -10.09798080          -5.37967680           0.94080000
   -10.10465600          -5.37490880           0.96893280
   -10.10942480          -5.38969040           0.97322480
   -10.11896160          -5.38921360           0.95701200
   -10.11228560          -5.37776960           0.97703920
   -10.09416560          -5.38253760           0.96511840
   -10.09559600          -5.37729280           0.97990000
   -10.07223120          -5.36537200           0.98705280
   -10.07700000          -5.37252400           0.97846960
   -10.10131840          -5.38110720           0.99325200
   -10.07366160          -5.37347760           1.00231200
   -10.05840320          -5.37776960           1.00278880
   -10.05411120          -5.38730640           0.99134480
   -10.04409760          -5.39541280           1.00708000
   -10.02168640          -5.40113440           1.00612640
   -10.00022880          -5.39398160           1.00994080
   -10.00070560          -5.39445840           1.02233920
    -9.97352640          -5.39588960           1.02376960
    -9.95540640          -5.39779680           1.02615360
    -9.94491600          -5.38921360           1.01518640
    -9.91106000          -5.39350480           1.02138480
    -9.88626480          -5.39016720           1.02758400
    -9.88674160          -5.38682960           1.01518640
    -9.88245040          -5.40161120           1.00660320
    -9.86862160          -5.38587600           1.03426000
    -9.88197360          -5.39875040           1.00326560
    -9.85622400          -5.40065760           0.99515920
    -9.85479360          -5.38730640           1.01709360
    -9.87386720          -5.40781040           0.95891920
    -9.84621040          -5.40733360           0.97131760
    -9.86528400          -5.41496240           0.97274800
    -9.86862160          -5.42926800           0.94318400
    -9.86909840          -5.43880480           0.94461440
    -9.89294080          -5.42926800           0.93698480
    -9.90200080          -5.43069840           0.93984640
    -9.91678240          -5.46026240           0.92744800
    -9.92345840          -5.46169280           0.92315680
    -9.93824000          -5.46646080           0.91266640
    -9.95922080          -5.47885920           0.89502320
    -9.99593760          -5.48887280           0.89550000
   -10.02073280          -5.50317760           0.89311600
   -10.04743600          -5.50985360           0.87928800
   -10.08605920          -5.50937680           0.87738000
   -10.11037840          -5.52749600           0.86355200
   -10.14995600          -5.56564320           0.83160400
   -10.15663120          -5.53655600           0.85067760
   -10.19954720          -5.52606560           0.84972400
   -10.26678080          -5.57279600           0.81968320
   -10.30015920          -5.55992160           0.84638560
   -10.37073120          -5.56802720           0.82492800
   -10.40506400          -5.58614720           0.79441040
   -10.44082640          -5.56373600           0.82778960
   -10.50376880          -5.57994880           0.79488720
   -10.52761040          -5.59473040           0.76341600
   -10.56528080          -5.58805440           0.76007840
   -10.61153440          -5.60045280           0.72288480
   -10.64586640          -5.60283680           0.71382560
   -10.68067520          -5.59949840           0.70285760
   -10.71739200          -5.59806800           0.67806240
   -10.74028000          -5.58757760           0.67043280
   -10.75840000          -5.59139280           0.68092320
   -10.77318160          -5.59759120           0.67615520
   -10.78128800          -5.58710080           0.64039200
   -10.80799120          -5.58757760           0.63562400
   -10.81180560          -5.58614720           0.64182320
   -10.80179200          -5.56278240           0.62513360
   -10.80989840          -5.56230560           0.63562400
   -10.81275920          -5.57279600           0.63848480
   -10.80894480          -5.56039840           0.63324000
   -10.80131520          -5.55753680           0.64706800
   -10.77127440          -5.54704640           0.64086880
   -10.74314080          -5.51939040           0.66280400
   -10.74600240          -5.52797280           0.67472480
   -10.71596160          -5.52415840           0.67377120
   -10.68639760          -5.49316400           0.70953360
   -10.66732400          -5.48934960           0.72288480
   -10.60867280          -5.48410400           0.74434320
   -10.57958640          -5.48124320           0.75912480
   -10.54143920          -5.47456720           0.77819840
   -10.49518560          -5.46169280           0.81205360
   -10.46562160          -5.46693840           0.82206720
   -10.40792480          -5.45310960           0.86116800
   -10.38456000          -5.43689760           0.88977840
   -10.33449200          -5.43069840           0.90265280
   -10.26773440          -5.41353200           0.93698480
   -10.25152240          -5.40924080           0.95891920
   -10.20669920          -5.41687040           0.98085440
   -10.18428800          -5.41305520           1.00183520
   -10.14232640          -5.38635280           1.01709360
   -10.09702720          -5.38444480           1.04045840
   -10.09654960          -5.40590320           1.05571760
   -10.04266720          -5.38158400           1.07812880
   -10.03646880          -5.38396800           1.08575840
   -10.04171360          -5.39922720           1.08337440
    -9.99593760          -5.36108000           1.12962720
   -10.00690480          -5.37347760           1.14679360
   -10.01262640          -5.39541280           1.13725680
    -9.99116880          -5.36870960           1.15633040
    -9.99641440          -5.36680240           1.17349600
   -10.00022880          -5.37061680           1.18207920
   -10.00070560          -5.36870960           1.17397280
   -10.01453360          -5.37157040           1.19209280
   -10.01024240          -5.37204720           1.20925920
   -10.01024240          -5.38063040           1.18350960
   -10.01310320          -5.38158400           1.19352320
   -10.01119600          -5.37347760           1.19733840
   -10.02311680          -5.38015360           1.17540320
   -10.01977920          -5.38778320           1.19161600
   -10.01644160          -5.39255120           1.18017200
   -10.01787200          -5.40542640           1.15776080
   -10.02025600          -5.40256480           1.16300560
   -10.01119600          -5.39684320           1.15489920
   -10.02502480          -5.41400880           1.12962720
   -10.01977920          -5.40828720           1.12533600
    -9.98592400          -5.38921360           1.13391840
    -9.99498400          -5.39827360           1.11436880
    -9.99212240          -5.40494880           1.10340080
    -9.99116880          -5.40161120           1.09386480
    -9.97543360          -5.39302800           1.07955920
    -9.95922080          -5.37872320           1.08098960
    -9.94682320          -5.37252400           1.07812880
    -9.91392160          -5.37157040           1.06143920
    -9.91821280          -5.36632560           1.04141200
    -9.91821280          -5.35058960           1.02806080
    -9.90200080          -5.34009920           1.01232560
    -9.88721840          -5.33771520           0.99897360
    -9.87291360          -5.32531760           0.96750240
    -9.85813120          -5.31864160           0.95319760
    -9.85002480          -5.31244240           0.93221680
    -9.84001120          -5.29193840           0.89025520
    -9.82856720          -5.28860080           0.88357920
    -9.83238240          -5.28287920           0.84018720
    -9.80854000          -5.25283840           0.80633200
    -9.80758640          -5.25093040           0.79202640
    -9.79948080          -5.23471840           0.75626400
    -9.78374480          -5.20277040           0.74148160
    -9.81807680          -5.22613520           0.69093680
    -9.79566560          -5.21564480           0.66518800
    -9.77563840          -5.18417360           0.66518800
    -9.79852640          -5.21278400           0.61178240
    -9.79232800          -5.21850560           0.59795360
    -9.78469840          -5.20992240           0.57983360
    -9.78851280          -5.22375120           0.54931680
    -9.79232800          -5.23138080           0.55742240
    -9.79471200          -5.23948640           0.52309040
    -9.79900400          -5.23424160           0.52166000
    -9.79566560          -5.24139440           0.51212320
    -9.79328160          -5.25522240           0.49018880
    -9.80567920          -5.23948640           0.51069280
    -9.82809040          -5.24759280           0.47731360
    -9.83047520          -5.26094400           0.47922160
    -9.83619680          -5.25712960           0.47683680
    -9.85384000          -5.25808320           0.46110160
    -9.86337680          -5.26618960           0.46157840
    -9.87434400          -5.27000400           0.45013440
    -9.89055600          -5.25569920           0.47922160
    -9.91916640          -5.27191200           0.43249120
    -9.92202720          -5.28335600           0.42724640
    -9.93394880          -5.26523600           0.44965760
    -9.96542000          -5.27763360           0.40435760
    -9.97448000          -5.28335600           0.42009360
    -9.98640080          -5.27715680           0.40006640
   -10.00022880          -5.28192560           0.38003920
   -10.01739520          -5.27715680           0.39434400
   -10.02359360          -5.27858720           0.36716480
   -10.01787200          -5.26809680           0.37097920
   -10.02502480          -5.27191200           0.38051600
