SERVICIO GEOLOGICO COLOMBIANO- RED NACIONAL DE ACELEROGRAFOS DE COLOMBIA
SISMO DE QUETAME (CUNDINAMARCA) 2008/05/24 19:20:44 ML=5.7
LATITUD DEL EVENTO(GRADOS): 4.4
LONGITUD DEL EVENTO(GRADOS): -73.813
PROFUNDIDAD DEL EVENTO (Km): .3
CODIGO DE LA ESTACION: CYOPA
Estacion:YOPAL Geol:ROCA Topo:PLANA
LATITUD DE LA ESTACION (GRADOS): 5.37
LONGITUD DE LA ESTACION (GRADOS): -72.416
DISTANCIA EPICENTRAL: 188.782 km
DISTANCIA HIPOCENTRAL: 188.782 km
INTERVALO DE MUESTREO (SEGUNDOS): 0.005
NUMERO DE DATOS: 5632
DURACION (SEGUNDOS): 28.16
UNIDADES: cm/s^2
TIPO DE EQUIPO: SSA
ESCALA MAXIMA (G): 1
CORRECCION DE LINEA BASE: LINEA BASE NO REMOVIDA
TIPO DE DATOS: NO CORREGIDO
         EW                  VER                  NS
[...]
    20.01953120           0.48828120           9.76562480
    20.01953120           0.48828120           9.76562480
    20.01953120           0.48828120           9.76562480
    20.01953120           0.48828120           9.76562480
    20.01953120           0.48828120           9.76562480
    20.01953120           0.48828120           9.76562480
    20.01953120           0.48828120           9.76562480
    20.01953120           0.48828120           9.76562480
    20.01953120           0.48828120           9.76562480
    20.01953120           0.48828120           9.76562480
    20.01953120           0.48828120           9.76562480
    20.01953120           0.48828120           9.76562480
    20.01953120           0.48828120           9.76562480
    20.50781240           0.48828120           9.76562480
    20.01953120           0.48828120           9.76562480
    20.01953120           0.48828120           9.76562480
    20.01953120           0.48828120           9.76562480
    20.01953120           0.48828120           9.76562480
    20.01953120           0.48828120           9.76562480
    20.01953120           0.48828120           9.76562480
    20.01953120           0.48828120           9.76562480
    20.01953120           0.48828120           9.76562480
    20.01953120           0.48828120           9.76562480
    20.01953120           0.48828120           9.76562480
    20.01953120           0.48828120           9.76562480
    20.01953120           0.00000000           9.76562480
    20.01953120           0.48828120           9.76562480
    20.01953120           0.48828120           9.76562480
    20.01953120           0.48828120           9.76562480
    20.01953120           0.48828120           9.76562480
    20.01953120           0.48828120           9.76562480
    20.01953120           0.48828120           9.76562480
    20.01953120           0.48828120           9.76562480
    20.01953120           0.48828120           9.76562480
    20.01953120           0.48828120           9.76562480
    20.01953120           0.48828120           9.76562480
    20.01953120           0.48828120           9.76562480
    20.01953120           0.48828120           9.76562480
    20.01953120           0.48828120           9.76562480
    20.01953120           0.48828120           9.76562480
    20.01953120           0.48828120           9.76562480
    20.01953120           0.48828120           9.76562480
    20.01953120           0.48828120           9.76562480
    20.01953120           0.48828120           9.76562480
    20.01953120           0.48828120           9.76562480
    20.01953120           0.48828120           9.27734360
    20.01953120           0.48828120           9.27734360
    20.01953120           0.48828120           9.76562480
    20.01953120           0.48828120           9.76562480
    20.01953120           0.48828120           9.76562480
    20.01953120           0.48828120           9.76562480
    20.01953120           0.48828120           9.76562480
    20.01953120           0.48828120           9.76562480
    20.01953120           0.48828120           9.76562480
    20.01953120           0.48828120           9.76562480
    20.01953120           0.48828120           9.76562480
    20.01953120           0.48828120           9.27734360
    20.01953120           0.48828120           9.76562480
    20.01953120           0.48828120           9.76562480
    20.01953120           0.48828120           9.76562480
    20.01953120           0.48828120           9.76562480
    20.01953120           0.48828120           9.76562480
    20.01953120           0.48828120           9.76562480
    20.01953120           0.48828120           9.76562480
    20.01953120           0.48828120           9.76562480
    20.01953120           0.48828120           9.76562480
    20.01953120           0.48828120           9.76562480
    20.01953120           0.48828120           9.76562480
    20.01953120           0.48828120           9.76562480
    20.01953120           0.48828120           9.76562480
    20.01953120           0.48828120           9.76562480
    20.01953120           0.48828120           9.76562480
    20.01953120           0.48828120           9.76562480
    20.01953120           0.48828120           9.76562480
    20.01953120           0.48828120           9.76562480
    20.01953120           0.48828120           9.76562480
    20.01953120           0.48828120           9.76562480
    20.01953120           0.48828120           9.76562480
    20.01953120           0.48828120           9.76562480
    20.01953120           0.00000000           9.76562480
    20.01953120           0.00000000           9.76562480
    20.01953120           0.00000000           9.76562480
    20.01953120           0.00000000           9.76562480
    20.01953120           0.00000000           9.76562480
    20.01953120           0.00000000           9.76562480
    20.01953120           0.00000000           9.76562480
    20.01953120           0.00000000           9.76562480
    20.01953120           0.00000000           9.76562480
    20.01953120           0.00000000           9.76562480
    20.01953120           0.00000000           9.76562480
    20.01953120           0.00000000           9.76562480
    20.01953120           0.00000000           9.76562480
    20.01953120           0.48828120           9.76562480
    20.01953120           0.48828120           9.76562480
    20.01953120           0.48828120           9.76562480
    19.53125000           0.48828120           9.76562480
    20.01953120           0.48828120           9.76562480
    20.01953120           0.48828120           9.76562480
    20.01953120           0.48828120           9.76562480
    20.01953120           0.48828120          10.25390640
    20.01953120           0.48828120           9.76562480
    20.01953120           0.48828120           9.76562480
    20.01953120           0.48828120           9.76562480
    20.01953120           0.48828120          10.25390640
    20.01953120           0.48828120          10.25390640
    20.01953120           0.48828120          10.25390640
    20.01953120           0.48828120          10.25390640
    20.01953120           0.48828120          10.25390640
    20.01953120           0.48828120          10.25390640
    20.01953120           0.48828120          10.25390640
    20.01953120           0.48828120          10.25390640
    20.01953120           0.48828120          10.25390640
    20.01953120           0.48828120          10.25390640
    20.01953120           0.48828120          10.25390640
    20.01953120           0.48828120          10.25390640
    20.01953120           0.48828120          10.25390640
    20.01953120           0.48828120          10.25390640
    20.01953120           0.48828120          10.25390640
    20.01953120           0.48828120          10.25390640
    20.01953120           0.48828120          10.25390640
    20.01953120           0.48828120          10.25390640
    20.01953120           0.48828120          10.25390640
    20.01953120           0.48828120          10.25390640
    20.01953120           0.48828120          10.25390640
    20.01953120           0.48828120          10.25390640
    20.01953120           0.48828120          10.25390640
    20.01953120           0.48828120          10.25390640
    20.01953120           0.48828120          10.25390640
    20.01953120           0.48828120          10.25390640
    20.01953120           0.48828120          10.25390640
    20.01953120           0.48828120          10.25390640
    20.50781240           0.48828120          10.25390640
    20.50781240           0.48828120          10.25390640
    20.50781240           0.48828120           9.76562480
    20.50781240           0.48828120           9.76562480
    20.50781240           0.48828120           9.76562480
    20.50781240           0.48828120           9.76562480
    20.50781240           0.48828120           9.76562480
    20.50781240           0.48828120           9.76562480
    20.50781240           0.48828120           9.76562480
    20.50781240           0.48828120           9.76562480
    20.50781240           0.48828120           9.76562480
    20.50781240           0.48828120           9.76562480
    20.50781240           0.48828120           9.76562480
    20.50781240           0.48828120           9.76562480
    20.50781240           0.48828120           9.76562480
    20.50781240           0.48828120           9.76562480
    20.50781240           0.48828120           9.76562480
    20.50781240           0.48828120           9.76562480
    20.50781240           0.48828120           9.76562480
    20.50781240           0.48828120           9.76562480
    20.50781240           0.48828120           9.27734360
    20.50781240           0.48828120           9.76562480
    20.50781240           0.48828120           9.76562480
    20.50781240           0.48828120           9.27734360
    20.50781240           0.48828120           9.27734360
    20.50781240           0.48828120           9.27734360
    20.50781240           0.48828120           9.27734360
    20.50781240           0.48828120           9.27734360
    20.50781240           0.48828120           9.27734360
    20.01953120           0.48828120           9.27734360
    20.01953120           0.48828120           9.27734360
    20.01953120           0.48828120           9.27734360
    20.01953120           0.48828120           9.27734360
    20.01953120           0.48828120           9.27734360
    20.01953120           0.48828120           9.27734360
    20.01953120           0.48828120           9.27734360
    20.01953120           0.48828120           9.27734360
    20.01953120           0.48828120           9.27734360
    20.01953120           0.48828120           9.27734360
    20.01953120           0.48828120           9.27734360
    20.01953120           0.48828120           9.27734360
    20.01953120           0.48828120           9.27734360
    20.01953120           0.48828120           9.27734360
    20.01953120           0.00000000           9.27734360
    20.01953120           0.00000000           9.27734360
    20.01953120           0.48828120           9.27734360
    20.01953120           0.00000000           9.27734360
    20.01953120           0.00000000           9.27734360
    20.01953120           0.00000000           9.27734360
    20.01953120           0.00000000           9.27734360
    20.01953120           0.00000000           9.27734360
    20.01953120           0.00000000           9.27734360
    20.01953120           0.00000000           9.27734360
    20.01953120           0.00000000           9.27734360
    20.01953120           0.00000000           9.27734360
    20.01953120           0.00000000           9.27734360
    20.01953120           0.48828120           9.27734360
    20.01953120           0.48828120           9.27734360
    20.01953120           0.48828120           9.27734360
    20.01953120           0.48828120           9.27734360
    20.01953120           0.48828120           9.27734360
    20.01953120           0.48828120           9.27734360
    20.01953120           0.48828120           9.27734360
    20.01953120           0.97656240           9.27734360
    20.01953120           0.48828120           9.27734360
    20.01953120           0.48828120           9.27734360
    20.01953120           0.48828120           9.27734360
    20.01953120           0.48828120           9.27734360
    20.01953120           0.48828120           9.27734360
    20.01953120           0.48828120           9.27734360
    20.01953120           0.48828120           8.78906240
    20.01953120           0.48828120           9.27734360
    20.50781240           0.48828120           9.27734360
    20.50781240           0.48828120           9.27734360
    20.50781240           0.48828120           9.27734360
    20.50781240           0.48828120           9.27734360
    20.50781240           0.48828120           9.27734360
    20.50781240           0.48828120           9.27734360
    20.50781240           0.48828120           9.27734360
    20.50781240           0.48828120           9.27734360
    20.50781240           0.48828120           9.76562480
    20.50781240           0.48828120           9.76562480
    20.50781240           0.48828120           9.76562480
    20.50781240           0.48828120           9.76562480
    20.50781240           0.48828120           9.76562480
    20.50781240           0.00000000           9.76562480
    20.50781240           0.48828120           9.76562480
    20.50781240           0.00000000           9.76562480
    20.50781240           0.48828120          10.25390640
    20.50781240           0.48828120          10.25390640
    20.50781240           0.48828120          10.25390640
    20.50781240           0.48828120          10.74218760
    20.01953120           0.48828120          10.74218760
    20.01953120           0.48828120          10.74218760
    20.01953120           0.48828120          10.74218760
    20.01953120           0.48828120          11.23046880
    20.01953120           0.48828120          11.23046880
    20.01953120           0.48828120          11.23046880
    20.01953120           0.48828120          11.23046880
    20.01953120           0.00000000          11.23046880
    20.01953120           0.48828120          11.23046880
    20.01953120           0.48828120          11.71875000
    20.01953120           0.48828120          11.71875000
    20.01953120           0.48828120          11.71875000
    20.01953120           0.48828120          11.71875000
    20.01953120           0.48828120          11.71875000
    20.01953120           0.48828120          11.71875000
    20.01953120           0.48828120          11.71875000
    20.01953120           0.48828120          11.71875000
    20.01953120           0.48828120          11.71875000
    20.01953120           0.48828120          11.71875000
    20.01953120           0.48828120          11.71875000
    20.01953120           0.48828120          11.23046880
    20.01953120           0.48828120          11.23046880
    20.01953120           0.48828120          11.23046880
    20.01953120           0.48828120          10.74218760
    20.01953120           0.48828120          10.74218760
    20.01953120           0.48828120          10.74218760
    19.53125000           0.48828120          10.25390640
    19.53125000           0.00000000           9.76562480
    19.53125000           0.00000000           9.76562480
    19.53125000           0.48828120           9.76562480
    19.53125000           0.00000000           9.27734360
    19.53125000           0.48828120           9.27734360
    19.53125000           0.00000000           9.27734360
    19.53125000           0.48828120           9.27734360
    19.53125000           0.48828120           9.27734360
    19.53125000           0.48828120           9.27734360
    20.01953120           0.48828120           9.27734360
    19.53125000           0.48828120           9.27734360
    20.01953120           0.48828120           9.27734360
    20.01953120           0.48828120           9.27734360
    20.01953120           0.48828120           9.27734360
    20.01953120           0.48828120           9.27734360
    20.01953120           0.48828120           9.27734360
    20.01953120           0.48828120           9.27734360
    20.50781240           0.48828120           9.27734360
    20.50781240           0.48828120           9.27734360
    20.50781240           0.48828120           9.27734360
    20.50781240           0.48828120           9.27734360
    20.99609360           0.48828120           9.27734360
    20.99609360           0.48828120           9.27734360
    20.99609360           0.48828120           9.27734360
    20.99609360           0.48828120           9.76562480
    20.99609360           0.48828120           9.76562480
    20.99609360           0.48828120           9.76562480
    20.99609360           0.48828120           9.76562480
    20.99609360           0.48828120           9.76562480
    20.99609360           0.48828120           9.76562480
    20.99609360           0.48828120           9.76562480
    20.99609360           0.48828120           9.76562480
    20.99609360           0.48828120           9.76562480
    20.99609360           0.48828120           9.76562480
    20.99609360           0.48828120           9.76562480
    20.99609360           0.48828120           9.76562480
    20.99609360           0.48828120           9.76562480
    20.99609360           0.48828120           9.76562480
    20.50781240           0.48828120           9.76562480
    20.50781240           0.48828120           9.76562480
    20.50781240           0.48828120           9.76562480
    20.50781240           0.48828120           9.76562480
    20.50781240           0.48828120           9.76562480
    20.50781240           0.48828120           9.76562480
    20.50781240           0.48828120           9.76562480
    20.01953120           0.48828120           9.76562480
    20.01953120           0.48828120           9.76562480
    20.01953120           0.48828120           9.76562480
    20.01953120           0.48828120           9.76562480
    20.01953120           0.48828120           9.76562480
    20.01953120           0.48828120           9.76562480
    20.01953120           0.48828120           9.76562480
    20.01953120           0.48828120           9.76562480
    20.01953120           0.48828120           9.27734360
    20.01953120           0.48828120           9.27734360
    20.01953120           0.48828120           9.27734360
    20.01953120           0.48828120           9.27734360
    20.01953120           0.48828120           9.27734360
    20.01953120           0.48828120           9.27734360
    20.01953120           0.48828120           9.27734360
    20.01953120           0.00000000           9.27734360
    20.01953120           0.00000000           9.27734360
    20.01953120           0.48828120           9.27734360
    20.01953120           0.00000000           9.27734360
    20.01953120           0.00000000           9.27734360
    20.01953120           0.00000000           9.27734360
    20.01953120           0.48828120           9.27734360
    20.01953120           0.48828120           9.27734360
    20.01953120           0.48828120           9.27734360
    20.01953120           0.48828120           9.27734360
    20.01953120           0.48828120           9.27734360
    20.50781240           0.48828120           9.27734360
    20.50781240           0.48828120           9.27734360
    20.50781240           0.48828120           9.27734360
    20.50781240           0.48828120           9.27734360
    20.50781240           0.48828120           9.76562480
    20.99609360           0.48828120           9.76562480
    20.99609360           0.48828120           9.76562480
    20.99609360           0.48828120           9.76562480
    20.99609360           0.48828120          10.25390640
    20.99609360           0.48828120          10.25390640
    20.99609360           0.48828120          10.25390640
