SERVICIO GEOLOGICO COLOMBIANO- RED NACIONAL DE ACELEROGRAFOS DE COLOMBIA
SISMO DE QUETAME (CUNDINAMARCA) 2008/05/24 19:20:44 ML=5.7
LATITUD DEL EVENTO(GRADOS): 4.4
LONGITUD DEL EVENTO(GRADOS): -73.813
PROFUNDIDAD DEL EVENTO (Km): .3
CODIGO DE LA ESTACION: CTRUJ
Estacion:TRUJILLO Geol:ROCA Topo:ONDULADA
LATITUD DE LA ESTACION (GRADOS): 4.219
LONGITUD DE LA ESTACION (GRADOS): -76.322
DISTANCIA EPICENTRAL: 279.223 km
DISTANCIA HIPOCENTRAL: 279.223 km
INTERVALO DE MUESTREO (SEGUNDOS): 0.005
NUMERO DE DATOS: 7200
DURACION (SEGUNDOS): 36
UNIDADES: cm/s^2
TIPO DE EQUIPO: ETNA
ESCALA MAXIMA (G): 2
CORRECCION DE LINEA BASE: LINEA BASE NO REMOVIDA
TIPO DE DATOS: NO CORREGIDO
         EW                  VER                  NS
[...]
     6.35385520           2.46429440          -1.49011600
     6.36148480           2.50148800          -1.45006160
     6.37435920           2.49767280          -1.41000720
     6.35623920           2.49433520          -1.38425840
     6.35004080           2.50768640          -1.37042960
     6.36577600           2.51770000          -1.34563440
     6.36529920           2.51483920          -1.32751440
     6.37531280           2.50816320          -1.31988560
     6.38389600           2.53438960          -1.31607040
     6.38914080           2.53295920          -1.30844080
     6.40296960           2.52151520          -1.30939520
     6.41584400           2.54297280          -1.32846800
     6.43110240           2.54201920          -1.33514400
     6.43539440           2.51388560          -1.33609760
     6.47020320           2.50720960          -1.33609760
     6.48307840           2.50148800          -1.34229680
     6.47926320           2.46858560          -1.35421760
     6.50596640           2.45142000          -1.35517120
     6.50739680           2.44140640          -1.36137040
     6.51979440           2.42090240          -1.36566160
     6.51502640           2.39038480          -1.37138400
     6.51884080           2.37751040          -1.37186080
     6.53123840           2.36892720          -1.36566160
     6.52313200           2.32982640          -1.37710560
     6.54458960           2.33221040          -1.37042960
     6.53505360           2.34317760          -1.38473520
     6.53839120           2.32982640          -1.41191520
     6.55078880           2.32410400          -1.41716000
     6.53505360           2.31266000          -1.44243280
     6.54411280           2.29930880          -1.46579760
     6.54172880           2.29692480          -1.48868560
     6.54506720           2.30216960          -1.51157360
     6.54745120           2.27785120          -1.54209120
     6.53791440           2.25591680          -1.58309920
     6.54029840           2.26020800          -1.61170960
     6.51836400           2.24256480          -1.64651840
     6.51264160           2.21347840          -1.67179120
     6.51359520           2.21061680          -1.69181840
     6.48927680           2.22110720          -1.71422960
     6.48117040           2.19678880          -1.73664080
     6.46972640           2.17390080          -1.74760800
     6.45446800           2.17771520          -1.74379360
     6.45017600           2.16484080          -1.75046960
     6.43396400           2.14958160          -1.73616400
     6.39915440           2.14004480          -1.72853440
     6.38008080           2.14147600          -1.72138240
     6.36005440           2.14195280          -1.70040160
     6.33907280           2.13050880          -1.70040160
     6.33144400           2.14576720          -1.67322160
     6.31284720           2.14719760          -1.64508800
     6.30950960           2.14004480          -1.62506080
     6.29282000           2.16960880          -1.59406640
     6.28757440           2.16960880          -1.57403920
     6.29711120           2.16579440          -1.54495200
     6.27756080           2.19964960          -1.52206400
     6.27279280           2.20203360          -1.50442160
     6.27231600           2.19011280          -1.47056560
     6.27374640           2.20346480          -1.44672400
     6.26897840           2.21967680          -1.43289600
     6.27803840           2.22635280          -1.41096080
     6.28376000           2.21729280          -1.40953040
     6.26564000           2.23302880          -1.40094720
     6.27517680           2.24876400          -1.39141120
     6.27756080           2.22301520          -1.39951680
     6.27708400           2.24447280          -1.38235120
     6.29138960           2.26116160          -1.38187440
     6.28662080           2.23684320          -1.39999360
     6.27613040           2.25353280          -1.39999360
     6.29377360           2.26974480          -1.39474880
     6.30617120           2.24924080          -1.40619280
     6.31284720           2.23588960          -1.41716000
     6.33192080           2.25400960          -1.42288240
     6.33287440           2.24685680          -1.45149200
     6.35576240           2.22778320          -1.46389040
     6.38055840           2.24733360          -1.46865840
     6.38484960           2.25544000          -1.50251360
     6.40153920           2.24542640          -1.51109680
     6.42681120           2.24876400          -1.50489840
     6.46114320           2.27689760          -1.51777280
     6.47211040           2.26497680          -1.53398480
     6.48546240           2.27022160          -1.54447520
     6.53505360           2.34270080          -1.52540240
     6.54458960           2.34842320          -1.53398480
     6.54363600           2.34603920          -1.54399840
     6.57796880           2.37989440          -1.52254080
     6.58607520           2.39467600          -1.52206400
     6.58512080           2.39181520          -1.51538880
     6.59990320           2.40993520          -1.51443520
     6.59465760           2.43425360          -1.49965280
     6.58607520           2.42137920          -1.48677840
     6.58464400           2.43949920          -1.48630160
     6.57415360           2.46286400          -1.47914880
     6.57033920           2.45904960          -1.47390400
     6.55746480           2.45571120          -1.47962560
     6.53076160           2.48575200          -1.48868560
     6.51264160           2.50864000          -1.47056560
     6.49166080           2.50816320          -1.48534800
     6.47115680           2.53009760          -1.49774560
     6.45923600           2.54583360          -1.50632880
     6.43968560           2.56109200          -1.54972080
     6.40726080           2.57158240          -1.56402560
     6.40153920           2.59971600          -1.56354880
     6.39534000           2.62689600          -1.58691440
     6.36720640           2.62212720          -1.61886240
     6.36291520           2.61878960          -1.64318080
     6.35576240           2.62689600          -1.66463840
     6.34431840           2.63786320          -1.68371200
     6.34193440           2.64740000          -1.70373920
     6.34098080           2.66408960          -1.72281280
     6.34193440           2.64120080          -1.73568720
     6.34431840           2.64692320          -1.73616400
     6.35814640           2.68173200          -1.74045600
     6.35337840           2.67267200          -1.75046960
     6.35290160           2.68459360          -1.75857520
     6.37388240           2.70175920          -1.75571440
     6.36911360           2.70748160          -1.75523760
     6.37435920           2.70414320          -1.77145040
     6.38246560           2.71224960          -1.76620480
     6.38198880           2.72846240          -1.77574160
     6.39104880           2.70509680          -1.79100000
     6.39343280           2.68697760          -1.79910640
     6.41250640           2.69842160          -1.82104080
     6.40964480           2.67839440          -1.83010080
     6.40440000           2.62928000          -1.85394320
     6.41441360           2.63357200          -1.88112240
     6.41250640           2.62689600          -1.89828880
     6.41679760           2.58731840          -1.91259360
     6.41822800           2.58159600          -1.92737600
     6.42108880           2.57062880          -1.94120400
     6.41918160           2.54869440          -1.94883360
     6.42442720           2.53248240          -1.96695360
     6.43110240           2.53963440          -1.97172160
     6.43348720           2.53248240          -1.96933760
     6.44063920           2.49576560          -1.97601280
     6.43825520           2.50625600          -1.96361520
     6.43777840           2.50291840          -1.95217120
     6.44636160           2.46143360          -1.93214400
     6.45542160           2.47287760          -1.89352000
     6.45780560           2.47716880          -1.88684480
     6.46066640           2.44903600          -1.86061840
     6.45542160           2.44808160          -1.81961040
     6.45589840           2.44665120          -1.79243120
     6.46495840           2.43330000          -1.75523760
     6.46018960           2.41851840          -1.74188640
     6.45971280           2.42137920          -1.71899760
     6.46305120           2.42614720          -1.69849360
     6.45542160           2.40564320          -1.68228160
     6.45685200           2.40707360          -1.65510160
     6.45494480           2.41565680          -1.65844000
     6.44111600           2.39896800          -1.65987040
     6.44636160           2.39849120          -1.65748560
     6.45494480           2.41899520          -1.65510160
     6.45637520           2.40516640          -1.65700880
     6.46018960           2.37989440          -1.67036080
     6.47306480           2.40755120          -1.66416160
     6.48498560           2.41613360          -1.67226800
     6.48021680           2.38895440          -1.69324880
     6.48450880           2.39849120          -1.69801680
     6.49166080           2.39992160          -1.69944800
     6.49213760           2.39229200          -1.70135520
     6.49356880           2.39610640          -1.70993840
     6.50405920           2.39801440          -1.70707680
     6.50835040           2.39610640          -1.72615040
     6.51407280           2.38418560          -1.76096000
     6.53600720           2.40516640          -1.75619120
     6.53982160           2.41994880          -1.76286720
     6.53648400           2.40039840          -1.78050960
     6.53219200           2.41136560          -1.79529200
     6.53505360           2.42328640          -1.81198160
     6.52790080           2.39515280          -1.82580960
     6.51073440           2.39276880          -1.85012800
     6.50644320           2.40230560          -1.87110880
     6.49547600           2.37131120          -1.89352000
     6.49166080           2.35509840          -1.91068640
     6.48117040           2.34937680          -1.93262080
     6.45971280           2.33411760          -1.95407840
     6.43968560           2.30836880          -1.96933760
     6.44445440           2.28500400          -1.98078160
     6.44779200           2.29549440          -1.98030480
     6.43253360           2.27451360          -2.00033200
     6.44874560           2.26926800          -2.00557680
     6.45494480           2.28166560          -1.99699440
     6.46305120           2.25877760          -2.00128560
     6.49976720           2.26783760          -1.99747120
     6.50978080           2.27832800          -1.98268880
     6.52170160           2.27308240          -1.97649040
     6.55841840           2.26926800          -1.99747120
     6.58416720           2.27975840          -1.98221200
     6.60800960           2.28548080          -1.97267520
     6.65235520           2.26450000          -1.99508640
     6.68334960           2.26402320          -1.97839760
     6.68907200           2.27022160          -1.98411920
     6.71291360           2.26450000          -1.99508640
     6.73008000           2.25973120          -1.99937840
     6.75392160           2.27117520          -2.01940560
     6.77061120           2.27403680          -2.02178960
     6.74819920           2.26545360          -2.02417360
     6.76965680           2.28548080          -2.01988240
     6.77251840           2.30407680          -2.02941920
     6.75773600           2.30789200          -2.03895600
     6.76679600           2.32744240          -2.05135360
     6.75153760           2.36368160          -2.06327440
     6.75058400           2.38323200          -2.03895600
     6.73675520           2.39658320          -2.03657120
     6.72817200           2.44140640          -2.02941920
     6.73151040           2.47955360          -1.99508640
     6.70194640           2.48193760          -1.97267520
     6.68573360           2.51007120          -1.95217120
     6.66904480           2.55346320          -1.92022320
     6.63948080           2.55394000          -1.87778480
     6.62183760           2.56347680          -1.84345280
     6.59132000           2.60305440          -1.80053680
     6.55174240           2.62165040          -1.75762160
     6.52980800           2.63309440          -1.71089200
     6.50930400           2.66981120          -1.65510160
     6.47640240           2.70318960          -1.61314000
     6.44302400           2.70700480          -1.56116480
     6.42108880           2.72464720          -1.50871280
     6.40440000           2.76184080          -1.46579760
     6.38866400           2.76756320          -1.43432640
     6.38151200           2.78902080          -1.38092080
     6.37722000           2.82716720          -1.31797760
     6.37245200           2.81476960          -1.29175200
     6.37674320           2.83193600          -1.23548480
     6.39057120           2.85911600          -1.18350960
     6.40392320           2.84957920          -1.14297840
     6.42252000           2.84194960          -1.09052640
     6.45446800           2.84814800          -1.05953200
     6.47974000           2.86483760          -1.01852400
     6.50978080           2.84624080          -0.98133120
     6.54602080           2.84481040          -0.96178080
     6.58130640           2.85148640          -0.93460080
     6.61373120           2.82859840          -0.92554080
     6.63757360           2.81763040          -0.94270720
     6.67190560           2.82526000          -0.94652160
     6.69813120           2.81429280          -0.95891920
     6.72578800           2.77137760          -0.98562240
     6.75535200           2.75707280          -1.02758400
     6.76345840           2.74801280          -1.06716160
     6.78396240           2.72321680          -1.10101680
     6.78300880           2.68888480          -1.16014480
     6.77013360           2.68077840          -1.21116640
     6.77490240           2.66933440          -1.27077120
     6.75725920           2.63404880          -1.33466720
     6.73818560           2.64406240          -1.39951680
     6.71100640           2.62451200          -1.44815440
     6.67142880           2.60162320          -1.47724160
     6.64186480           2.61259040          -1.53207760
     6.61277760           2.61306800          -1.57928480
     6.57844560           2.58970240          -1.62172320
     6.54220560           2.56109200          -1.64985680
     6.49976720           2.56538400          -1.67369840
     6.45971280           2.54249600          -1.70040160
     6.42299680           2.51626960          -1.71375280
     6.37292880           2.53629680          -1.72805760
     6.35194800           2.52389920          -1.73902480
     6.32953680           2.47764560          -1.75905200
     6.29138960           2.47955360          -1.76382080
     6.26420960           2.47621520          -1.76715840
     6.22844720           2.44426720          -1.78480160
     6.21891040           2.44283680          -1.79100000
     6.22081760           2.45046640          -1.80101360
     6.20555840           2.41327280          -1.82771680
     6.20269760           2.37607920          -1.85823440
     6.21414160           2.39419920          -1.86157200
     6.20794320           2.37417200          -1.87969200
     6.20412800           2.32601200          -1.90639520
     6.22749360           2.30693840          -1.92546880
     6.22987760           2.29692480          -1.95789360
     6.22606240           2.25973120          -1.96361520
     6.24465920           2.22110720          -1.97219840
     6.24322880           2.23493600          -1.98459600
     6.25514960           2.20537200          -1.98316560
     6.25991840           2.16341040          -1.97601280
     6.24036800           2.18248400          -1.95503200
     6.25658000           2.17294720          -1.95407840
     6.25228880           2.15768800          -1.93929680
     6.23703040           2.17437760          -1.89971920
     6.22940080           2.17390080          -1.87730800
     6.21128080           2.17008560          -1.85012800
     6.20555840           2.18391440          -1.82533280
     6.19030000           2.20632560          -1.81055040
     6.18028640           2.21681600          -1.77049600
     6.17361040           2.22063040          -1.73521040
     6.17790240           2.25639360          -1.70803040
     6.18410080           2.27260560          -1.67131440
     6.16788880           2.25591680          -1.64842640
     6.17122640           2.28023520          -1.61981600
     6.17694880           2.30026240          -1.59597360
     6.18505440           2.29167920          -1.58739120
     6.19697600           2.30216960          -1.56259520
     6.20746640           2.31122960          -1.54733680
     6.22272480           2.31266000          -1.55162800
     6.22892400           2.30312320          -1.54686000
     6.25133520           2.31313680          -1.52635600
     6.27279280           2.32076640          -1.51443520
     6.29234320           2.29692480          -1.52254080
     6.31618480           2.30598480          -1.50918960
     6.33096720           2.30836880          -1.49583840
     6.33716560           2.30407680          -1.50156000
     6.34670240           2.30264640          -1.49297680
     6.37483600           2.29930880          -1.47676480
     6.36148480           2.29597120          -1.47819520
     6.35623920           2.26354560          -1.48200960
     6.38151200           2.27355920          -1.47008880
     6.38198880           2.27165200          -1.47676480
     6.38055840           2.22921360          -1.47676480
     6.37912720           2.23302880          -1.46961200
     6.37722000           2.23112080          -1.47676480
     6.37054480           2.20394160          -1.48296320
     6.37435920           2.20918640          -1.48200960
     6.36768320           2.22110720          -1.48820880
     6.35194800           2.20060320          -1.50871280
     6.36482240           2.19869600          -1.51109680
     6.36959040           2.21395520          -1.50299040
     6.36339200           2.20060320          -1.49011600
     6.36243840           2.18772880          -1.48820880
     6.35766960           2.21395520          -1.48010240
     6.36291520           2.21681600          -1.45483040
     6.36196160           2.18963600          -1.44672400
     6.35957680           2.21729280          -1.42288240
     6.37340560           2.23493600          -1.39284160
     6.37626640           2.22539920          -1.36709200
     6.38294240           2.23541280          -1.34038960
     6.37626640           2.24161120          -1.32751440
     6.37483600           2.23827360          -1.30748720
     6.40869120           2.23016720          -1.28507600
     6.41202960           2.25162480          -1.26934080
     6.42442720           2.27022160          -1.26171120
     6.44588480           2.25305520          -1.27029440
     6.45208320           2.27212880          -1.27887760
     6.47926320           2.29930880          -1.28984480
