SERVICIO GEOLOGICO COLOMBIANO- RED NACIONAL DE ACELEROGRAFOS DE COLOMBIA
SISMO DE QUETAME (CUNDINAMARCA) 2008/05/24 19:20:44 ML=5.7
LATITUD DEL EVENTO(GRADOS): 4.4
LONGITUD DEL EVENTO(GRADOS): -73.813
PROFUNDIDAD DEL EVENTO (Km): .3
CODIGO DE LA ESTACION: CIBA1
Estacion:IBAGUE, INGEOMINAS Geol:SUELO Topo:ONDULADA
LATITUD DE LA ESTACION (GRADOS): 4.447
LONGITUD DE LA ESTACION (GRADOS): -75.235
DISTANCIA EPICENTRAL: 157.928 km
DISTANCIA HIPOCENTRAL: 157.928 km
INTERVALO DE MUESTREO (SEGUNDOS): 0.005
NUMERO DE DATOS: 12544
DURACION (SEGUNDOS): 62.72
UNIDADES: cm/s^2
TIPO DE EQUIPO: SSA
ESCALA MAXIMA (G): 2
CORRECCION DE LINEA BASE: LINEA BASE NO REMOVIDA
TIPO DE DATOS: NO CORREGIDO
         EW                  VER                  NS
[...]
    12.69531280          -2.92968720           2.92968720
    13.67187520          -2.92968720           2.92968720
    13.67187520          -1.95312480           2.92968720
    14.64843760          -2.92968720           2.92968720
    14.64843760          -2.92968720           3.90624960
    14.64843760          -2.92968720           3.90624960
    14.64843760          -2.92968720           3.90624960
    14.64843760          -2.92968720           3.90624960
    15.62500000          -2.92968720           3.90624960
    14.64843760          -2.92968720           3.90624960
    15.62500000          -2.92968720           3.90624960
    14.64843760          -2.92968720           2.92968720
    14.64843760          -2.92968720           2.92968720
    15.62500000          -1.95312480           2.92968720
    14.64843760          -2.92968720           2.92968720
    15.62500000          -1.95312480           2.92968720
    15.62500000          -1.95312480           2.92968720
    15.62500000          -1.95312480           2.92968720
    15.62500000          -1.95312480           2.92968720
    16.60156240          -1.95312480           2.92968720
    16.60156240          -1.95312480           2.92968720
    16.60156240          -0.97656240           2.92968720
    16.60156240          -0.97656240           2.92968720
    16.60156240          -1.95312480           2.92968720
    16.60156240          -1.95312480           1.95312480
    16.60156240          -1.95312480           1.95312480
    16.60156240          -1.95312480           1.95312480
    17.57812480          -2.92968720           1.95312480
    17.57812480          -2.92968720           1.95312480
    17.57812480          -2.92968720           1.95312480
    17.57812480          -2.92968720           1.95312480
    18.55468720          -2.92968720           1.95312480
    17.57812480          -3.90624960           0.97656240
    16.60156240          -4.88281280           0.97656240
    16.60156240          -4.88281280           0.97656240
    15.62500000          -4.88281280           0.97656240
    15.62500000          -4.88281280           0.97656240
    14.64843760          -4.88281280           0.97656240
    13.67187520          -4.88281280           1.95312480
    12.69531280          -4.88281280           1.95312480
    12.69531280          -4.88281280           1.95312480
    12.69531280          -3.90624960           1.95312480
    12.69531280          -3.90624960           1.95312480
    12.69531280          -3.90624960           2.92968720
    12.69531280          -3.90624960           2.92968720
    12.69531280          -3.90624960           2.92968720
    12.69531280          -3.90624960           2.92968720
    12.69531280          -3.90624960           1.95312480
    12.69531280          -3.90624960           1.95312480
    12.69531280          -3.90624960           0.97656240
    12.69531280          -3.90624960           0.97656240
    13.67187520          -3.90624960           0.97656240
    13.67187520          -3.90624960           0.97656240
    13.67187520          -3.90624960           0.97656240
    13.67187520          -3.90624960           0.00000000
    13.67187520          -2.92968720           0.00000000
    13.67187520          -2.92968720           0.00000000
    13.67187520          -2.92968720           0.00000000
    13.67187520          -2.92968720           0.97656240
    13.67187520          -2.92968720           0.97656240
    13.67187520          -2.92968720           0.97656240
    13.67187520          -2.92968720           1.95312480
    13.67187520          -2.92968720           2.92968720
    12.69531280          -2.92968720           2.92968720
    12.69531280          -2.92968720           2.92968720
    12.69531280          -2.92968720           3.90624960
    12.69531280          -1.95312480           3.90624960
    11.71875040          -1.95312480           3.90624960
    11.71875040          -1.95312480           3.90624960
    11.71875040          -1.95312480           3.90624960
    10.74218720          -1.95312480           3.90624960
    10.74218720          -1.95312480           3.90624960
    10.74218720          -2.92968720           3.90624960
    10.74218720          -2.92968720           3.90624960
    10.74218720          -2.92968720           3.90624960
     9.76562480          -2.92968720           3.90624960
     9.76562480          -2.92968720           3.90624960
     9.76562480          -2.92968720           3.90624960
     9.76562480          -3.90624960           3.90624960
     9.76562480          -3.90624960           3.90624960
     9.76562480          -3.90624960           3.90624960
     9.76562480          -3.90624960           3.90624960
     9.76562480          -3.90624960           3.90624960
    10.74218720          -3.90624960           3.90624960
    10.74218720          -3.90624960           3.90624960
    10.74218720          -3.90624960           3.90624960
    10.74218720          -3.90624960           3.90624960
    10.74218720          -3.90624960           2.92968720
    10.74218720          -3.90624960           2.92968720
    10.74218720          -3.90624960           2.92968720
    10.74218720          -3.90624960           1.95312480
    10.74218720          -3.90624960           1.95312480
    10.74218720          -3.90624960           0.97656240
    10.74218720          -4.88281280           0.97656240
     9.76562480          -4.88281280           0.97656240
     9.76562480          -4.88281280           0.97656240
     9.76562480          -4.88281280           0.97656240
     9.76562480          -4.88281280           0.97656240
     8.78906240          -4.88281280           0.97656240
     8.78906240          -4.88281280           0.97656240
     8.78906240          -4.88281280           0.97656240
     8.78906240          -3.90624960           0.97656240
     7.81250000          -3.90624960           0.97656240
     8.78906240          -3.90624960           0.97656240
     8.78906240          -3.90624960           0.97656240
     8.78906240          -3.90624960           1.95312480
     8.78906240          -3.90624960           1.95312480
     8.78906240          -2.92968720           1.95312480
     9.76562480          -3.90624960           1.95312480
    10.74218720          -3.90624960           2.92968720
    11.71875040          -3.90624960           2.92968720
    12.69531280          -3.90624960           2.92968720
    13.67187520          -4.88281280           2.92968720
    13.67187520          -4.88281280           3.90624960
    14.64843760          -4.88281280           3.90624960
    14.64843760          -4.88281280           4.88281280
    14.64843760          -4.88281280           4.88281280
    13.67187520          -3.90624960           4.88281280
    13.67187520          -3.90624960           5.85937520
    13.67187520          -3.90624960           5.85937520
    12.69531280          -3.90624960           5.85937520
    12.69531280          -2.92968720           5.85937520
    12.69531280          -2.92968720           4.88281280
    12.69531280          -2.92968720           4.88281280
    12.69531280          -2.92968720           4.88281280
    13.67187520          -2.92968720           3.90624960
    13.67187520          -2.92968720           3.90624960
    14.64843760          -2.92968720           2.92968720
    14.64843760          -2.92968720           2.92968720
    14.64843760          -2.92968720           1.95312480
    14.64843760          -2.92968720           1.95312480
    14.64843760          -2.92968720           1.95312480
    14.64843760          -3.90624960           0.97656240
    14.64843760          -3.90624960           0.00000000
    14.64843760          -3.90624960           0.00000000
    14.64843760          -3.90624960          -0.97656240
    14.64843760          -3.90624960          -0.97656240
    13.67187520          -3.90624960          -0.97656240
    13.67187520          -3.90624960          -0.97656240
    13.67187520          -3.90624960          -0.97656240
    13.67187520          -3.90624960          -0.97656240
    13.67187520          -3.90624960          -0.97656240
    12.69531280          -3.90624960          -0.97656240
    13.67187520          -3.90624960          -0.97656240
    13.67187520          -3.90624960          -0.97656240
    13.67187520          -3.90624960          -0.97656240
    13.67187520          -3.90624960          -0.97656240
    13.67187520          -3.90624960           0.00000000
    13.67187520          -3.90624960           0.00000000
    14.64843760          -3.90624960           0.00000000
    14.64843760          -4.88281280           0.00000000
    14.64843760          -4.88281280           0.00000000
    14.64843760          -4.88281280           0.00000000
    13.67187520          -4.88281280           0.97656240
    13.67187520          -4.88281280           0.97656240
    13.67187520          -4.88281280           0.97656240
    13.67187520          -3.90624960           0.97656240
    13.67187520          -3.90624960           0.97656240
    13.67187520          -3.90624960           0.97656240
    13.67187520          -3.90624960           0.97656240
    13.67187520          -3.90624960           0.97656240
    13.67187520          -3.90624960           0.97656240
    13.67187520          -3.90624960           0.97656240
    14.64843760          -2.92968720           0.97656240
    14.64843760          -2.92968720           0.97656240
    14.64843760          -2.92968720           0.97656240
    14.64843760          -2.92968720           1.95312480
    14.64843760          -2.92968720           0.97656240
    14.64843760          -3.90624960           0.97656240
    14.64843760          -3.90624960           0.97656240
    14.64843760          -3.90624960           0.97656240
    14.64843760          -2.92968720           1.95312480
    14.64843760          -3.90624960           0.97656240
    14.64843760          -2.92968720           1.95312480
    14.64843760          -2.92968720           1.95312480
    14.64843760          -2.92968720           1.95312480
    14.64843760          -1.95312480           1.95312480
    13.67187520          -1.95312480           1.95312480
    13.67187520          -1.95312480           1.95312480
    12.69531280          -1.95312480           1.95312480
    12.69531280          -1.95312480           1.95312480
    12.69531280          -1.95312480           1.95312480
    12.69531280          -2.92968720           1.95312480
    11.71875040          -2.92968720           1.95312480
    11.71875040          -2.92968720           1.95312480
    12.69531280          -2.92968720           1.95312480
    12.69531280          -2.92968720           0.97656240
    12.69531280          -2.92968720           0.97656240
    13.67187520          -2.92968720           0.97656240
    13.67187520          -2.92968720           0.97656240
    13.67187520          -1.95312480           0.97656240
    13.67187520          -1.95312480           0.97656240
    13.67187520          -1.95312480           0.97656240
    13.67187520          -1.95312480           0.97656240
    13.67187520          -1.95312480           0.97656240
    13.67187520          -1.95312480           0.97656240
    13.67187520          -1.95312480           0.97656240
    13.67187520          -2.92968720           0.97656240
    13.67187520          -2.92968720           0.97656240
    12.69531280          -2.92968720           0.97656240
    12.69531280          -2.92968720           1.95312480
    12.69531280          -2.92968720           1.95312480
    12.69531280          -2.92968720           2.92968720
    12.69531280          -2.92968720           2.92968720
    12.69531280          -2.92968720           3.90624960
    12.69531280          -2.92968720           3.90624960
    13.67187520          -1.95312480           4.88281280
    13.67187520          -2.92968720           4.88281280
    14.64843760          -2.92968720           4.88281280
    15.62500000          -2.92968720           4.88281280
    16.60156240          -2.92968720           4.88281280
    16.60156240          -2.92968720           4.88281280
    16.60156240          -2.92968720           3.90624960
    16.60156240          -2.92968720           3.90624960
    17.57812480          -2.92968720           2.92968720
    17.57812480          -2.92968720           2.92968720
    17.57812480          -2.92968720           2.92968720
    17.57812480          -2.92968720           2.92968720
    17.57812480          -2.92968720           2.92968720
    17.57812480          -2.92968720           3.90624960
    17.57812480          -2.92968720           3.90624960
    16.60156240          -2.92968720           4.88281280
    16.60156240          -2.92968720           4.88281280
    15.62500000          -2.92968720           4.88281280
    15.62500000          -2.92968720           5.85937520
    14.64843760          -2.92968720           5.85937520
    14.64843760          -2.92968720           6.83593760
    13.67187520          -2.92968720           6.83593760
    13.67187520          -2.92968720           7.81250000
    12.69531280          -2.92968720           7.81250000
    12.69531280          -2.92968720           7.81250000
    12.69531280          -2.92968720           8.78906240
    12.69531280          -2.92968720           7.81250000
    12.69531280          -2.92968720           7.81250000
    11.71875040          -2.92968720           7.81250000
    11.71875040          -2.92968720           6.83593760
    12.69531280          -2.92968720           6.83593760
    12.69531280          -2.92968720           5.85937520
    12.69531280          -2.92968720           5.85937520
    12.69531280          -2.92968720           4.88281280
    12.69531280          -2.92968720           4.88281280
    13.67187520          -1.95312480           4.88281280
    13.67187520          -1.95312480           4.88281280
    13.67187520          -1.95312480           3.90624960
    13.67187520          -1.95312480           3.90624960
    13.67187520          -1.95312480           3.90624960
    13.67187520          -1.95312480           3.90624960
    13.67187520          -1.95312480           3.90624960
    13.67187520          -1.95312480           3.90624960
    13.67187520          -1.95312480           3.90624960
    13.67187520          -1.95312480           2.92968720
    13.67187520          -1.95312480           2.92968720
    13.67187520          -1.95312480           2.92968720
    13.67187520          -1.95312480           2.92968720
    13.67187520          -1.95312480           2.92968720
    13.67187520          -1.95312480           2.92968720
    13.67187520          -1.95312480           2.92968720
    12.69531280          -1.95312480           2.92968720
    12.69531280          -1.95312480           2.92968720
    12.69531280          -1.95312480           2.92968720
    12.69531280          -1.95312480           2.92968720
    12.69531280          -1.95312480           2.92968720
    11.71875040          -2.92968720           2.92968720
    11.71875040          -2.92968720           2.92968720
    12.69531280          -2.92968720           2.92968720
    12.69531280          -2.92968720           2.92968720
    12.69531280          -2.92968720           2.92968720
    12.69531280          -2.92968720           2.92968720
    13.67187520          -2.92968720           2.92968720
    13.67187520          -2.92968720           2.92968720
    13.67187520          -1.95312480           2.92968720
    14.64843760          -1.95312480           2.92968720
    14.64843760          -2.92968720           2.92968720
    14.64843760          -2.92968720           2.92968720
    14.64843760          -2.92968720           1.95312480
    14.64843760          -2.92968720           1.95312480
    14.64843760          -2.92968720           1.95312480
    14.64843760          -2.92968720           2.92968720
    14.64843760          -2.92968720           2.92968720
    13.67187520          -2.92968720           1.95312480
    13.67187520          -2.92968720           1.95312480
    13.67187520          -2.92968720           2.92968720
    13.67187520          -2.92968720           2.92968720
    13.67187520          -1.95312480           2.92968720
    13.67187520          -1.95312480           2.92968720
    13.67187520          -1.95312480           2.92968720
    13.67187520          -1.95312480           2.92968720
    13.67187520          -1.95312480           2.92968720
    12.69531280          -2.92968720           1.95312480
    12.69531280          -2.92968720           1.95312480
    12.69531280          -2.92968720           1.95312480
    12.69531280          -2.92968720           1.95312480
    12.69531280          -2.92968720           0.97656240
    12.69531280          -2.92968720           0.97656240
    12.69531280          -2.92968720           0.97656240
    12.69531280          -2.92968720           0.97656240
    12.69531280          -2.92968720           0.00000000
    12.69531280          -2.92968720           0.00000000
    12.69531280          -3.90624960           0.00000000
    12.69531280          -3.90624960           0.00000000
    12.69531280          -3.90624960           0.00000000
    12.69531280          -3.90624960           0.00000000
    12.69531280          -3.90624960           0.97656240
    13.67187520          -4.88281280           0.97656240
    13.67187520          -4.88281280           0.97656240
    13.67187520          -4.88281280           0.97656240
    13.67187520          -4.88281280           0.97656240
    12.69531280          -4.88281280           1.95312480
    12.69531280          -4.88281280           1.95312480
    12.69531280          -4.88281280           1.95312480
    12.69531280          -4.88281280           1.95312480
    12.69531280          -3.90624960           1.95312480
    12.69531280          -4.88281280           1.95312480
    12.69531280          -3.90624960           2.92968720
    12.69531280          -3.90624960           2.92968720
    12.69531280          -3.90624960           2.92968720
    11.71875040          -3.90624960           1.95312480
    11.71875040          -3.90624960           1.95312480
    11.71875040          -3.90624960           1.95312480
    11.71875040          -3.90624960           0.97656240
    11.71875040          -3.90624960           0.97656240
    10.74218720          -3.90624960           0.97656240
    10.74218720          -4.88281280           0.00000000
    11.71875040          -4.88281280           0.00000000
    11.71875040          -4.88281280           0.00000000
    11.71875040          -4.88281280           0.00000000
    11.71875040          -3.90624960           0.00000000
    11.71875040          -3.90624960          -0.97656240
    11.71875040          -3.90624960          -0.97656240
    11.71875040          -3.90624960          -0.97656240
    11.71875040          -2.92968720          -0.97656240
