SERVICIO GEOLOGICO COLOMBIANO- RED NACIONAL DE ACELEROGRAFOS DE COLOMBIA
SISMO DE QUETAME (CUNDINAMARCA) 2008/05/24 19:20:44 ML=5.7
LATITUD DEL EVENTO(GRADOS): 4.4
LONGITUD DEL EVENTO(GRADOS): -73.813
PROFUNDIDAD DEL EVENTO (Km): .3
CODIGO DE LA ESTACION: CTUN2
Estacion:TUNJA, UPTC Geol:SUELO Topo:ONDULADA
LATITUD DE LA ESTACION (GRADOS): 5.55
LONGITUD DE LA ESTACION (GRADOS): -73.36
DISTANCIA EPICENTRAL: 137.197 km
DISTANCIA HIPOCENTRAL: 137.197 km
INTERVALO DE MUESTREO (SEGUNDOS): 0.005
NUMERO DE DATOS: 26000
DURACION (SEGUNDOS): 130
UNIDADES: cm/s^2
TIPO DE EQUIPO: ETNA
ESCALA MAXIMA (G): 2
CORRECCION DE LINEA BASE: LINEA BASE NO REMOVIDA
TIPO DE DATOS: NO CORREGIDO
         NS                  EW                  VER
[...]
    -2.31313680           8.82387200          -5.33151600
    -2.23398240           9.51051680          -5.30624400
    -2.16722480          10.11610000          -5.25856000
    -2.08663920          10.57338720          -5.23424160
    -2.08616240          11.00873920          -5.18131280
    -2.11954080          11.37399680          -5.08070000
    -2.12526320          11.53039920          -5.03110880
    -2.14529040          11.63721120          -4.99820720
    -2.14576720          11.72256480          -4.93764880
    -2.09331520          11.64579360          -4.91905200
    -1.92260720          11.50989520          -4.92334400
    -1.73282640          11.43217120          -4.93621840
    -1.43718720          11.24715840          -4.95719920
    -0.99039040          11.01160080          -5.00774400
    -0.50926240          10.83707840          -5.06496400
     0.05483600          10.63585280          -5.10740320
     0.71048720          10.38789760          -5.19037280
     1.43766400          10.10751760          -5.26332880
     2.15292000           9.85765440          -5.27811040
     2.92301200           9.51099360          -5.24330160
     3.70788560           9.11998720          -5.20706160
     4.48703760           8.78477120          -5.12456880
     5.27000400           8.35561760          -5.00440560
     6.06632240           7.84921680          -4.94098640
     6.86788560           7.34710720          -4.88424320
     7.61079760           6.83641440          -4.83226800
     8.42094400           6.22177120          -4.83465200
     9.16957840           5.59759120          -4.87518320
     9.85288640           5.03396960          -4.88615040
    10.50472240           4.41980400          -4.94384800
    11.09218560           3.79085520          -5.05828880
    11.58380480           3.26681120          -5.10501840
    11.96765920           2.74276720          -5.12361520
    12.33625440           2.17628480          -5.14411920
    12.56036720           1.74474720          -5.10835680
    12.74013520           1.35469440          -4.97913360
    12.91084320           0.93030960          -4.85229520
    12.99333600           0.60939760          -4.70590560
    13.05055600           0.40102000          -4.48370000
    13.10825360           0.17499920          -4.28628960
    13.17167280          -0.00953680          -4.11987280
    13.17358000          -0.03242480          -3.96823920
    13.18931600          -0.04625360          -3.85475120
    13.24987440          -0.04959120          -3.81851200
    13.27419280           0.09632080          -3.81040560
    13.27514640           0.24509440          -3.78513360
    13.29088240           0.32138800          -3.82757200
    13.25893440           0.47254560          -3.91530960
    13.13352560           0.63991520          -3.98635840
    13.01622400           0.69808960          -4.08554080
    12.84217840           0.74434320          -4.23240640
    12.55273840           0.84304800          -4.35352320
    12.21656800           0.89502320          -4.46319600
    11.84129680           0.94127680          -4.59766400
    11.42024960           1.09243360          -4.68969360
    10.92529280           1.33562080          -4.72450240
    10.52808800           1.58977520          -4.73928480
    10.11943840           1.93738960          -4.73642320
     9.67502560           2.41136560          -4.66394400
     9.36651200           2.82192240          -4.58812720
     9.01556000           3.25584400          -4.58812720
     8.75473040           3.74031040          -4.54139680
     8.54253760           4.15134400          -4.50038880
     8.36849200           4.45461280          -4.54425840
     8.22496400           4.78982960          -4.58622000
     8.02373920           5.13362880          -4.63056560
     7.90262240           5.31148880          -4.72688640
     7.68136960           5.53703280          -4.85086480
     7.41529440           5.75542480          -4.94813920
     7.13253040           5.83982480          -5.07879280
     6.79969760           5.86509680          -5.21945920
     6.42013520           5.91039680          -5.28192560
     6.04438800           5.88178640          -5.31101200
     5.69391280           5.71727760          -5.32007200
     5.28049440           5.59473040          -5.25045360
     4.95958320           5.41496240          -5.08117680
     4.68063360           5.16605360          -4.90760800
     4.42552560           4.94575520          -4.75311280
     4.18043120           4.78506080          -4.56476240
     3.98635840           4.59861760          -4.42743280
     3.84378400           4.44078480          -4.38928640
     3.66449360           4.39977680          -4.36592080
     3.50475280           4.31823760          -4.36210640
     3.36217920           4.23002240          -4.42171120
     3.18241120           4.23240640          -4.44793680
     2.94494640           4.26721600          -4.42075760
     2.77423840           4.21428720          -4.42028080
     2.54201920           4.16278800          -4.41551200
     2.27308240           4.10938240          -4.34541680
     2.06995040           3.91340240          -4.25195680
     1.84249840           3.61824000          -4.13894640
     1.60169600           3.34930400          -3.91912480
     1.38521200           3.00168960          -3.66544720
     1.23453120           2.56490720          -3.46279120
     1.05810160           2.25257840          -3.26061280
     0.90646720           1.94215760          -3.12089920
     0.80919280           1.61647760          -3.12280640
     0.72002400           1.41954400          -3.21912800
     0.59938400           1.36804560          -3.36408640
     0.48589680           1.33466720          -3.57532480
     0.40912640           1.40714640          -3.86238080
     0.27370480           1.69086480          -4.15563600
     0.12683840           1.98936480          -4.45365920
    -0.00715280           2.32553520          -4.79984320
    -0.17690640           2.75754960          -5.08403760
    -0.40292720           3.18241120          -5.27286560
    -0.56838960           3.51762800          -5.43975840
    -0.75054160           3.83949280          -5.54180160
    -0.99992720           4.15897360          -5.54990800
    -1.15537680           4.36878240          -5.51366800
    -1.30081200           4.51564800          -5.47838240
    -1.43957120           4.70495200          -5.41782400
    -1.49726880           4.83322160          -5.31721120
    -1.49202320           4.91619120          -5.24616240
    -1.42622000           5.08642160          -5.15222560
    -1.31034880           5.25856000          -5.02347920
    -1.08718880           5.37252400          -4.97007360
    -0.86641280           5.52177440          -4.94241680
    -0.64134560           5.74302640          -4.91142240
    -0.30565280           5.79834000          -4.93192640
    -0.02002720           5.79595600          -5.01203520
     0.27847280           5.82504240          -5.07068640
     0.59938400           5.67483920          -5.12790640
     0.93984640           5.38015360          -5.25712960
     1.18589440           5.09119040          -5.37538560
     1.35612480           4.71687280          -5.53417200
     1.55401200           4.15563600          -5.76114640
     1.59072880           3.64542000          -6.00481040
     1.63555120           3.13997280          -6.23178480
     1.64556480           2.56967520          -6.47020320
     1.61981600           2.00414640          -6.69622400
     1.57785440           1.52874000          -6.80637360
     1.55115120           1.02996800          -6.88600560
     1.57976160           0.48446640          -6.93225840
     1.57594720           0.05578960          -6.89411200
     1.63507440          -0.38671520          -6.76345840
     1.74665440          -0.84734000          -6.58750560
     1.92642240          -1.27792320          -6.35814640
     2.09093120          -1.62124640          -6.02340720
     2.39562960          -2.05040000          -5.68199120
     2.74372080          -2.43949920          -5.34152960
     3.11708480          -2.69985200          -4.96292080
     3.58581520          -3.02553200          -4.60243200
     4.07934160          -3.31354160          -4.29630240
     4.62150560          -3.56769600          -4.01401520
     5.07164000          -3.78608720          -3.77512000
     5.57804080          -4.06742080          -3.61585600
     5.98859760          -4.26101680          -3.53384000
     6.30378720          -4.38308720          -3.47423520
     6.55317280          -4.57954400          -3.46231440
     6.70003920          -4.71830400          -3.53622400
     6.71148320          -4.75931200          -3.62157840
     6.59990320          -4.76837120          -3.72600560
     6.51407280          -4.78220000          -3.86810320
     6.26659360          -4.61149200          -3.97682160
     6.02293040          -4.37164320          -4.04214880
     5.79309440          -4.06980480          -4.13227120
     5.56898080          -3.59487520          -4.21190240
     5.37443200          -2.97594080          -4.25434080
     5.25665280          -2.27499040          -4.31394560
     5.25188480          -1.52492560          -4.40645200
     5.22089040          -0.58603280          -4.48465360
     5.34057600           0.35429040          -4.59051120
     5.53369520           1.25217440          -4.79173680
     5.74779520           2.23732000          -5.00774400
     6.05010960           3.16906000          -5.21373760
     6.45446800           3.92770800          -5.48172000
     6.86740880           4.64153280          -5.75828560
     7.29990000           5.35106640          -5.95617280
     7.83729520           5.85556000          -6.21986400
     8.35037200           6.33192080          -6.53982160
     8.88633760           6.87646880          -6.79254560
     9.43470000           7.31706640          -7.05051440
    10.04505120           7.76529280          -7.26699840
    10.62631600           8.32891440          -7.36570320
    11.17610960           8.87584720          -7.37333280
    11.80553440           9.35363760          -7.32708000
    12.33291600           9.90915280          -7.20405600
    12.86554320          10.50662960          -6.96182240
    13.40198480          11.03734960          -6.63900400
    13.87548480          11.57283760          -6.29186640
    14.29462400          12.19558720          -5.87129600
    14.68610800          12.74442640          -5.41448560
    15.11335360          13.22221760          -5.02920160
    15.49291600          13.80825040          -4.64057920
    15.87104800          14.30273040          -4.24528160
    16.29018800          14.67752480          -3.89385200
    16.73412320          15.04850400          -3.54862240
    17.15517040          15.36655440          -3.18861040
    17.61388800          15.53297040          -2.86769840
    18.07880400          15.58399200          -2.59590160
    18.46933360          15.59638960          -2.32172000
    18.85461840          15.45000080          -2.09522240
    19.15073360          15.19918480          -1.93309760
    19.34099200          14.94216880          -1.77860240
    19.40774880          14.62364160          -1.62839920
    19.36864880          14.16873920          -1.54590640
    19.22035200          13.75961280          -1.48582480
    18.87321440          13.37862000          -1.41859040
    18.47314800          12.86268240          -1.43051120
    17.95911760          12.41302480          -1.49917600
    17.23480240          12.03107840          -1.57642400
    16.46041840          11.61766080          -1.65176400
    15.59352880          11.20138160          -1.73330320
    14.57357440          10.86664160          -1.77764880
    13.48257040          10.56861840          -1.76525120
    12.35342000          10.20383840          -1.78241760
    11.10458400           9.91678240          -1.82819360
     9.74988960           9.66835040          -1.83296240
     8.38613520           9.30309280          -1.88064560
     6.92844400           8.92114640          -2.01749840
     5.38063040           8.60357280          -2.12478640
     3.83520160           8.21971920          -2.27260560
     2.28118880           7.75146480          -2.53200560
     0.67710880           7.36808800          -2.80761680
    -0.91409680           6.96039200          -3.10945520
    -2.39467600           6.48975360          -3.49092480
    -3.87525520           6.09350240          -3.92580000
    -5.31625760           5.69057440          -4.34970880
    -6.61325440           5.19752480          -4.79412080
    -7.90023840           4.66299040          -5.28526320
    -9.11474240           4.21285600          -5.71823120
   -10.21242160           3.64398960          -6.09779360
   -11.28101360           2.96211280          -6.48832320
   -12.25090000           2.41708720          -6.78634640
   -13.15259920           1.79195440          -7.00140000
   -13.90504800           1.09386480          -7.23886480
   -14.57405120           0.52642800          -7.42721520
   -15.18774000          -0.01859680          -7.59840000
   -15.57350160          -0.60558320          -7.84635520
   -15.89822800          -1.12819680          -8.12482800
   -16.07942560          -1.55019760          -8.40187040
   -16.10565200          -1.98793440          -8.67748240
   -16.01886720          -2.44092960          -8.92972960
   -15.78140240          -2.77757680          -9.08660880
   -15.44666320          -3.14712560          -9.14478320
   -14.90879040          -3.57532480          -9.19437440
   -14.26076880          -3.95154960          -9.20248000
   -13.54980480          -4.36353680          -9.13953760
   -12.67671600          -4.85277200          -9.09328480
   -11.69157040          -5.34534480          -9.04274000
   -10.68544400          -5.77688240          -8.94546480
    -9.53769680          -6.28423680          -8.84866720
    -8.27217120          -6.77490240          -8.79096960
    -6.99090960          -7.11917840          -8.72135200
    -5.62524800          -7.41958640          -8.62598400
    -4.14896000          -7.69519840          -8.56494880
    -2.64692320          -7.81059280          -8.49199280
    -1.16777440          -7.80868560          -8.35609440
     0.34523040          -7.82918960          -8.17632640
     1.79481520          -7.72619280          -7.98511520
     3.14331040          -7.51876800          -7.71427120
     4.39643840          -7.30180720          -7.42149360
     5.61094320          -7.06386560          -7.16686240
     6.69002560          -6.71148320          -6.83975200
     7.64131520          -6.34384160          -6.48307840
     8.59546640          -6.01530080          -6.15406000
     9.40275200          -5.52558880          -5.77831280
    10.15043280          -4.98533280          -5.36632560
    10.91194160          -4.45556640          -5.02014160
    11.60097120          -3.84950640          -4.74023840
    12.22133600          -3.14426400          -4.46033440
    12.86172880          -2.45475760          -4.20570400
    13.49020000          -1.76668160          -4.01353840
    14.04666880          -0.94890560          -3.78894800
    14.57643520          -0.19311920          -3.55100640
    15.08903520           0.44584240          -3.40366400
    15.49816160           1.12867360          -3.27014960
    15.79999920           1.79433840          -3.13377360
    16.06035200           2.31885920          -3.09658080
    16.20578800           2.83527360          -3.09324240
    16.26539200           3.40270960          -3.03792960
    16.26396160           3.84855280          -3.02791600
    16.17240880           4.28152080          -3.06177120
    15.99264160           4.81653200          -3.03649920
    15.77043520           5.29575360          -2.98309360
    15.52343360           5.73158240          -2.98309360
    15.23637760           6.25371920          -2.93874720
    14.91689680           6.75916640          -2.84147280
    14.60552240           7.16876960          -2.78472880
    14.28890240           7.59363200          -2.70605120
    13.90123360           8.01372560          -2.59351760
    13.52596320           8.31747040          -2.50387200
    13.15784480           8.57639280          -2.45428080
    12.74681120           8.85868080          -2.40612000
    12.32481040           9.08470160          -2.36988080
    11.97624240           9.25111760          -2.39372240
    11.67345040           9.42277920          -2.43330000
    11.35730720           9.60922240          -2.45332720
    11.19613680           9.70315920          -2.51579280
    11.08074160           9.80186480          -2.59160960
    10.97202320           9.98353920          -2.59399440
    11.00015680          10.07032400          -2.57587440
    11.06309920          10.11466960          -2.55680080
    11.15083680          10.20956000          -2.49671920
    11.25574080          10.23674000          -2.43139280
    11.38544080          10.15710800          -2.43473040
    11.46507280          10.09750400          -2.45857200
    11.44981360          10.00595120          -2.46810880
    11.41548160           9.78803600          -2.54201920
    11.29818000           9.60350000          -2.61211360
    11.05737680           9.48667520          -2.62355840
    10.77652000           9.30929200          -2.65359840
    10.46609840           9.17053200          -2.71940240
    10.01882560           9.14573680          -2.77423840
     9.54341920           9.14096800          -2.81333920
     9.08565520           9.11760320          -2.90060080
     8.51726560           9.19485120          -3.02362480
     7.92837120           9.32788880          -3.11851520
     7.35855120           9.36365120          -3.27396400
     6.75678240           9.45997200          -3.49187840
     6.11496000           9.56964480          -3.67832160
     5.44357280           9.53388240          -3.90481920
     4.82416160           9.47380080          -4.14943680
     4.14752960           9.44519040          -4.34494000
     3.43036640           9.34267040          -4.52136960
     2.74229040           9.17577760          -4.68635520
     1.94644960           9.05180000          -4.81986960
     1.11341440           8.95071040          -4.90379360
     0.31042080           8.79001600          -4.98104080
    -0.55599200           8.66556160          -5.07068640
    -1.46579760           8.64505760          -5.12409200
    -2.34270080           8.55398160          -5.20610800
    -3.20053120           8.48150240          -5.35821920
    -4.05931440           8.51440400          -5.46598400
    -4.89139520           8.47291920          -5.59186960
    -5.62858560           8.38088960          -5.75780880
    -6.33192080           8.34560400          -5.88798560
    -6.99090960           8.29219840          -6.01053200
    -7.50303280           8.13531840          -6.13546400
    -7.97843920           7.98606880          -6.28900560
    -8.40950000           7.87925760          -6.44350080
