SERVICIO GEOLOGICO COLOMBIANO- RED NACIONAL DE ACELEROGRAFOS DE COLOMBIA
SISMO DE QUETAME (CUNDINAMARCA) 2008/05/24 19:20:44 ML=5.7
LATITUD DEL EVENTO(GRADOS): 4.4
LONGITUD DEL EVENTO(GRADOS): -73.813
PROFUNDIDAD DEL EVENTO (Km): .3
CODIGO DE LA ESTACION: CARME
Estacion:ARMENIA Geol:SUELO Topo:PLANA
LATITUD DE LA ESTACION (GRADOS): 4.55
LONGITUD DE LA ESTACION (GRADOS): -75.66
DISTANCIA EPICENTRAL: 205.692 km
DISTANCIA HIPOCENTRAL: 205.692 km
INTERVALO DE MUESTREO (SEGUNDOS): 0.005
NUMERO DE DATOS: 10000
DURACION (SEGUNDOS): 50
UNIDADES: cm/s^2
TIPO DE EQUIPO: ETNA
ESCALA MAXIMA (G): 2
CORRECCION DE LINEA BASE: LINEA BASE NO REMOVIDA
TIPO DE DATOS: NO CORREGIDO
         EW                  VER                  NS
[...]
    -0.48637360           0.28896320          -0.91218960
    -0.27322800           0.28944000          -1.01327920
    -0.02908720           0.21076240          -1.07145280
     0.22363680           0.08583040          -1.08575840
     0.38766880          -0.09059920          -1.14107120
     0.48637360          -0.25558480          -1.25265120
     0.52404400          -0.38337680          -1.43098800
     0.49161920          -0.44822720          -1.68609600
     0.31375920          -0.47588320          -2.09903680
     0.04005440          -0.43344480          -2.63357200
    -0.30326880          -0.34332240          -3.22866400
    -0.73909760          -0.23937200          -3.88002400
    -1.18875520          -0.07820160          -4.45652000
    -1.69897040           0.05245200          -5.02300240
    -2.22635280           0.14734240          -5.56087520
    -2.66218160           0.26702880          -5.92041040
    -2.99882880           0.36668800          -6.13594080
    -3.24821440           0.42676960          -6.19554480
    -3.36074800           0.50497040          -6.03723520
    -3.29732880           0.60224560          -5.60569760
    -3.11851520           0.66661840          -4.96625920
    -2.85625440           0.66471120          -4.19139840
    -2.44283680           0.61559680          -3.23820080
    -1.90353360           0.51784480          -2.18963600
    -1.30224240           0.37288640          -1.08289680
    -0.61750400           0.21696080           0.07390960
     0.03099440           0.00095360           1.14011760
     0.66137280          -0.21410000           2.10046800
     1.30558000          -0.38146960           2.92396560
     1.80864320          -0.52642800           3.50332240
     2.18486800          -0.61750400           3.83424720
     2.43711440          -0.64849840           3.96537760
     2.55155600          -0.57792640           3.91387920
     2.50101120          -0.44250480           3.65638720
     2.33507120          -0.25320080           3.24630720
     2.03418720          -0.02098080           2.63547920
     1.56402560           0.17881360           1.88207600
     1.09958640           0.37527120           1.13534960
     0.49018880           0.48017520           0.29993040
    -0.19502640           0.47397600          -0.49972560
    -0.82159040           0.40245040          -1.16586720
    -1.48057920           0.21457680          -1.73807120
    -2.08950080          -0.03385520          -2.18009920
    -2.62832640          -0.27561200          -2.46954000
    -3.05128080          -0.47540640          -2.58207360
    -3.42130640          -0.66518800          -2.59828560
    -3.69548800          -0.80394720          -2.50291840
    -3.82041920          -0.85926080          -2.30836880
    -3.84140000          -0.89454640          -2.09760640
    -3.68881200          -0.88596320          -1.85203520
    -3.39984880          -0.85496880          -1.59597360
    -3.04460560          -0.86498240          -1.41477600
    -2.63643280          -0.91505040          -1.30271920
    -2.18963600          -1.04236640          -1.26886400
    -1.75762160          -1.26123440          -1.35755520
    -1.34706480          -1.50108320          -1.53493920
    -0.92840160          -1.75428400          -1.80673600
    -0.47302240          -1.99747120          -2.13003120
    -0.07295600          -2.18200720          -2.55298640
     0.32901760          -2.30026240          -3.03936000
     0.78535040          -2.36940400          -3.44991680
     1.17826480          -2.40087520          -3.87239440
     1.61552400          -2.38847760          -4.23669840
     2.00700720          -2.38227840          -4.48465360
     2.32934960          -2.38943120          -4.68444800
     2.65073760          -2.38466240          -4.74119200
     2.89678560          -2.36463520          -4.67443440
     3.13043600          -2.31695200          -4.53710560
     3.32260160          -2.24924080          -4.28676640
     3.54719200          -2.12621680          -3.93295280
     3.73744960          -1.99127200          -3.56626480
     3.84902960          -1.88732160          -3.20482240
     4.01210800          -1.77431120          -2.81000160
     4.08268000          -1.68228160          -2.46477120
     4.08029520          -1.57403920          -2.14910480
     4.04119520          -1.41382240          -1.87873840
     3.89909760          -1.20353680          -1.70040160
     3.66449360          -0.93412400          -1.55019760
     3.36027120          -0.62990160          -1.44243280
     2.93111840          -0.32758720          -1.38568880
     2.37035760          -0.03767040          -1.34372720
     1.82199440           0.26273760          -1.27744640
     1.21641120           0.51021600          -1.19876880
     0.58507920           0.68998320          -1.09910960
    -0.03004080           0.80919280          -0.94986000
    -0.70095040           0.85401520          -0.81253040
    -1.33085280           0.88119520          -0.67186320
    -1.87110880           0.92601760          -0.50783120
    -2.38990800           0.97322480          -0.41389440
    -2.85959280           1.01757040          -0.34379920
    -3.21865120           1.07431440          -0.25081600
    -3.52668800           1.05619440          -0.21934480
    -3.73029680           0.97322480          -0.24652480
    -3.77941120           0.89740720          -0.33855440
    -3.70407120           0.77009200          -0.47445280
    -3.59725920           0.59652320          -0.61464320
    -3.48234160           0.41866320          -0.78916560
    -3.27301040           0.27894960          -1.03855120
    -2.99978240           0.16164800          -1.34611120
    -2.70700480           0.05149840          -1.67512880
    -2.52389920          -0.05674400          -1.99747120
    -2.45332720          -0.20790080          -2.24256480
    -2.44188320          -0.38099280          -2.39467600
    -2.52342240          -0.55408480          -2.45809520
    -2.72512400          -0.71620960          -2.43282320
    -3.04174400          -0.85783040          -2.28261920
    -3.39889520          -0.95987280          -1.98125840
    -3.87144080          -1.02520000          -1.56497920
    -4.41551200          -1.02520000          -0.99802000
    -4.94337120          -0.97417840          -0.26416800
    -5.46264640          -0.91838800           0.57029760
    -5.93471520          -0.83208080           1.41668320
    -6.31666160          -0.72813040           2.31361360
    -6.58035280          -0.61702720           3.20243840
    -6.79540640          -0.53596480           3.93533680
    -6.89840320          -0.47922160           4.55236400
    -6.86836240          -0.45156480           4.99725360
    -6.74200080          -0.48208240           5.21040000
    -6.47306480          -0.52928960           5.19514080
    -6.11305200          -0.64754480           4.90856160
    -5.64479840          -0.78392000           4.36592080
    -5.09405120          -0.85020080           3.59153760
    -4.52375440          -0.91552720           2.59923920
    -3.94725760          -0.94699840           1.44004800
    -3.39221920          -0.93603120           0.24747840
    -2.91728960          -0.90599040          -0.96368800
    -2.58111920          -0.83351120          -2.22063040
    -2.30789200          -0.71096400          -3.36313280
    -2.13289280          -0.56362160          -4.36639760
    -2.09379200          -0.42057040          -5.20515440
    -2.13813760          -0.24795520          -5.72204560
    -2.32505760          -0.08106240          -6.01625440
    -2.66647360           0.04863760          -6.12068160
    -3.09848800           0.16307840          -5.91611840
    -3.55672800           0.25844560          -5.43022160
    -4.06980480           0.30326880          -4.68921680
    -4.58622000           0.28467200          -3.74841680
    -5.02634080           0.24223360          -2.64930720
    -5.38969040           0.17499920          -1.46579760
    -5.62763200           0.03385520          -0.34523040
    -5.69582000          -0.12970000           0.72431600
    -5.58662400          -0.31423600           1.67751280
    -5.32388720          -0.53739520           2.46238720
    -4.86183200          -0.73099120           3.11756160
    -4.26912320          -0.96368800           3.53288640
    -3.56578800          -1.23834640           3.77750400
    -2.74229040          -1.50823600           3.85999680
    -1.91116320          -1.78956960           3.73077360
    -1.05094880          -2.08139440           3.48854080
    -0.14495840          -2.35652960           3.13472720
     0.76723120          -2.57921200           2.72846240
     1.61695520          -2.75468800           2.29787840
     2.38227840          -2.83575040           1.83677680
     3.04317440          -2.81333920           1.39522560
     3.60345840          -2.70366640           1.03855120
     4.10366080          -2.50482560           0.75817120
     4.49895840          -2.23779680           0.56886640
     4.75645040          -1.93929680           0.53310400
     4.90284000          -1.63412080           0.52499760
     4.95958320          -1.35278720           0.56934320
     4.90999200          -1.11436880           0.69189040
     4.85420240          -0.90026880           0.77724480
     4.85420240          -0.72956080           0.95224400
     4.86803040          -0.61178240           1.13582640
     4.89425680          -0.57554240           1.18732480
     4.98962400          -0.59223200           1.21116640
     5.15460960          -0.67090960           1.12104400
     5.37443200          -0.80919280           0.92792480
     5.71441680          -0.91934240           0.68712240
     6.07347520          -1.08957280           0.33283200
     6.44254720          -1.28793680          -0.07724800
     6.85596480          -1.47676480          -0.52499760
     7.25746160          -1.70040160          -1.04141200
     7.63750080          -1.91688560          -1.57451600
     7.95269040          -2.09903680          -2.03228000
     8.20684400          -2.20537200          -2.41756400
     8.36658480          -2.30216960          -2.77423840
     8.40616240          -2.37178800          -3.10039520
     8.35228000          -2.40325920          -3.35693360
     8.23640800          -2.42805520          -3.51715120
     8.03422960          -2.39849120          -3.63969840
     7.71570240          -2.39038480          -3.74794000
     7.29942320          -2.41470320          -3.84473840
     6.81686400          -2.41518000          -3.94296640
     6.27899200          -2.41279600          -4.05311600
     5.66148720          -2.39038480          -4.19712080
     5.06019600          -2.29644800          -4.35686080
     4.50754160          -2.10475920          -4.51326400
     3.96728480          -1.83534640          -4.67872640
     3.48377200          -1.55258160          -4.84704960
     3.08322880          -1.21212000          -4.98819360
     2.71272640          -0.84209440          -5.14173520
     2.38800080          -0.50306320          -5.29003120
     2.15196640          -0.16689280          -5.39541280
     1.90067280           0.06389600          -5.51605200
     1.67608240           0.20694720          -5.59568400
     1.45959840           0.27704240          -5.61428080
     1.14107120           0.24843200          -5.62381760
     0.72908400           0.18978080          -5.58519360
     0.26607520           0.14829600          -5.45263280
    -0.22220640           0.17023120          -5.20610800
    -0.80347040           0.20217920          -4.86803040
    -1.38998000           0.27990320          -4.42123440
    -1.97982800           0.44059760          -3.88383840
    -2.62165040           0.59986080          -3.34882720
    -3.25155280           0.78821200          -2.76947040
    -3.94058240           0.97131760          -2.17008560
    -4.66442080           1.07002240          -1.61743200
    -5.32627120           1.11007680          -1.03902800
    -5.94663600           1.07192960          -0.47683680
    -6.53123840           0.97036400          -0.01001360
    -7.06052800           0.82445120           0.35905840
    -7.51924480           0.60224560           0.65755840
    -7.86256800           0.35047520           0.86021440
    -8.10384720           0.11110320           0.92363360
    -8.21161280          -0.08916880           0.87976480
    -8.26263440          -0.25177040           0.70190400
    -8.37802880          -0.37384000           0.45537920
    -8.50486720          -0.44775040           0.18930400
    -8.65745520          -0.52785840          -0.16546240
    -8.76331360          -0.57506560          -0.47159200
    -8.80479840          -0.59509280          -0.66137280
    -8.90684160          -0.65279040          -0.84257120
    -9.08565520          -0.71334800          -0.99277520
    -9.32359680          -0.82445120          -1.07479120
    -9.59682480          -0.96988640          -1.06191600
    -9.89675520          -1.09195680          -0.93126320
   -10.19144080          -1.16157520          -0.69856640
   -10.49900080          -1.13773360          -0.40626560
   -10.80703760          -1.03378320          -0.07200240
   -10.97822160          -0.77247600           0.35381280
   -11.08598720          -0.41818640           0.78439680
   -11.13510160          -0.03385520           1.19638480
   -11.02352160           0.38671520           1.65367120
   -10.83946240           0.77009200           2.05564480
   -10.56289680           1.09815600           2.35176080
   -10.18142720           1.35135680           2.58398080
    -9.73272320           1.56974800           2.71081920
    -9.20915600           1.73521040           2.65646000
    -8.58259200           1.84631360           2.46334080
    -7.87639600           1.92403760           2.16579440
    -7.15923280           1.94072720           1.78003280
    -6.38580320           1.93929680           1.37901280
    -5.58567040           1.86967840           0.93030960
    -4.85801680           1.72805760           0.42247760
    -4.17852400           1.58023840          -0.03576240
    -3.53956240           1.44052480          -0.40054320
    -3.02314720           1.28078480          -0.68664560
    -2.57825840           1.05619440          -0.87833440
    -2.15721120           0.81014640          -0.98371520
    -1.77001920           0.52595120          -0.98752960
    -1.40857680           0.16641600          -0.88071840
    -1.05667120          -0.19979440          -0.68187680
    -0.69999680          -0.58794000          -0.38003920
    -0.37336320          -1.00755680          -0.00572240
    -0.00715280          -1.35755520           0.42295440
     0.38480720          -1.69181840           0.84161760
     0.83017360          -1.97267520           1.18684800
     1.39379520          -2.14529040           1.45530720
     2.00128560          -2.30073920           1.61361680
     2.67314880          -2.42280960           1.65700880
     3.38840480          -2.52532960           1.58691440
     4.13036320          -2.59304080           1.41096080
     4.86183200          -2.66170480           1.12247440
     5.54275520          -2.76041040           0.72717680
     6.16168960          -2.87628160           0.25367760
     6.67762720          -3.00264320          -0.31232800
     7.13157680          -3.06844720          -0.86927440
     7.49397280          -3.06606320          -1.30605680
     7.68232320          -3.02410160          -1.71422960
     7.72714640          -2.92062720          -2.08139440
     7.70044320          -2.66075120          -2.30121600
     7.51590720          -2.32648880          -2.42805520
     7.20834720          -1.95360160          -2.43425360
     6.88362160          -1.45959840          -2.28404960
     6.46400480          -0.94461440          -2.04372400
     5.98430640          -0.47111520          -1.73616400
     5.46979920          -0.03099440          -1.33132960
     4.91571440           0.27608880          -0.84638560
     4.39739200           0.43249120          -0.33950800
     3.98016000           0.51307680           0.20217920
     3.61680960           0.45537920           0.67329440
     3.33786000           0.31423600           1.03712080
     3.23867760           0.13399120           1.31464000
     3.25822800          -0.11444080           1.44290960
     3.38411360          -0.36668800           1.45006160
     3.62014800          -0.58650960           1.34038960
     3.93438320          -0.73623680           1.13010400
     4.30011760          -0.88882480           0.80585440
     4.70018400          -1.03664400           0.41008000
     5.07307040          -1.16777440           0.00906000
     5.40828720          -1.32036240          -0.37622480
     5.69629680          -1.45244560          -0.71573280
     5.86986560          -1.60837200          -1.01470960
     5.91564160          -1.76620480          -1.21879600
     5.79404800          -1.89590480          -1.36804560
     5.51652880          -1.98507280          -1.48487120
     5.06591760          -2.01749840          -1.53827680
     4.50086560          -2.00748480          -1.58023840
     3.86285760          -1.96933760          -1.58977520
     3.11994560          -1.93548240          -1.56641040
     2.31075280          -1.91116320          -1.54590640
     1.42812720          -1.87683120          -1.49440800
     0.47731360          -1.79958320          -1.42812720
    -0.52928960          -1.66797600          -1.38568880
    -1.52111040          -1.47485760          -1.37138400
    -2.52485280          -1.24502160          -1.44529360
    -3.51953520          -0.99229840          -1.60360320
    -4.40502160          -0.73957440          -1.80149040
    -5.16271600          -0.52213680          -2.03609440
    -5.75447120          -0.37336320          -2.28357280
    -6.18743920          -0.31089760          -2.53343600
    -6.43777840          -0.32854080          -2.74896640
    -6.56080240          -0.45013440          -2.92730320
    -6.56843200          -0.60129200          -3.05604960
    -6.49595280          -0.78058240          -3.12709840
    -6.38771040          -0.98371520          -3.18479520
    -6.18934640          -1.12915040          -3.17621200
    -5.95712640          -1.25312800          -3.09944160
    -5.70344960          -1.37090720          -2.99072240
    -5.40590320          -1.44815440          -2.80380240
    -5.07926960          -1.48582480          -2.58541120
    -4.74786720          -1.55830400          -2.38990800
    -4.38356400          -1.60408000          -2.18915920
    -4.01401520          -1.59311280          -2.03752480
    -3.66592400          -1.60074240          -1.93882000
    -3.33166160          -1.59072880          -1.86920160
    -3.03316080          -1.59311280          -1.84726720
    -2.76136400          -1.61981600          -1.83916080
    -2.51102480          -1.63030640          -1.86491040
    -2.21967680          -1.63888960          -1.87063200
    -1.99270240          -1.66654560          -1.83534640
