SERVICIO GEOLOGICO COLOMBIANO- RED NACIONAL DE ACELEROGRAFOS DE COLOMBIA
SISMO DE QUETAME (CUNDINAMARCA) 2008/05/24 19:20:44 ML=5.7
LATITUD DEL EVENTO(GRADOS): 4.4
LONGITUD DEL EVENTO(GRADOS): -73.813
PROFUNDIDAD DEL EVENTO (Km): .3
CODIGO DE LA ESTACION: CANAP
Estacion:ANAPOIMA Geol:ROCA Topo:ONDULADA
LATITUD DE LA ESTACION (GRADOS): 4.5502
LONGITUD DE LA ESTACION (GRADOS): -74.5141
DISTANCIA EPICENTRAL: 79.588 km
DISTANCIA HIPOCENTRAL: 79.589 km
INTERVALO DE MUESTREO (SEGUNDOS): 0.005
NUMERO DE DATOS: 12400
DURACION (SEGUNDOS): 62
UNIDADES: cm/s^2
TIPO DE EQUIPO: ETNA
ESCALA MAXIMA (G): 2
CORRECCION DE LINEA BASE: LINEA BASE NO REMOVIDA
TIPO DE DATOS: NO CORREGIDO
         EW                  VER                  NS
[...]
    -4.57572960          -8.35418720           2.41184240
    -4.58192800          -8.23593120           1.96123120
    -4.51231040          -8.17012800           1.64556480
    -4.42171120          -8.07905200           1.50632880
    -4.31966800          -7.98320800           1.45816800
    -4.22191600          -7.86876640           1.50585200
    -4.11319760          -7.79199600           1.59406640
    -3.96871600          -7.74049760           1.74570080
    -3.87764000          -7.71474800           1.83248480
    -3.82614160          -7.67564800           1.78670880
    -3.76653680          -7.59506240           1.65510160
    -3.64828080          -7.60841360           1.37805920
    -3.43990320          -7.76147840           0.97799280
    -3.09705760          -8.00991040           0.51927600
    -2.64358560          -8.37802880           0.02479520
    -2.11048160          -8.77857200          -0.43535200
    -1.43671040          -9.15956480          -0.81157680
    -0.72860720          -9.52816000          -1.18017200
     0.02002720          -9.72604720          -1.45006160
     0.81157680          -9.64927680          -1.61838560
     1.44624720          -9.25922400          -1.73187280
     1.90401040          -8.57496240          -1.64270400
     2.17819200          -7.77053840          -1.45864480
     2.21109360          -7.10725760          -1.23548480
     2.08425520          -6.73675520          -0.96702560
     1.93119040          -6.67428960          -0.72526960
     1.77288080          -6.94942480          -0.49877200
     1.65081040          -7.49635680          -0.31805040
     1.63126000          -8.20398320          -0.14162080
     1.67942080          -8.95023360           0.08535360
     1.76334400          -9.63830960           0.33235520
     1.78194080         -10.19001040           0.62322640
     1.70135520         -10.52999520           0.99229840
     1.49250000         -10.67495360           1.38568880
     1.13105760         -10.63060800           1.82437920
     0.67090960         -10.43462720           2.24304160
     0.10395040         -10.13183600           2.54774080
    -0.50926240          -9.80186480           2.72893920
    -1.17206560          -9.52768320           2.74562800
    -1.82724000          -9.34696160           2.67028800
    -2.39896800          -9.30738480           2.50005760
    -2.89964640          -9.42468640           2.31313680
    -3.24010880          -9.71698800           2.17914560
    -3.41749200         -10.13994240           2.09474560
    -3.43847280         -10.62536240           2.16293360
    -3.31211120         -11.10458400           2.27832800
    -3.08227520         -11.43550880           2.41708720
    -2.76899360         -11.59334160           2.52580640
    -2.48956720         -11.62004480           2.47240080
    -2.22921360         -11.42168080           2.39801440
    -2.00366960         -11.06929760           2.25782400
    -1.94311120         -10.67495360           2.01272960
    -1.91497840         -10.21766640           1.81007360
    -1.91450080          -9.80043440           1.59454320
    -1.99079520          -9.47761520           1.37233760
    -1.99842480          -9.27686720           1.16682080
    -1.95121760          -9.22155360           0.92744800
    -1.86491040          -9.36794320           0.65231360
    -1.74617760          -9.70649680           0.32424960
    -1.62267680         -10.10560960           0.03290160
    -1.47342720         -10.54000880          -0.19454960
    -1.33514400         -10.91384880          -0.29230080
    -1.19161600         -11.18898400          -0.15592560
    -1.03044480         -11.35587680           0.15354160
    -0.90599040         -11.35206240           0.68235360
    -0.85067760         -11.16132720           1.34134320
    -0.88596320         -10.74838640           2.03895600
    -1.02138480         -10.24627680           2.71177280
    -1.23930000          -9.75704160           3.24487680
    -1.50632880          -9.33456400           3.65591040
    -1.86014160          -9.03224960           3.79848480
    -2.25210160          -8.70227840           3.78942480
    -2.63834000          -8.38088960           3.70168720
    -3.06797040          -8.16822080           3.44085680
    -3.46279120          -8.00848000           3.17859680
    -3.79610080          -7.89833040           2.90822960
    -4.05836080          -7.83062000           2.62498880
    -4.20570400          -7.75480240           2.35700640
    -4.25863280          -7.64417680           2.15292000
    -4.24671200          -7.60459920           1.97792080
    -4.16326560          -7.62891760           1.81293520
    -4.02307520          -7.68566160           1.76477440
    -3.90672720          -7.78865840           1.75094640
    -3.78847120          -7.84492480           1.83248480
    -3.71646880          -7.91835760           1.98888800
    -3.71885280          -8.05139520           2.14529040
    -3.72076000          -8.23497760           2.27642080
    -3.74364880          -8.42523600           2.31027600
    -3.77702720          -8.49485360           2.28881840
    -3.87144080          -8.43334160           2.10142160
    -4.02069120          -8.19587680           1.86014160
    -4.19759760          -7.91406640           1.60884880
    -4.38261040          -7.74383520           1.27267840
    -4.52041600          -7.64703760           1.05094880
    -4.62484320          -7.69424400           0.92315680
    -4.60624720          -7.81726800           0.93936960
    -4.40740560          -8.00180400           1.13821040
    -4.02116800          -8.35990880           1.39951680
    -3.50189200          -8.79764560           1.67322160
    -2.87961920          -9.18817520           1.86395680
    -2.23016720          -9.36365120           1.99604000
    -1.73568720          -9.28783440           2.03895600
    -1.40905360          -9.04750800           2.00843840
    -1.26123440          -8.69369520           2.02608080
    -1.29413600          -8.36610800           2.01177600
    -1.46913520          -8.11529120           1.98888800
    -1.77145040          -7.93218640           2.02274320
    -2.13813760          -7.80677760           2.05421440
    -2.49338160          -7.74383520           2.05659840
    -2.75182720          -7.80105600           2.02703440
    -2.85339360          -7.96842560           1.94978720
    -2.84099600          -8.19349280           1.86348000
    -2.76565520          -8.41474560           1.84869760
    -2.65169120          -8.65459440           1.89781200
    -2.56824480          -8.95309440           2.05564480
    -2.49719600          -9.21678560           2.31695200
    -2.42090240          -9.36508160           2.61926640
    -2.37894080          -9.33408720           2.94065440
    -2.31456720          -9.04846160           3.31497200
    -2.25305520          -8.64124320           3.69787200
    -2.25591680          -8.26883280           4.00876960
    -2.28118880          -8.00848000           4.29868720
    -2.33411760          -7.94458400           4.44173840
    -2.34651600          -8.04424320           4.44316880
    -2.27165200          -8.23450080           4.41408160
    -2.10046800          -8.43620320           4.27770640
    -1.75333040          -8.56733360           4.07314320
    -1.26314160          -8.62836800           3.85618240
    -0.70953360          -8.65984000           3.57770880
    -0.16212480          -8.61692400           3.28397760
     0.30374560          -8.53729280           3.03888320
     0.62465680          -8.47291920           2.83765760
     0.77772160          -8.39614880           2.73704560
     0.77962880          -8.38661200           2.67839440
     0.67567840          -8.44764720           2.67887120
     0.51975280          -8.60643360           2.76422480
     0.32234160          -8.89635120           2.83479680
     0.14781920          -9.22155360           2.98786160
    -0.02527200          -9.61160640           3.10420960
    -0.23794160         -10.02407040           3.07941440
    -0.45156480         -10.33115360           3.04508240
    -0.80633200         -10.56003600           2.89297120
    -1.26266480         -10.67018480           2.63404880
    -1.69324880         -10.65015760           2.33840960
    -2.16627120         -10.62536240           1.98173520
    -2.58302720         -10.60867280           1.56927120
    -2.86293040         -10.53667040           1.17254240
    -3.02553200         -10.44702560           0.88071840
    -3.08179840         -10.40840160           0.60606000
    -3.05080400         -10.36500960           0.45013440
    -2.93827040         -10.30063600           0.48065200
    -2.78711280         -10.24913760           0.61273600
    -2.62117360         -10.18428800           0.89502320
    -2.47287760         -10.11896160           1.28650640
    -2.38370880         -10.05363440           1.74427040
    -2.35080720          -9.95969760           2.20823280
    -2.37226480          -9.88149680           2.61211360
    -2.42280960          -9.86623760           2.93827040
    -2.37751040          -9.90819920           3.13997280
    -2.17723840         -10.05506480           3.21483600
    -1.79481520         -10.24532320           3.19814720
    -1.19590720         -10.31446480           3.14950960
    -0.47492960         -10.22911040           3.11517680
     0.27179680          -9.97066480           3.05414160
     0.95415120          -9.57155200           2.93970080
     1.47247280          -9.07039680           2.81286240
     1.76096000          -8.54587520           2.56681440
     1.76429760          -8.10384720           2.18868240
     1.51157360          -7.74765040           1.84297600
     1.04665760          -7.61795040           1.44815440
     0.43106080          -7.69758240           1.07574480
    -0.22172960          -7.88927040           0.88500960
    -0.89025520          -8.19492320           0.73480640
    -1.46913520          -8.46958160           0.73909760
    -1.85394320          -8.69131120           0.88691680
    -2.10762000          -8.89444320           1.03378320
    -2.19631200          -9.11092720           1.23071680
    -2.12907760          -9.36031360           1.42192880
    -2.02178960          -9.61875920           1.61075600
    -1.88636800          -9.86719120           1.75428400
    -1.77431120         -10.05792640           1.90353360
    -1.75094640         -10.22148160           2.05087680
    -1.75476080         -10.38599040           2.14195280
    -1.77526480         -10.60438160           2.29215600
    -1.78527840         -10.90908080           2.46286400
    -1.74856160         -11.23523680           2.65836720
    -1.67512880         -11.47222480           2.87532800
    -1.53493920         -11.54327360           3.06415520
    -1.36232400         -11.42215760           3.23724720
    -1.16682080         -11.16943360           3.33356880
    -0.95653520         -10.85233680           3.41701520
    -0.81205360         -10.47277440           3.49712400
    -0.74720400         -10.09416560           3.50666080
    -0.71668640          -9.70745120           3.60870400
    -0.76198560          -9.40608960           3.68595120
    -0.91600400          -9.28020480           3.66640080
    -1.11770640          -9.24682640           3.66401680
    -1.37519840          -9.32788880           3.52764160
    -1.68848000          -9.52291520           3.36360960
    -2.00462320          -9.79518880           3.22008160
    -2.30360000         -10.11371600           3.03220720
    -2.56395360         -10.39743440           2.89678560
    -2.77662240         -10.53142560           2.79426560
    -2.97355680         -10.45942320           2.74467440
    -3.20386880         -10.23626320           2.74086000
    -3.48806400          -9.88483440           2.73084640
    -3.82328000          -9.43613040           2.71844880
    -4.24766560          -8.94165040           2.69079200
    -4.70972080          -8.46385920           2.68125520
    -5.11312480          -8.06188560           2.78186800
    -5.52940400          -7.76243200           2.95543680
    -5.89656800          -7.58075680           3.23057200
    -6.13880160          -7.41863280           3.62062480
    -6.36911360          -7.28940960           3.90958800
    -6.54506720          -7.23552720           4.09603120
    -6.57701520          -7.21597680           4.24242000
    -6.50119760          -7.29656240           4.31394560
    -6.36100800          -7.41195680           4.36306000
    -6.14738480          -7.50875440           4.43696960
    -5.90229040          -7.63654720           4.48370000
    -5.69582000          -7.78341280           4.48846800
    -5.53512560          -7.98511520           4.44793680
    -5.43689760          -8.22401040           4.29630240
    -5.40208800          -8.41856000           4.05836080
    -5.45597040          -8.51440400           3.70597840
    -5.59854480          -8.42905040           3.33118400
    -5.78880320          -8.16249840           3.00407440
    -6.04343440          -7.78436640           2.72369360
    -6.33001360          -7.38286960           2.60734560
    -6.62899040          -7.13157680           2.55250960
    -6.89220400          -7.02619520           2.65455280
    -7.09152240          -7.01189040           2.93016400
    -7.21406960          -7.10582720           3.18098080
    -7.15398800          -7.26318320           3.50332240
    -6.97851200          -7.55357760           3.73458880
    -6.69956240          -7.94792160           3.76510640
    -6.30712480          -8.31985440           3.75652320
    -5.90896640          -8.65602480           3.67927520
    -5.50031680          -8.95309440           3.56006640
    -5.05685840          -9.23872000           3.48568000
    -4.50468080          -9.54341920           3.47566640
    -3.91101840          -9.85622400           3.51619760
    -3.33118400         -10.09321200           3.55196000
    -2.75564160         -10.12706720           3.58104720
    -2.28929520          -9.92155040           3.60918080
    -1.91736240          -9.54914080           3.58820000
    -1.64556480          -9.12904720           3.49426240
    -1.49154640          -8.77189600           3.34692000
    -1.43432640          -8.52775600           3.17955040
    -1.47867200          -8.41236080           2.99692160
    -1.57403920          -8.44383200           2.77328480
    -1.66177760          -8.54921360           2.52676000
    -1.69849360          -8.64410400           2.24971760
    -1.62553760          -8.69607920           1.92213040
    -1.49965280          -8.67938960           1.59454320
    -1.37233760          -8.64505760           1.29413600
    -1.23930000          -8.61310960           1.04475040
    -1.24549840          -8.55684320           0.88071840
    -1.32322320          -8.44240160           0.83637200
    -1.36899920          -8.27026400           0.89216240
    -1.43528000          -8.11147680           1.01375600
    -1.39856320          -8.01134080           1.22499440
    -1.27792320          -8.05425680           1.43766400
    -1.13534960          -8.22925600           1.60408000
    -0.94032320          -8.44240160           1.72281280
    -0.80204000          -8.61978560           1.73282640
    -0.73814400          -8.70704640           1.70707680
    -0.74672720          -8.72039760           1.71184560
    -0.84018720          -8.66937600           1.78527840
    -1.05524080          -8.64791840           1.88159920
    -1.40714640          -8.68082080           1.93786640
    -1.77478800          -8.72802720           1.99556320
    -2.15816480          -8.88538400           1.88684480
    -2.45237360          -9.11855680           1.63030640
    -2.61926640          -9.37557200           1.34801840
    -2.73704560          -9.67168800           0.99611280
    -2.79760400          -9.91821280           0.67234000
    -2.88009680          -9.98020160           0.50687760
    -3.02839280          -9.88721840           0.52166000
    -3.19862400          -9.76085680           0.63133200
    -3.28636160          -9.54151120           0.91838800
    -3.34739680          -9.30166240           1.33419040
    -3.41987600          -9.04178640           1.70946160
    -3.45706960          -8.58449920           2.10142160
    -3.55052960          -8.08715840           2.37846400
    -3.69882560          -7.68470800           2.43711440
    -3.79371680          -7.40814240           2.37369520
    -3.82566480          -7.39574400           2.19726560
    -3.79180880          -7.60364560           1.96790720
    -3.56817280          -7.85493840           1.87063200
    -3.22103520          -8.04662720           1.90734880
    -2.81858480          -8.12006000           1.98173520
    -2.35652960          -7.99942000           2.11715680
    -1.97362880          -7.75384880           2.23350560
    -1.76906560          -7.52210640           2.26163840
    -1.75142320          -7.30514560           2.26974480
    -1.89113600          -7.15208080           2.31599840
    -2.22110720          -7.18450560           2.32887280
    -2.62546560          -7.39717520           2.34174720
    -2.98929200          -7.76195520           2.42328640
    -3.34358240          -8.28266160           2.45380400
    -3.60441200          -8.82434880           2.46715520
    -3.73840320          -9.24062720           2.46429440
    -3.81660480          -9.51814640           2.30693840
    -3.85856640          -9.64975360           2.07948720
    -3.82614160          -9.61112960           1.85060480
    -3.79467040          -9.51147040           1.57594720
    -3.80134560          -9.36222080           1.34086640
    -3.79276240          -9.09709920           1.21021280
    -3.81660480          -8.85057440           1.16348240
    -3.83949280          -8.73136560           1.15299200
    -3.74746320          -8.72945760           1.25074400
    -3.56102000          -8.88729120           1.38473520
    -3.32546240          -9.15098160           1.48296320
    -2.98357040          -9.28831120           1.73234960
    -2.58350400          -9.30738480           2.01749840
    -2.23255120          -9.29355600           2.24399600
    -1.88302960          -9.20200320           2.49910320
    -1.57308560          -9.12237200           2.71129600
    -1.44004800          -9.13381600           2.75945680
    -1.41859040          -9.14192160           2.73227680
    -1.46961200          -9.12380240           2.68888480
    -1.61027920          -9.16671760           2.46477120
    -1.70898400          -9.19866560           2.18105280
    -1.75476080          -9.22012320           1.92928320
    -1.79243120          -9.30118560           1.60217280
    -1.79481520          -9.37938720           1.26266480
    -1.81388880          -9.45997200           1.01137200
    -1.86538720          -9.54675680           0.76293920
    -1.93262080          -9.56821440           0.50020240
    -1.99413280          -9.49192080           0.36144240
    -2.09093120          -9.34314720           0.26178320
