SERVICIO GEOLOGICO COLOMBIANO- RED NACIONAL DE ACELEROGRAFOS DE COLOMBIA
SISMO DE QUETAME (CUNDINAMARCA) 2008/05/24 19:20:44 ML=5.7
LATITUD DEL EVENTO(GRADOS): 4.4
LONGITUD DEL EVENTO(GRADOS): -73.813
PROFUNDIDAD DEL EVENTO (Km): .3
CODIGO DE LA ESTACION: CQUET
Estacion:QUETAME Geol:ROCA Topo:ONDULADA
LATITUD DE LA ESTACION (GRADOS): 4.3285
LONGITUD DE LA ESTACION (GRADOS): -73.8612
DISTANCIA EPICENTRAL: 9.571 km
DISTANCIA HIPOCENTRAL: 9.576 km
INTERVALO DE MUESTREO (SEGUNDOS): 0.005
NUMERO DE DATOS: 4852
DURACION (SEGUNDOS): 24.26
UNIDADES: cm/s^2
TIPO DE EQUIPO: ETNA
ESCALA MAXIMA (G): 2
CORRECCION DE LINEA BASE: LINEA BASE NO REMOVIDA
TIPO DE DATOS: NO CORREGIDO
         NS                  EW                  VER
[...]
   -32.15360640         -11.63625680          18.52750800
   -14.37425600          -7.84492480          -1.22690240
   -19.95992640         -15.32936080         -18.33343520
    -0.98180800         -21.67606320           4.42790960
     8.63218320          -3.34119760           2.17247040
   -27.80246720          -6.27040880         -24.88851520
   -18.62239840         -13.93938080         -12.92038000
    -4.54521200           9.26256160         -12.29667680
    -6.29329680           7.62748720         -11.31486880
     4.57191440         -19.58322560          -2.59542480
   -15.09523360         -10.57577120          -6.99472400
   -14.29462400          -7.21693040          27.00662640
    -6.40678400         -31.24809280          23.83470560
   -19.52505120         -26.18694320           3.39221920
     8.25452800         -18.05114720          46.11063040
   -12.79544800         -21.24118800           1.60455680
   -70.57476080           1.51968000         -60.23740800
    11.28578160          -1.63412080           8.92210000
    61.62500400         -26.79586400          31.66389440
   -32.98330320         -26.45492560           0.44631920
   -36.73648800          -5.63716880           5.66673280
    -2.58350400          21.12627040         -23.54097360
   -25.53367600          -2.41708720         -35.51864640
     8.85963440         -15.86771040          -2.32410400
    56.45465840         -15.96736880          43.60246640
    -8.44287840         -28.24020400          45.29905280
   -81.59112800          -2.99549120         -28.37705600
   -11.50131200          -8.04090480          -4.66966640
    40.67754720          -7.50064880          59.00001520
    19.04916800         -33.64372240          40.76051680
    -3.69691840         -47.80721680          26.69477440
   -51.05400080           4.61149200          17.29965200
   -58.98666400          -7.16495520         -11.27052320
   -17.00019840           5.59949840         -69.53620880
    23.05460000          11.88802720         -46.66137680
    28.84674080          -1.81436560          19.31285840
   -11.07549680          -0.78678160          -9.99259920
   -51.67388880         -17.58766160         -24.10840960
    -9.72700080           3.96680800          -8.37326080
    21.39759040          -1.04808800         -36.05556480
   -45.89843760           8.48007200         -71.18701920
   -22.49336240           1.80530560         -40.30704480
    54.49056640         -23.02837360          20.34759520
    -3.69358080          -9.47761520          -4.96625920
   -85.96611200         -15.05613360         -65.09351760
   -35.09855280          28.80954720         -38.27524160
    33.76436240          36.60774240         -16.11423520
    -8.11529120         -36.53717040         -42.67024960
    10.49184800         -42.41180400          22.83811600
    25.85029600         -15.21682720          70.12748720
   -70.45793520          -8.60214240           8.32653040
     5.73778160         -21.28410320          39.24703600
    51.04923280         -52.54411680          66.49732560
   -78.83596400          -8.57114800         -29.43134320
     0.41914000           4.42838640         -16.90912240
    74.33605200         -43.94197440          48.70080960
    -2.56729120         -10.27822480          19.91796480
     2.10094480           1.91068640         -25.81453360
   -48.99406400          20.29943440         -84.29527200
   -32.35483200          70.40691360        -102.54001600
   104.66194400          17.98915840         -20.78485520
    58.52031680         -30.58052080          49.72219440
   -17.69447360         -23.26774560          42.47283920
   -65.50121280         -12.06207280         -24.89709840
   -96.82416800          47.84488640         -74.17631120
    55.93538320          -2.27451360          22.67885200
    85.21413600         -83.74881600          94.70081600
   -88.29307200         -41.66889200         -14.20736320
  -109.95721600         -34.94548800         -83.04977600
    -0.73385200          19.36197280         -30.24530400
    48.53773120          30.13134000           9.58490400
    48.47049680         -59.35621280          35.95829040
   -10.81132880         -55.62543840          19.46353920
   -73.54688640          20.04671120         -32.67431280
    33.64706000          26.75724000          68.27878960
    61.92970240         -54.61597440         112.07008800
   -40.90499840         -47.50871680          13.58175280
    22.84765280          -7.50684720          77.86798480
    46.60511040         -12.87889520         122.53808800
   -27.97460560         -42.78659840          52.90222160
   -38.22469680         -38.47503680         -15.15865360
   -29.11424640          11.83128320         -88.95826400
    28.20158000          43.42937440         -72.08681120
    38.19799440          60.48536320         -46.96750640
    15.22684080           1.31225600          -1.92356080
    75.03604880         -14.22786720          84.08641600
   -22.91393280          10.88714560          -0.29087040
  -173.78425600          -0.95748880        -108.98447200
   -43.38026080          38.41638560        -117.77019200
    97.27096800          36.82851760         -88.34552800
    89.09368800         -66.16592400          78.85217680
    15.76328240         -93.94550400         137.31813600
  -108.48379200         -25.52795440          16.21198640
   -76.37548480         -19.82116720           5.06019600
   -17.27724080         -11.11078240         -50.12798320
   -27.69517920           1.86729440        -108.49476000
    69.84949120         -40.55595360           5.75590160
    41.25499760         -41.28742240         -16.43514640
   -53.73430240           3.32593920        -113.29508000
    -2.85005600          14.38999200         -68.76468640
     4.16040400          47.11675680         -95.05462400
    48.50196800          86.51972000         -86.07721600
   115.62395200          -6.19792960          41.67079920
    14.32609520         -56.91957440          38.26284400
   -23.54669600         -18.54372000          20.68710320
    51.01871520         -29.25109840          79.54359040
     5.22375120          -6.61563840          25.54130560
   -66.98322320           2.55823120         -70.49942000
   -15.71559920           6.27517680         -56.41126640
    80.52348800          31.30245200         -16.96109760
    29.14810160          10.83230960         -31.75878560
   -59.10873440          16.22629200         -29.84333040
    31.05449680          16.60585440           4.57477600
    22.82238000          24.03879200         -37.65821440
   -47.73759840          25.93803440         -78.90892000
    30.73787680          -2.55441680         -33.15067280
    -6.13737120          39.17551040         -52.01196640
   -73.55356240          11.40785200         -77.64291760
    22.28879920         -38.95568880         -46.51212720
    70.81460960           6.45065280         -42.14382160
    22.30644240          -4.18663040           3.17478160
    -9.72318640           1.29890480          27.86874800
   -17.42792160          19.33860800           8.40568560
     6.33335120         -18.73016320          44.37303520
   -11.75165200          -7.88402560          12.17365280
   -99.25508800          24.91331120         -75.69694480
   -90.63244000          65.73057200         -65.46831120
   -32.89079680          74.23543920         -45.57895680
   -37.58955040          29.76226800         -32.53793680
    -5.11217120          29.88815280          20.66087760
   -23.03266560          46.33665120           1.36375440
   -89.25772000          50.61626400         -44.96955840
   -34.26027280          53.35521680         -46.86689360
    29.54769120          22.80282960         -22.20439920
    57.53994000         -10.50424560          61.56826000
    73.56739040         -48.77376560         130.31244000
    35.38131680         -96.63963200         152.37474400
    17.86518080         -60.95552480         127.63261600
    40.79628000         -21.70038240          90.50846400
    33.95080560         -15.89250560         100.47054400
    13.94367200          28.61309040          48.61879360
     3.92055520          25.57516080          -6.36959040
   -33.01239040          37.22524640           2.31409040
    -3.02839280          72.86739360          -9.85956160
    30.08270240          76.43985760         -21.87585840
   -77.98004160          98.90699200         -49.40319040
  -119.23742400          48.88963680         -56.61296880
   -24.70636400          34.30461920         -19.08540720
    16.97492560          53.54738240          10.09893440
    -5.54275520         -58.47883200          64.74542640
    43.45274000        -131.89840000         158.13970400
   106.47296800        -169.28339200         247.25103200
    -4.47511680        -138.11492800         213.07277600
  -141.78467200         -87.51631200          66.58363360
  -146.33131200        -112.00094400         -10.20383840
   -89.22052800         -18.86749280         -17.92097120
   -46.41675920         -72.72100480         -42.34743120
  -111.75823200        -180.61733600         -62.58583040
  -165.44104000         -95.66593600         -54.58021200
  -178.11393600         -57.55472160         -46.82159440
  -224.61080800          -4.89759440         -32.30953200
  -177.57129600         -24.34873600          -2.10905040
  -173.78377600         -92.92364000         -48.62737680
  -238.08097600         -78.73535120         -98.46401600
  -199.24736000         -99.49398400         -12.43829760
  -167.41180800         -50.64106000          73.84395600
  -145.49923200         -43.32637760         107.42283200
  -105.88168800        -172.72281600         122.21717600
   -48.64501920        -183.53986400         115.17810400
     1.64508800        -131.44302400         128.94964000
  -105.94272800        -129.10652000         102.12564800
  -146.64840800         -70.15228240          58.31050880
    -3.39317360         -54.75187280          51.56803120
     0.09012240        -100.14820000          42.05703760
   -90.57951200        -124.41540000          28.23114400
  -111.17648800         -91.09783200          50.00114480
  -142.34018400          42.32645040         103.10792800
  -155.53284000          75.66308960          99.73144800
  -127.68888800          48.32029360          45.95804240
   -93.06335200          26.94892880           3.04746640
  -130.23567200         -66.28608720         -49.62015120
  -231.28080800         -98.90604000        -114.93158400
  -193.38941600        -107.91396800        -121.19770400
  -112.42484800        -135.12468000         -76.36070240
  -116.30773600        -103.64628000         -28.98883840
  -104.95567200         -24.22428160          27.34804160
  -140.71845600           5.86414320          86.13968000
  -188.19284800          -6.70576080         150.39444000
  -172.20163200          -8.09288000         162.96196000
  -200.69551200           8.83388480         106.35519200
  -236.23514400          22.57251760          76.56478880
  -242.19179200         -24.44028880          73.68135440
  -265.41137600         -16.54243440          63.63058080
  -256.61945600          -5.21421440          45.06111120
  -270.17450400         -76.93147680         -13.91124720
  -269.90413600         -86.26556000         -36.53144800
  -168.77364800         -60.39857840          -6.20269760
   -91.17603200         -85.52074400         -11.84225120
   -63.35687600         -73.92978640         -32.22370160
   -87.42236800         -43.92576240         -67.66033200
  -190.06681600          11.12079600         -75.09326960
  -271.04997600         189.68820800         -30.45272800
  -272.40324000         244.82440800          12.92943920
  -245.08428800         155.45177600          59.73100640
  -237.69569600         118.86740000          73.63891600
  -268.40591200          11.58809680          47.25456240
  -307.47032000        -163.14792800          14.99652880
  -282.32384000        -195.81699200         -23.89717120
  -238.89541600         -99.98703200         -43.31970240
  -260.01596800         -10.34450560         -20.53165440
  -304.76665600         109.00259200         -11.72733280
  -278.35321600         194.21529600         -46.62466080
  -160.43138400         232.97786400         -42.94681520
   -44.30866240         268.72968800          11.58380480
   -16.04843120         249.51553600          28.32603440
   -61.84053440         244.47679200          33.95032880
  -103.67632000         239.16148800          53.03859680
  -130.07640800         206.40659200          73.14109840
  -184.33189600         153.19585600          84.45978400
  -129.56857600          10.29539120          39.75725200
     0.02002720         -73.82059120          24.21331440
   -21.45051920         -12.33911520          23.78940560
    -6.68191920          -2.25019440          -0.44393520
    80.87587200          16.48759840         -25.57420720
    78.58324080          95.10374400         -88.04941600
   131.95037600          86.90404800         -84.33199200
   257.58456800          36.84091600         -16.31784400
   351.82142400          -4.27150720          53.19976800
   419.48175200         -50.38261440         161.86666400
   482.34748800         -41.00513440         248.29912000
   526.06487200          12.44688000         261.49654400
   546.99325600          71.06637920         225.26836000
   560.63318400         174.57246400         160.08091200
   509.28974400         200.92296800          98.11544800
   394.78779200         162.85705600          49.95822880
   341.75109600         197.80779200           7.25126240
   347.75876800         194.92006400         -29.89292160
   347.08261600         149.42073600         -75.57535200
   369.70138400         105.63755200        -144.80829600
   423.30312800          65.58656720        -221.20142400
   501.88493600          18.64290240        -268.06926400
   553.99465600        -126.52969600        -279.35934400
   480.06964000        -288.99574400        -282.97424000
   362.67328000        -406.77547200        -248.96716800
   315.29188000        -457.18192800        -187.77036800
   303.67231200        -439.91756800        -149.36018400
   366.81223200        -442.74664000        -101.84049600
   445.38784000        -397.84145600        -114.32171200
   439.06259200        -294.17562400         -59.36050400
   338.52624800         -58.83741360          75.77562320
   231.34804000         108.39319200           5.89370720
   275.08831200         -32.63282800         -52.83451120
   337.11910400         -81.67982400         -47.58214960
   339.54572800         -66.65039040        -159.87205600
   262.07352000        -151.28469600        -212.93354400
   169.78407200        -158.09917600        -218.76716800
   232.92398400        -185.24599200        -222.12028800
   236.11736000        -207.53956000        -176.84460000
   154.74510400        -172.31035200        -187.44516800
   151.47400000        -206.36129600        -243.05916000
   185.50920800        -196.39920800        -220.68404800
   238.62648000        -179.50487200        -131.87027200
   185.84728000        -167.05084000         -80.82676000
    36.54241600          53.55024320         -42.26827600
    10.79463920         107.82528000          -3.02982320
     8.83579280          46.51498800         -22.53866160
   -63.51089440         147.04323200         -16.05129280
   -66.48635840         125.84161600          47.32036560
   -63.60006320         144.77300800          98.37627200
  -113.85488800         193.03512800         119.40432000
  -167.64640800         182.50847200         120.27549600
  -184.23032800         208.42123200         142.07458400
  -167.89197600         180.92346400         198.99702400
  -184.08775200         172.81293600         231.79483200
  -197.12352800         171.92888000         180.24921600
  -226.87530400         123.98767200          73.16589360
  -274.59192000           1.60074240          -1.65462480
  -261.13415200         -74.24592960           4.87661360
  -226.27353600         -19.90938160          67.72708880
  -187.96396000          53.64990240         144.25134400
  -157.26804800         112.26654400         178.55977600
  -173.18296000          92.45204800         147.13955200
  -202.82125600          63.01689120         101.52816800
  -224.36714400          68.85099440          43.00308240
  -235.88943200          71.70152640          -2.08806960
  -225.63171200          74.57542400           1.15966800
  -217.16928800          70.67966480          -7.36951840
  -206.55441600          88.14287200         -10.61439520
  -168.53571200         116.14418400          17.02928560
  -126.02758400         157.97376800          28.84721760
  -105.28516800         196.70581600          21.97074880
  -125.31996000         211.56788000           6.58655200
  -163.19752000         163.67006400          -8.76331360
  -184.71479200          87.76474400          10.97726800
  -202.66151200          38.55419120          87.26358400
  -232.18632000         -20.63417440         154.59394400
  -260.35833600         -26.50833120         141.43467200
  -250.08821600         -20.54166800          92.60892800
  -236.47069600         -31.38017680          60.95075600
  -257.89260800          -9.69791440          27.43959440
  -263.17120000         -17.79317840         -24.15752400
  -249.77636000         -53.58648320         -65.02389920
  -230.89742400         -98.89650400         -80.18875200
  -173.43235200        -141.87574400         -82.13949600
  -112.29085600        -158.70619200         -74.60880240
   -97.96285600        -152.04859200         -68.99690640
   -89.42365600        -141.64304800         -52.22940480
   -34.99603280        -132.99274400          -2.35557520
    39.99519360        -118.73484000          52.62184160
    65.12975680        -115.83804800          49.55673200
    60.62507600        -138.87977600           7.90262240
    96.93098400        -167.71316800          -5.96761680
   140.82336000        -183.20036000         -19.99187440
   152.47536000        -194.58913600         -29.04796640
   154.20818400        -193.91346400         -12.19987840
   134.76610400        -181.12659200          38.97714640
   103.07598400         -77.95715360         122.91049600
   164.04437600          -3.65257280         142.91334400
   223.19364800         -83.01020000          70.54901120
   133.20255200         -93.12057600         -40.57502720
   102.72932000         -81.31742400        -106.02044800
   155.77125600        -115.74077600        -106.11104800
   119.88115200         -92.92459200        -115.90385600
   104.23612800         -62.14094160        -106.64033600
   118.28470400          33.65564320         -84.43164800
    89.62202400         152.34756800        -115.55290400
    73.08864560         119.23599200        -139.68468000
    30.35831440          49.61586000        -118.37053600
    -9.64736960          53.63559760         -87.70895200
    -8.68177440           0.54121040         -56.06937440
   -66.35427440         -50.54903040         -46.83113120
   -85.76154400         -20.01380960         -41.63503680
