SERVICIO GEOLOGICO COLOMBIANO- RED NACIONAL DE ACELEROGRAFOS DE COLOMBIA
SISMO DE QUETAME (CUNDINAMARCA) 2008/05/24 19:20:44 ML=5.7
LATITUD DEL EVENTO(GRADOS): 4.4
LONGITUD DEL EVENTO(GRADOS): -73.813
PROFUNDIDAD DEL EVENTO (Km): .3
CODIGO DE LA ESTACION: CGUAD
Estacion:GUADUAS Geol:ROCA Topo:ONDULADA
LATITUD DE LA ESTACION (GRADOS): 5.067
LONGITUD DE LA ESTACION (GRADOS): -74.593
DISTANCIA EPICENTRAL: 113.919 km
DISTANCIA HIPOCENTRAL: 113.919 km
INTERVALO DE MUESTREO (SEGUNDOS): 0.005
NUMERO DE DATOS: 17000
DURACION (SEGUNDOS): 85
UNIDADES: cm/s^2
TIPO DE EQUIPO: ETNA
ESCALA MAXIMA (G): 2
CORRECCION DE LINEA BASE: LINEA BASE NO REMOVIDA
TIPO DE DATOS: NO CORREGIDO
         EW                  VER                  NS
[...]
    -5.74350320           2.27832800           1.99747120
    -5.71060160           2.37464880           2.06375120
    -5.69105120           2.48813600           2.10189840
    -5.65338160           2.58541120           2.09808320
    -5.63812240           2.65264480           2.05659840
    -5.65195120           2.71749520           2.01082240
    -5.68389920           2.72893920           1.90591840
    -5.74254960           2.70128240           1.81722640
    -5.79929360           2.64883040           1.74427040
    -5.91993360           2.49719600           1.60598720
    -6.01482400           2.34174720           1.52874000
    -6.07585920           2.17819200           1.43814080
    -6.15549120           1.93309760           1.30844080
    -6.18028640           1.74093280           1.20162960
    -6.20746640           1.61695520           1.07765200
    -6.20794320           1.52730960           0.91886560
    -6.19983680           1.50489840           0.72813040
    -6.17408720           1.53112400           0.55503840
    -6.11209840           1.62506080           0.33664720
    -6.05773920           1.76572800           0.09632080
    -5.96952400           1.90830240          -0.14925040
    -5.87415680           2.09188480          -0.40960320
    -5.70964800           2.28834160          -0.68569200
    -5.49554800           2.48432160          -0.99706640
    -5.24425520           2.71415680          -1.28698320
    -4.92429760           2.93445600          -1.60169600
    -4.58240480           3.15475440          -1.90019600
    -4.16708000           3.35025760          -2.16341040
    -3.74317200           3.46374480          -2.44092960
    -3.29923600           3.53288640          -2.63547920
    -2.85053280           3.55482080          -2.74944320
    -2.49385840           3.48186480          -2.84385680
    -2.15482720           3.35073440          -2.83718080
    -1.89590480           3.19719280          -2.76947040
    -1.72281280           3.03363840          -2.66265840
    -1.61314000           2.90584560          -2.47573840
    -1.63078320           2.79474240          -2.27737440
    -1.72901120           2.71749520          -2.04038640
    -1.90305680           2.69842160          -1.76382080
    -2.15530400           2.69746800          -1.44767760
    -2.45475760           2.72369360          -1.07431440
    -2.77519200           2.75182720          -0.68330800
    -3.12757520           2.75611840          -0.28467200
    -3.49330880           2.75325760           0.16212480
    -3.80754480           2.70366640           0.62990160
    -4.08935520           2.62594240           1.05524080
    -4.34350960           2.55203280           1.45816800
    -4.58097440           2.45952640           1.79481520
    -4.77504720           2.39658320           2.09283840
    -4.96721280           2.29978560           2.32267360
    -5.18560400           2.17199360           2.49147440
    -5.32817840           2.08091760           2.67839440
    -5.49554800           1.95646320           2.79378880
    -5.66959360           1.85298880           2.90155440
    -5.80787680           1.80339840           3.00073600
    -5.98049200           1.79815280           3.03316080
    -6.14595440           1.83677680           3.01933280
    -6.33716560           1.86729440           2.93064080
    -6.52551680           1.92356080           2.77233120
    -6.70576080           1.99937840           2.52342240
    -6.87742240           2.08282480           2.23159760
    -6.99949280           2.19869600           1.89208960
    -7.08627680           2.33173360           1.52587920
    -7.10773440           2.47716880           1.18684800
    -7.06577280           2.63261760           0.84638560
    -6.98328000           2.78139120           0.52022960
    -6.87122320           2.90393840           0.21457680
    -6.70719120           3.00645840          -0.04196160
    -6.54458960           3.05366480          -0.31137440
    -6.38246560           3.05271120          -0.54979360
    -6.14881520           3.03888320          -0.68807600
    -5.95045120           2.96402000          -0.83303440
    -5.76829920           2.87532800          -0.91457360
    -5.54037120           2.80380240          -0.91743440
    -5.32770160           2.71987920          -0.87881120
    -5.11646240           2.65121440          -0.79154960
    -4.90999200           2.59160960          -0.72908400
    -4.69732320           2.55632400          -0.66852560
    -4.48513040           2.53105200          -0.62847120
    -4.28915040           2.50148800          -0.65231360
    -4.07648080           2.50625600          -0.71954720
    -3.88622320           2.52962080          -0.82778960
    -3.71694560           2.55632400          -0.96702560
    -3.54623760           2.63309440          -1.12342800
    -3.42082960           2.78282160          -1.25169760
    -3.32546240           2.96735760          -1.33800480
    -3.26871840           3.16715280          -1.41763680
    -3.27777840           3.35454960          -1.51062000
    -3.28350080           3.52144240          -1.55115120
    -3.31735600           3.65829440          -1.56307200
    -3.36885440           3.73363520          -1.60408000
    -3.39317360           3.78036480          -1.58643760
    -3.47137440           3.73935680          -1.56688720
    -3.55196000           3.60441200          -1.57213200
    -3.61251840           3.43370400          -1.54542960
    -3.71170080           3.17525840          -1.53303120
    -3.81135920           2.88248080          -1.52301760
    -3.88670000           2.57206000          -1.52635600
    -3.94201280           2.26640720          -1.56116480
    -3.97491440           2.01320640          -1.63173680
    -3.96680800           1.76620480          -1.73759440
    -3.93104560           1.57690080          -1.87492400
    -3.85761280           1.48153280          -2.04658480
    -3.72552880           1.49106960          -2.21395520
    -3.57627840           1.61790880          -2.40993520
    -3.41653840           1.85632720          -2.60162320
    -3.26442720           2.14004480          -2.80475600
    -3.11326960           2.44522080          -3.01408800
    -2.98404720           2.72321680          -3.19671600
    -2.91061440           2.89249440          -3.41129280
    -2.79569600           3.04794320          -3.53622400
    -2.69556080           3.12376000          -3.64542000
    -2.61735920           3.11326960          -3.73935680
    -2.51150160           3.11326960          -3.70502480
    -2.46381760           3.08036800          -3.63731360
    -2.46858560           3.04794320          -3.47948080
    -2.53009760           3.02791600          -3.25870480
    -2.64692320           3.03983680          -2.99930560
    -2.84481040           3.07512320          -2.67219520
    -3.12471360           3.11470000          -2.31409040
    -3.43847280           3.16572160          -1.93214400
    -3.79467040           3.18002720          -1.52301760
    -4.18996800           3.15713920          -1.07574480
    -4.59623360           3.11374640          -0.62465680
    -4.99534640           3.04842000          -0.14972720
    -5.40256480           2.95305280           0.34570720
    -5.75399360           2.86054640           0.84400160
    -6.09207120           2.77376160           1.32274640
    -6.40964480           2.70938880           1.76763520
    -6.63518880           2.68840800           2.24971760
    -6.83784480           2.63071040           2.67171840
    -6.95848480           2.55250960           3.02982320
    -7.01332080           2.46858560           3.40127920
    -7.01093680           2.32601200           3.68070640
    -6.89744960           2.13336960           3.89528240
    -6.73484800           1.89256640           4.04167200
    -6.51407280           1.61218640           4.06217600
    -6.23559920           1.34468080           3.97348400
    -5.93042400           1.10387840           3.74889360
    -5.62381760           0.89550000           3.38411360
    -5.30052160           0.74958800           2.88105040
    -4.98962400           0.68426160           2.28118880
    -4.74405280           0.68044640           1.62076960
    -4.50134240           0.73528320           0.93174000
    -4.28199760           0.88119520           0.24604800
    -4.08411040           1.09529520          -0.41866320
    -3.88336160           1.37853600          -1.04761120
    -3.68595120           1.71756720          -1.62887600
    -3.48281840           2.07614880          -2.13146240
    -3.33452240           2.41088880          -2.60066960
    -3.15856960           2.72846240          -2.98547760
    -2.97021840           3.06701680          -3.27205680
    -2.82096880           3.39317360          -3.51762800
    -2.64406240           3.76415280          -3.63588320
    -2.51293200           4.15372880          -3.65400320
    -2.41708720           4.50944880          -3.60155120
    -2.33125680           4.80794880          -3.44944000
    -2.26306880           4.98819360          -3.22484960
    -2.21157040           5.08642160          -2.94828400
    -2.18296080           5.08022320          -2.62260400
    -2.14195280           5.00202160          -2.26259200
    -2.11620320           4.89282640          -1.91259360
    -2.10046800           4.71305840          -1.57976160
    -2.11095840           4.51660160          -1.29413600
    -2.16054880           4.29487200          -1.04618080
    -2.26783760           4.03261200          -0.80919280
    -2.42090240           3.78274880          -0.59795360
    -2.57539760           3.53479360          -0.38528480
    -2.82049200           3.28636160          -0.14877280
    -3.11088560           3.10087200           0.14162080
    -3.42464480           2.94923760           0.47349920
    -3.84187680           2.77614560           0.83351120
    -4.31299200           2.65502960           1.26457200
    -4.85467920           2.51865360           1.73664080
    -5.44643440           2.36558880           2.20966320
    -6.04963280           2.22826000           2.70318960
    -6.67762720           2.03466400           3.17859680
    -7.28082640           1.86777120           3.63159200
    -7.85732240           1.69420240           4.07838800
    -8.38279760           1.52158720           4.45699680
    -8.81528880           1.39093360           4.77838480
    -9.17291680           1.22356400           5.03396960
    -9.41658000           1.07955920           5.18226640
    -9.55724720           0.98276160           5.24759280
    -9.60063920           0.93984640           5.24997680
    -9.52577600           0.96845600           5.17034560
    -9.38034080           1.05571760           4.99582320
    -9.17625440           1.21641120           4.75168240
    -8.90064240           1.43480320           4.45508960
    -8.59832800           1.68180480           4.09555440
    -8.26978720           1.96743040           3.69644160
    -7.84635520           2.32267360           3.33929040
    -7.42816960           2.68173200           2.99119920
    -7.03573200           3.01694880           2.64930720
    -6.61087040           3.37123840           2.39086160
    -6.23559920           3.68690480           2.19535840
    -5.87606400           3.94105920           2.09283840
    -5.54704640           4.15039040           2.07567200
    -5.28669360           4.27436800           2.14624400
    -5.04255280           4.33969520           2.32458080
    -4.83322160           4.37545760           2.56729120
    -4.67443440           4.34207920           2.85959280
    -4.56094720           4.24814240           3.17049040
    -4.48846800           4.08697120           3.46708320
    -4.45365920           3.82852560           3.74031040
    -4.45508960           3.48186480           3.99684880
    -4.49180640           3.07750720           4.22525440
    -4.53042960           2.65455280           4.44602960
    -4.60147840           2.20870960           4.61864480
    -4.71210480           1.75619120           4.71162800
    -4.78744480           1.36709200           4.75978880
    -4.88567360           1.01566320           4.66871280
    -5.01012800           0.69761280           4.42457200
    -5.07020960           0.51116960           4.07934160
    -5.08070000           0.43010720           3.60584240
    -5.05638160           0.42724640           2.95925120
    -4.98390160           0.52166000           2.19774240
    -4.86087760           0.69952000           1.35946240
    -4.70399840           0.90026880           0.39148320
    -4.51993920           1.06954560          -0.65851200
    -4.31013120           1.23834640          -1.78003280
    -4.08315680           1.38139760          -2.96306640
    -3.84426080           1.49917600          -4.17327920
    -3.64017520           1.61218640          -5.39636640
    -3.45897680           1.73711760          -6.57892240
    -3.30018960           1.85537360          -7.70139680
    -3.18002720           1.93738960          -8.74805440
    -3.07083120           1.99890160          -9.66882720
    -2.97021840           1.98459600         -10.44654880
    -2.83002880           1.91020960         -11.06405280
    -2.64787680           1.80387520         -11.47937760
    -2.39181520           1.69181840         -11.69395440
    -2.07042720           1.60503360         -11.70921360
    -1.72853440           1.55162800         -11.55138000
    -1.33180640           1.57260880         -11.23952880
    -0.94413760           1.64127360         -10.78701040
    -0.54168720           1.72996560         -10.25199920
    -0.12588480           1.85346640          -9.61399040
     0.26130640           2.04277040          -8.87870800
     0.62894800           2.29024880          -8.05425680
     0.93984640           2.60162320          -7.12633120
     1.19209280           2.97308000          -6.14261600
     1.33609760           3.34405920          -5.10835680
     1.37615200           3.65972480          -4.07314320
     1.29985840           3.83806240          -3.07083120
     1.07812880           3.86762640          -2.08902320
     0.71907040           3.75413920          -1.14440880
     0.23460400           3.53145600          -0.21314640
    -0.34809120           3.21912800           0.67996960
    -1.06763840           2.84862480           1.52397120
    -1.85585040           2.53295920           2.37703360
    -2.73418400           2.20680240           3.20339200
    -3.71742240           1.84869760           3.99875680
    -4.71544240           1.51538880           4.80890240
    -5.73873520           1.16491280           5.58900800
    -6.71625120           0.81253040           6.33907280
    -7.62176480           0.50401680           7.07101840
    -8.43381920           0.29563920           7.75241840
    -9.15098160           0.16403200           8.36133920
    -9.79232800           0.10728800           8.89587440
   -10.31112640           0.12922320           9.30833840
   -10.74314080           0.18119840           9.55534000
   -11.06405280           0.28705600           9.68790080
   -11.26909280           0.40721920           9.67407200
   -11.36398320           0.55265440           9.52386880
   -11.31725280           0.77199920           9.29260240
   -11.10982880           1.03664400           8.95309440
   -10.76555280           1.32083920           8.51631200
   -10.33973680           1.57928480           7.97224080
    -9.77420800           1.83486960           7.39526720
    -9.16528720           2.04467760           6.75916640
    -8.59928160           2.17580800           6.02006880
    -7.99751280           2.28214240           5.26428240
    -7.44438160           2.34222400           4.42361840
    -6.95371600           2.39086160           3.52859520
    -6.48927680           2.42280960           2.59304080
    -6.09874720           2.45046640           1.59311280
    -5.74970240           2.50387200           0.54740880
    -5.41973120           2.53009760          -0.55694560
    -5.09977360           2.59065600          -1.68228160
    -4.75740400           2.68840800          -2.84767120
    -4.35686080           2.81524640          -3.99827920
    -3.89194480           2.99739840          -5.14602640
    -3.36742400           3.22580320          -6.26420960
    -2.75659600           3.49950800          -7.31754320
    -2.09236160           3.77798080          -8.30936400
    -1.36995280           4.06742080          -9.19103600
    -0.59032480           4.35638400          -9.99450720
     0.22888160           4.67252720         -10.61916320
     1.05667120           4.95910640         -11.13891600
     1.86157200           5.22518160         -11.51132560
     2.63738640           5.49364080         -11.65342320
     3.26347360           5.61094320         -11.69586160
     3.77702720           5.62810880         -11.53612160
     4.21094880           5.51795920         -11.19518320
     4.46558000           5.23948640         -10.67638400
     4.57668320           4.83846640          -9.94682320
     4.53329120           4.33063520          -9.04989280
     4.28819680           3.79133200          -8.00132720
     3.83472480           3.21912800          -6.85405760
     3.16000000           2.67982480          -5.61571120
     2.29740160           2.20251120          -4.34303280
     1.27553920           1.78527840          -3.05843360
     0.10299680           1.43814080          -1.82294880
    -1.15299200           1.14154800          -0.64468400
    -2.47192400           0.89168560           0.46443920
    -3.83186320           0.65803520           1.45721440
    -5.13458240           0.50687760           2.40135200
    -6.43777840           0.42200080           3.17287440
    -7.66563440           0.39005280           3.81326640
    -8.74376320           0.46825440           4.38213360
    -9.77182400           0.57077440           4.72784080
   -10.60819600           0.72383920           4.96196720
   -11.25478720           0.92554080           5.09357440
   -11.73639280           1.07955920           5.07211680
   -11.96765920           1.24549840           4.99391520
   -12.01963440           1.42478960           4.85754000
   -11.85846320           1.56354880           4.64105600
   -11.48033120           1.69992480           4.35113920
   -10.93721360           1.83010080           4.01258480
   -10.23721680           1.94454160           3.59916720
    -9.42993200           2.06089040           3.11040880
    -8.57019440           2.15292000           2.56824480
    -7.67087920           2.26926800           1.99508640
    -6.74390800           2.42948560           1.41048400
    -5.84602320           2.60972960           0.80585440
    -4.97388800           2.84290320           0.23794160
    -4.16898720           3.10707120          -0.28800960
    -3.42845920           3.39317360          -0.73385200
    -2.76660880           3.69310400          -1.10054000
    -2.28357280           3.98778880          -1.42431280
    -1.90258000           4.29201120          -1.61314000
