SERVICIO GEOLOGICO COLOMBIANO- RED NACIONAL DE ACELEROGRAFOS DE COLOMBIA
SISMO DE QUETAME (CUNDINAMARCA) 2008/05/24 19:20:44 ML=5.7
LATITUD DEL EVENTO(GRADOS): 4.4
LONGITUD DEL EVENTO(GRADOS): -73.813
PROFUNDIDAD DEL EVENTO (Km): .3
CODIGO DE LA ESTACION: CREAC
Estacion:BOGOTA, REACTOR NUCLEAR Geol:EDIFICIO Topo:EDIFICIO
LATITUD DE LA ESTACION (GRADOS): 4.642
LONGITUD DE LA ESTACION (GRADOS): -74.095
DISTANCIA EPICENTRAL: 41.248 km
DISTANCIA HIPOCENTRAL: 41.249 km
INTERVALO DE MUESTREO (SEGUNDOS): 0.005
NUMERO DE DATOS: 24400
DURACION (SEGUNDOS): 122
UNIDADES: cm/s^2
TIPO DE EQUIPO: ETNA
ESCALA MAXIMA (G): 2
CORRECCION DE LINEA BASE: LINEA BASE NO REMOVIDA
TIPO DE DATOS: NO CORREGIDO
         NS                  EW                  VER
[...]
   -16.30401600          -9.07325760          -6.84165920
   -17.37546960          -9.05180000          -6.97851200
   -18.28622800          -9.15432000          -7.26032240
   -19.29760000          -9.38320160          -7.68566160
   -20.05100240          -9.57536720          -8.31651680
   -20.55406560          -9.83285920          -8.98694960
   -21.19207360         -10.22052800          -9.78422160
   -21.50487920         -10.55431360         -10.48803360
   -21.84677120         -10.94293600         -11.01446160
   -22.22156560         -11.42358800         -11.58046720
   -22.06897760         -11.83128320         -11.71779600
   -22.24445360         -12.36486400         -11.75737360
   -22.19963040         -12.93611520         -11.68394080
   -21.70133600         -13.56983200         -11.36016880
   -21.57354320         -14.23358880         -11.18469200
   -20.99752400         -14.88924000         -10.91814080
   -20.20835840         -15.73991760         -10.80465280
   -19.60945120         -16.70169840         -10.89620560
   -18.63479600         -17.90380480         -11.04784000
   -17.69256560         -19.18363600         -11.46936400
   -16.71695680         -20.63703520         -11.88325920
   -15.77758800         -22.37367600         -12.27712640
   -15.04135120         -24.00445920         -12.99524320
   -13.96417600         -25.91228480         -13.54932800
   -13.44060880         -27.91404720         -14.21070080
   -12.86029840         -29.66547040         -15.02990720
   -11.94238640         -31.58998480         -15.43378800
   -11.86037040         -33.32138080         -16.14093760
   -11.16228080         -34.75284560         -16.39270800
   -10.77461280         -36.19766240         -16.35026960
   -10.72740560         -37.27293040         -16.46709440
    -9.80949440         -38.07449360         -15.92540720
    -9.68265520         -38.91181920         -15.58494560
    -9.15098160         -39.41392880         -15.06280880
    -8.23736160         -39.70050800         -14.39857520
    -7.88450240         -40.01426720         -14.01186000
    -6.90364800         -40.12346240         -13.42916480
    -5.99908800         -40.20214080         -13.11397520
    -5.30290640         -40.28177280         -12.80832320
    -4.30393200         -40.25983840         -12.44211200
    -3.38268320         -40.17543760         -12.24040960
    -2.58445760         -40.12537040         -12.03298560
    -1.85680400         -40.05813600         -11.97481120
    -1.00660320         -39.79587520         -11.87706000
    -0.44584240         -39.55888720         -11.79885840
    -0.06961840         -39.16025200         -11.72161120
     0.50354000         -38.56086720         -11.44599920
     0.61702720         -37.90569280         -11.28578160
     0.81396080         -37.04786320         -10.78605680
     0.90599040         -36.07273120         -10.26344320
     0.67949280         -34.97982000          -9.85956160
     0.66566480         -33.71810880          -9.12141760
     0.31757360         -32.41586720          -8.56828720
     0.04434560         -31.17799760          -7.90166880
    -0.22029840         -29.82282640          -7.13491440
    -0.78582800         -28.56874480          -6.36053120
    -1.20258320         -27.29082080          -5.59806800
    -1.53303120         -25.95424640          -4.96768960
    -2.07519520         -24.82604960          -4.34827840
    -2.51531600         -23.54621920          -3.84664560
    -2.82430640         -22.38845840          -3.39698800
    -3.22914160         -21.21162400          -3.02839280
    -3.53479360         -20.05052560          -2.58922560
    -4.00352480         -19.02246480          -2.38847760
    -4.20570400         -17.84801520          -2.23255120
    -4.57239120         -16.89052560          -2.19631200
    -5.10168080         -15.83671600          -2.39801440
    -5.39350480         -14.78433600          -2.54917120
    -6.08253440         -13.82446320          -3.03125360
    -6.60371760         -12.78877280          -3.38745120
    -7.36618080         -11.96098320          -3.83138640
    -8.30316560         -11.09981520          -4.27770640
    -9.20391120         -10.36453280          -4.63104240
   -10.41650800          -9.80186480          -5.11884720
   -11.65103920          -9.24921040          -5.40828720
   -13.11349840          -8.85534320          -5.76114640
   -14.64700720          -8.44335520          -5.92374800
   -16.34216320          -8.09860240          -6.02436080
   -18.13316320          -7.87734960          -6.03437440
   -19.96850960          -7.53927200          -5.97906080
   -21.68512320          -7.28940960          -5.85556000
   -23.48232240          -7.13014640          -5.57994880
   -25.11596640          -6.94322560          -5.45024880
   -26.23748800          -6.88600560          -5.08785280
   -27.64320400          -6.80017440          -4.88853440
   -28.36036720          -6.80160560          -4.76074240
   -28.89394800          -6.89029680          -4.58288160
   -29.70409360          -7.03525520          -4.66823600
   -29.75463840          -7.21836080          -4.69160080
   -30.10368320          -7.43627520          -4.81224080
   -30.48706080          -7.91406640          -5.12886080
   -30.40933600          -8.28599920          -5.23948640
   -30.85231760          -8.92210000          -5.34248320
   -31.21900560          -9.71841840          -5.47838240
   -31.39686560         -10.37740720          -5.37300080
   -32.09161760         -11.33823360          -5.49316400
   -32.45925920         -12.29047760          -5.45549360
   -32.86075600         -13.32521440          -5.44166560
   -33.33902320         -14.52398320          -5.42020800
   -33.38670720         -15.71321520          -5.28478640
   -33.34188480         -16.90006240          -5.26618960
   -33.16783920         -18.16988000          -4.96387520
   -32.88078320         -19.42491520          -4.94194000
   -32.04202640         -20.65372480          -4.79936560
   -31.35395040         -21.96884160          -4.73976160
   -30.53808240         -23.21004880          -4.73260880
   -29.32119360         -24.46556080          -4.62722800
   -28.34796880         -25.60520160          -4.77933920
   -27.17256560         -26.70717200          -4.73022480
   -26.15356480         -27.74572400          -4.84609600
   -25.15459040         -28.71751760          -4.97055040
   -24.26195120         -29.73318080          -5.11980080
   -23.59151840         -30.58242800          -5.29670720
   -22.84336080         -31.39448160          -5.52892720
   -22.28784560         -32.18221680          -5.77068320
   -21.95692080         -33.00857520          -5.95188160
   -21.66509600         -33.77389920          -6.25324240
   -21.45051920         -34.48152560          -6.45589840
   -21.44193680         -35.10475120          -6.76345840
   -21.34513840         -35.60352320          -7.05337520
   -21.30746880         -36.10277200          -7.32708000
   -21.36659600         -36.39268880          -7.61318240
   -21.23212800         -36.58199280          -7.85493840
   -21.21210080         -36.60583520          -7.89642320
   -21.32463440         -36.48233440          -7.99560560
   -21.01802800         -36.20100000          -8.01086400
   -21.03805520         -35.81190080          -7.78293600
   -21.16537120         -35.43949120          -7.77149200
   -20.63274400         -34.85155120          -7.59029360
   -20.65944640         -34.35325600          -7.56025280
   -20.50495120         -33.82253680          -7.62844080
   -19.90938160         -33.19311120          -7.68518480
   -19.90985840         -32.75156000          -7.95745840
   -19.64330640         -32.20510480          -8.23926960
   -19.13261440         -31.68392160          -8.44955440
   -19.16217840         -31.26144400          -8.61215600
   -18.93186560         -30.67636480          -8.84723680
   -18.52893840         -30.18522240          -8.85009760
   -18.85175680         -29.69360320          -8.91637840
   -18.64767040         -29.01172640          -8.82625600
   -18.63288880         -28.41854080          -8.46099840
   -19.25611520         -27.79245360          -8.27360160
   -19.00577520         -27.14014080          -7.82918960
   -19.35911200         -26.64232240          -7.36951840
   -19.95372800         -26.26037600          -6.90889360
   -19.95563520         -25.88462800          -6.35719280
   -20.48158640         -25.58612800          -5.96904720
   -20.80154400         -25.45118320          -5.56373600
   -20.89548080         -25.30145680          -5.22994960
   -21.26884480         -25.35104720          -4.95862960
   -21.41332640         -25.38681040          -4.76741760
   -21.35658240         -25.33721920          -4.59575680
   -21.57306640         -25.48694640          -4.52232400
   -21.54159520         -25.45499840          -4.49371360
   -21.37756320         -25.46310400          -4.40549840
   -21.60406080         -25.45833600          -4.52375440
   -21.37088800         -25.32672880          -4.56666960
   -21.33846320         -25.35200080          -4.62007520
   -21.59738560         -25.26617040          -4.86707680
   -21.28934880         -25.28858160          -5.09405120
   -21.48628240         -25.40493040          -5.38969040
   -21.76809280         -25.50268160          -5.78975680
   -21.59929280         -25.70724480          -6.21843360
   -21.95692080         -26.04007760          -6.59179680
   -22.26257360         -26.50833120          -6.92510640
   -22.29213680         -26.95608160          -7.23648080
   -22.61114160         -27.69660960          -7.51638400
   -22.80235280         -28.50103360          -7.72857680
   -22.84574480         -29.26206560          -7.90548320
   -22.88866080         -30.14564480          -8.21447360
   -22.69220320         -30.98249440          -8.36896880
   -22.63927440         -31.88133200          -8.45766080
   -22.36461600         -32.57513040          -8.66222400
   -21.75951040         -33.25319280          -8.58020800
   -21.61788960         -33.90121440          -8.50152960
   -21.02232000         -34.29174400          -8.28170800
   -20.48921600         -34.69991680          -7.95602800
   -20.41053760         -35.02225840          -7.79247280
   -19.79303360         -35.21823920          -7.42864640
   -19.68050000         -35.38417840          -7.27415120
   -19.59514640         -35.55107120          -7.22837440
   -19.21749120         -35.58444960          -7.07483280
   -19.38200000         -35.61067600          -7.05003760
   -19.34432960         -35.62307360          -6.92701360
   -19.32954800         -35.51816960          -6.79206880
   -19.49358000         -35.47239280          -6.76107440
   -19.37818560         -35.32981840          -6.61897680
   -19.41776240         -35.13526880          -6.51741040
   -19.36483360         -34.97695920          -6.46352800
   -19.10066640         -34.72805040          -6.42299680
   -18.84698880         -34.45243840          -6.42204320
   -18.48077760         -34.15822960          -6.38484960
   -18.02444480         -33.76054800          -6.28709760
   -17.47751200         -33.28180320          -6.07061360
   -16.82472240         -32.68814080          -5.86223600
   -15.99597920         -32.09924720          -5.56421280
   -15.15007040         -31.39734240          -5.36298720
   -14.07909360         -30.54142000          -5.22041360
   -13.02385360         -29.69884880          -5.16319280
   -11.88039760         -28.67937120          -5.31101200
   -10.41173920         -27.62270000          -5.49745520
    -9.21297040         -26.46970720          -5.72967520
    -7.86304480         -25.11405920          -5.92899360
    -6.35814640         -23.65636800          -6.17027280
    -5.11503200         -22.13382720          -6.33049040
    -3.87525520         -20.56264880          -6.55794160
    -2.53200560         -18.85604880          -6.65760080
    -1.54352160         -17.16899840          -6.67047520
    -0.63896160         -15.37752160          -6.70051600
     0.37860880         -13.55552640          -6.46448160
     0.84734000         -11.81793200          -6.27231600
     1.42383600         -10.00976560          -5.90324400
     1.95503200          -8.32796080          -5.35535840
     1.91402400          -6.68096560          -4.90284000
     2.15625760          -4.98342480          -4.33635680
     2.14242960          -3.44753280          -3.76033760
     1.70993840          -1.94931040          -3.30591200
     1.63602800          -0.40626560          -2.86006960
     1.29222880           1.04713440          -2.63500240
     0.80156320           2.44998960          -2.62022000
     0.59032480           3.84330720          -2.78854400
     0.23269680           5.22708880          -3.21006800
    -0.15449520           6.54983520          -3.78227200
    -0.34379920           7.90452960          -4.44698320
    -0.56171440           9.26303840          -5.08403760
    -0.84018720          10.49566240          -5.74350320
    -0.88167200          11.70206080          -6.31809200
    -1.05142560          12.73584400          -6.77156480
    -1.38044320          13.59415040          -7.20453280
    -1.52778640          14.26982880          -7.55691520
    -1.89352000          14.69898240          -7.94124640
    -2.29597120          14.93978480          -8.31222560
    -2.72703200          14.91069760          -8.56304160
    -3.39984880          14.65415920          -8.75043840
    -4.02212160          14.16397120          -8.78763200
    -4.79555120          13.43774800          -8.75806800
    -5.61475760          12.55750640          -8.62979920
    -6.44207040          11.50703440          -8.42475920
    -7.38239280          10.31732560          -8.14151760
    -8.31365600           9.02748080          -7.89499280
    -9.15479680           7.66801840          -7.72237760
   -10.02740880           6.25228880          -7.56311440
   -10.90240480           4.68206400          -7.48586640
   -11.62433600           3.15380080          -7.35235200
   -12.43019120           1.68371200          -7.36331920
   -13.12017440           0.09822880          -7.35139840
   -13.78250160          -1.42955760          -7.45868720
   -14.40429680          -2.99406080          -7.59553920
   -14.99652880          -4.53090640          -7.61365920
   -15.56062720          -5.95426560          -7.80200960
   -15.94638800          -7.39049920          -7.93457040
   -16.45326640          -8.70895360          -8.06713120
   -16.87574400          -9.95731360          -8.27121760
   -17.20952960         -11.12127280          -8.50915920
   -17.61245760         -12.16936080          -8.72373600
   -17.93050800         -13.13495600          -8.95214080
   -18.26000240         -13.97991200          -9.04226320
   -18.79358320         -14.76526240          -9.18340720
   -19.25230000         -15.54060000          -9.29164880
   -19.82593520         -16.29447920          -9.44995920
   -20.40052400         -16.93773280          -9.70649680
   -21.01755120         -17.63296160          -9.87291360
   -21.73280720         -18.35727680         -10.35547280
   -22.05467200         -19.00434480         -10.57195680
   -22.85528160         -19.67239360         -10.81895840
   -23.47135520         -20.19071600         -11.05546960
   -23.72550960         -20.60127280         -11.09838480
   -24.28770080         -21.07906320         -11.15179040
   -24.55997440         -21.49581920         -10.93482960
   -24.62768560         -21.74377440         -10.73217360
   -24.65248080         -22.06707040         -10.44511760
   -24.59955200         -22.38035200         -10.25962800
   -24.28054800         -22.68075920          -9.98926160
   -24.12128480         -23.04649360          -9.81903040
   -23.68259440         -23.30255520          -9.64307760
   -23.22244640         -23.74839760          -9.47713840
   -23.06366000         -24.14798720          -9.43183920
   -22.57776240         -24.48988000          -9.14430640
   -22.34411200         -24.90997280          -9.06515120
   -22.00984960         -25.37012080          -8.84866720
   -21.75426480         -25.99525440          -8.71276880
   -21.57735840         -26.49927120          -8.60166560
   -21.30651440         -27.06146240          -8.49342320
   -21.17395440         -27.57072480          -8.52394080
   -20.92409120         -28.02896480          -8.51964960
   -20.73192560         -28.49817280          -8.73613360
   -20.44153200         -28.85341680          -8.87250880
   -20.17736400         -29.20913680          -9.06276720
   -19.83737920         -29.48045760          -9.21440160
   -19.37961600         -29.68311280          -9.33599440
   -18.94664800         -29.73985680          -9.35220720
   -18.56517760         -29.88004720          -9.38749280
   -17.98200640         -29.90865680          -9.38749280
   -17.39549600         -29.80709040          -9.33504080
   -16.97254160         -29.68692800          -9.49144400
   -16.23392080         -29.44707840          -9.55867760
   -15.68889600         -29.15763840          -9.86480720
   -15.07568320         -28.63454800          -9.93585600
   -14.52255280         -28.18679840         -10.15949280
   -13.98849520         -27.63414400         -10.39028160
   -13.43441040         -27.06098560         -10.37263840
   -13.14830800         -26.53932560         -10.59627520
   -12.60519040         -25.92229840         -10.44940960
   -12.51220720         -25.50411200         -10.55765120
   -12.31002800         -25.03681200         -10.51807440
   -12.10117360         -24.68729040         -10.53810080
   -12.17746720         -24.48701840         -10.71357760
   -12.17794400         -24.41120160         -10.59293760
   -12.54558560         -24.46079280         -10.79845440
   -12.62712480         -24.61385760         -10.71691520
   -13.06390800         -25.01392400         -10.73217360
   -13.42868800         -25.41303600         -10.83946240
   -13.46540480         -25.98238000         -10.84709200
   -14.06383520         -26.69334400         -11.13653200
   -14.13154640         -27.33564400         -11.30628560
   -14.22691360         -28.05423760         -11.64579360
   -14.50729360         -28.77521520         -11.98864000
   -14.27507440         -29.41179280         -12.19844800
   -14.28556480         -30.10559120         -12.54701600
   -14.29176320         -30.77411680         -12.61138880
   -14.15538800         -31.26907360         -12.73679760
   -13.94796400         -31.70013440         -12.80307760
   -13.88502160         -32.06253040         -12.78352720
   -13.79299200         -32.29188880         -12.98713680
   -13.51547280         -32.41443600         -12.86220560
   -13.74721520         -32.40537680         -12.88652400
   -13.53597680         -32.30190240         -12.75777840
   -13.49639920         -32.33480480         -12.56704320
   -13.83638400         -32.20224400         -12.59470000
   -13.55361920         -31.85081520         -12.37583200
   -13.80205120         -31.54802320         -12.48359680
