SERVICIO GEOLOGICO COLOMBIANO- RED NACIONAL DE ACELEROGRAFOS DE COLOMBIA
SISMO DE QUETAME (CUNDINAMARCA) 2008/05/24 19:20:44 ML=5.7
LATITUD DEL EVENTO(GRADOS): 4.4
LONGITUD DEL EVENTO(GRADOS): -73.813
PROFUNDIDAD DEL EVENTO (Km): .3
CODIGO DE LA ESTACION: CANSE
Estacion:ANSERMA Geol:ROCA Topo:ONDULADA
LATITUD DE LA ESTACION (GRADOS): 5.264
LONGITUD DE LA ESTACION (GRADOS): -75.815
DISTANCIA EPICENTRAL: 242.033 km
DISTANCIA HIPOCENTRAL: 242.033 km
INTERVALO DE MUESTREO (SEGUNDOS): 0.005
NUMERO DE DATOS: 5200
DURACION (SEGUNDOS): 26
UNIDADES: cm/s^2
TIPO DE EQUIPO: ETNA
ESCALA MAXIMA (G): 2
CORRECCION DE LINEA BASE: LINEA BASE NO REMOVIDA
TIPO DE DATOS: NO CORREGIDO
         EW                  VER                  NS
[...]
    -5.29813760         -13.14258560           3.48043440
    -5.28192560         -13.12160480           3.49760080
    -5.27286560         -13.10110080           3.48901760
    -5.26523600         -13.08536560           3.47709680
    -5.25140800         -13.06819920           3.49664720
    -5.27334240         -13.05866240           3.48234160
    -5.25617600         -13.04054240           3.47662000
    -5.25379200         -13.02146880           3.48377200
    -5.26237520         -13.00048800           3.48472560
    -5.22518160         -12.97760000           3.48758720
    -5.21564480         -12.96377200           3.49760080
    -5.22756560         -12.95328160           3.49473920
    -5.22089040         -12.94565200           3.46851360
    -5.20658480         -12.92705520           3.46708320
    -5.21421440         -12.91465760           3.46136080
    -5.19990960         -12.89701440           3.45754640
    -5.18465040         -12.89510720           3.45993040
    -5.20420080         -12.88270960           3.44657920
    -5.20229360         -12.86077520           3.43942640
    -5.18512720         -12.86745040           3.43513520
    -5.17559040         -12.86125200           3.43227360
    -5.18608080         -12.85600640           3.42369040
    -5.19609440         -12.84599280           3.41272320
    -5.18798800         -12.84742320           3.39126560
    -5.18655760         -12.84503920           3.39698800
    -5.19514080         -12.83884080           3.41033920
    -5.18608080         -12.85314560           3.40270960
    -5.19657120         -12.85648320           3.40557120
    -5.21802880         -12.86458960           3.40938560
    -5.20134000         -12.85409920           3.44610240
    -5.21087680         -12.87221920           3.47805040
    -5.25093040         -12.89129280           3.49664720
    -5.27048080         -12.88318640           3.52764160
    -5.28430960         -12.90273680           3.54719200
    -5.31816480         -12.90464400           3.58295440
    -5.34343680         -12.91942560           3.63016160
    -5.34629840         -12.93468480           3.66258640
    -5.37109360         -12.93468480           3.70311760
    -5.39732000         -12.94469840           3.76081440
    -5.40447200         -12.94898960           3.79276240
    -5.41782400         -12.97235520           3.82757200
    -5.43260560         -12.98332240           3.88956080
    -5.43451280         -12.97616960           3.93199920
    -5.43498960         -12.99095120           3.97634480
    -5.45978560         -13.01670080           4.01926080
    -5.47313680         -13.03720480           4.04834720
    -5.46646080         -13.04769520           4.09746160
    -5.48505760         -13.07487520           4.13751600
    -5.50603840         -13.09061040           4.17804720
    -5.50937680         -13.08727280           4.21857840
    -5.51128400         -13.11683680           4.24146640
    -5.52940400         -13.14067840           4.27150720
    -5.52225120         -13.14735440           4.29534880
    -5.49650160         -13.17739520           4.30011760
    -5.49650160         -13.18454720           4.29821040
    -5.48934960         -13.17644080           4.29439520
    -5.46550720         -13.20076000           4.27913680
    -5.43355920         -13.21411120           4.26244720
    -5.41973120         -13.22984720           4.24289680
    -5.38826000         -13.24272160           4.21571760
    -5.34248320         -13.25988800           4.19664400
    -5.32770160         -13.27419280           4.19378320
    -5.30862800         -13.27419280           4.17852400
    -5.27763360         -13.30041920           4.17327920
    -5.26046720         -13.31424720           4.19998160
    -5.26762000         -13.33379760           4.21810160
    -5.24568560         -13.34095040           4.24337360
    -5.22994960         -13.35334800           4.28295120
    -5.23948640         -13.37242160           4.33540320
    -5.22470480         -13.36908320           4.37498080
    -5.21898240         -13.39626320           4.40788240
    -5.23614880         -13.39912400           4.45318240
    -5.24568560         -13.40436960           4.49037520
    -5.22089040         -13.42058160           4.53233680
    -5.22661200         -13.41629040           4.54711920
    -5.24234800         -13.43774800           4.55617920
    -5.21802880         -13.46349680           4.57191440
    -5.21898240         -13.48209360           4.55713280
    -5.22470480         -13.48638560           4.55236400
    -5.19895520         -13.51165760           4.54711920
    -5.18941840         -13.53788400           4.53138320
    -5.20134000         -13.54455920           4.53758240
    -5.18798800         -13.58222960           4.52947600
    -5.17225280         -13.59033600           4.53138320
    -5.17654400         -13.60607120           4.54187360
    -5.18894160         -13.64088080           4.52899920
    -5.18226640         -13.65900000           4.53996640
    -5.17845120         -13.68999520           4.55379520
    -5.19037280         -13.68474960           4.56714640
    -5.17511360         -13.70191600           4.57763680
    -5.17702080         -13.73577120           4.58049760
    -5.18894160         -13.73577120           4.59384880
    -5.18989600         -13.75675200           4.59432640
    -5.17129920         -13.77964000           4.59003440
    -5.15985520         -13.79251520           4.58478960
    -5.17177600         -13.80586640           4.59051120
    -5.16176240         -13.82827760           4.58288160
    -5.15127200         -13.85450400           4.57620640
    -5.13458240         -13.87119280           4.58765040
    -5.12075440         -13.87786880           4.59003440
    -5.11407840         -13.88835920           4.60386240
    -5.11598560         -13.92650640           4.60958480
    -5.10168080         -13.93938080           4.63008880
    -5.09262080         -13.95511600           4.63771840
    -5.09262080         -13.98134240           4.62102880
    -5.06496400         -13.97514320           4.63294960
    -5.05828880         -14.00232320           4.61244560
    -5.01871120         -14.02473440           4.58240480
    -4.98914720         -14.03474800           4.56953040
    -4.96864320         -14.04762240           4.50754160
    -4.90665440         -14.06288160           4.46748720
    -4.89282640         -14.09387600           4.43124800
    -4.88042800         -14.09721360           4.36306000
    -4.84037360         -14.11724080           4.32491280
    -4.81176400         -14.12773120           4.28009040
    -4.79364400         -14.13011520           4.25338720
    -4.76312640         -14.16778560           4.23097600
    -4.72307200         -14.16349440           4.20904160
    -4.70876720         -14.15252720           4.21237920
    -4.68444800         -14.17064640           4.19998160
    -4.66203680         -14.18018320           4.20093520
    -4.64582480         -14.16492480           4.21667120
    -4.61435280         -14.17016960           4.23574480
    -4.60672400         -14.19401200           4.24146640
    -4.58717360         -14.18781280           4.24814240
    -4.55808640         -14.19305840           4.26197040
    -4.54521200         -14.18733600           4.25958640
    -4.52947600         -14.20354880           4.27103040
    -4.52184640         -14.21070080           4.28199760
    -4.50849520         -14.20354880           4.27579840
    -4.48370000         -14.22786720           4.27722960
    -4.48465360         -14.21499280           4.28104400
    -4.49323680         -14.23597360           4.27436800
    -4.47130240         -14.24264880           4.27818320
    -4.49037520         -14.22452960           4.27103040
    -4.50515760         -14.23835760           4.26816960
    -4.49371360         -14.23358880           4.27150720
    -4.52804560         -14.24932480           4.24718880
    -4.53567520         -14.24646400           4.24528160
    -4.53615200         -14.24694080           4.23526800
    -4.55284080         -14.25838480           4.21047200
    -4.56714640         -14.24121840           4.20427360
    -4.58335840         -14.25409280           4.18806080
    -4.58002080         -14.25123200           4.16660320
    -4.58622000         -14.25266240           4.14657600
    -4.59957120         -14.25838480           4.14228400
    -4.60720080         -14.23454320           4.13942320
    -4.62961200         -14.24217200           4.13274800
    -4.65679200         -14.23549680           4.13799280
    -4.64820880         -14.23502000           4.15325200
    -4.66966640         -14.23025120           4.15277520
    -4.70066080         -14.18447520           4.16040400
    -4.70352160         -14.17970640           4.18472320
    -4.72211840         -14.17016960           4.18663040
    -4.72736320         -14.14871200           4.19664400
    -4.74596000         -14.14680480           4.19998160
    -4.74596000         -14.14012880           4.19998160
    -4.76074240         -14.12582400           4.19330560
    -4.78601440         -14.10245920           4.17327920
    -4.77600080         -14.09959760           4.15849680
    -4.79793520         -14.08529280           4.11748880
    -4.80699520         -14.05763600           4.08268000
    -4.81367120         -14.05525200           4.04596320
    -4.81653200         -14.04285440           3.99732560
    -4.81414800         -14.01710480           3.96251680
    -4.84228160         -14.00852240           3.91435600
    -4.83226800         -13.99469360           3.86858000
    -4.84085120         -13.97275920           3.82995600
    -4.88138160         -13.97323600           3.78179520
    -4.86516960         -13.94891760           3.74841680
    -4.86516960         -13.92364480           3.71742240
    -4.90331680         -13.92030720           3.67784480
    -4.90760800         -13.90600240           3.64398960
    -4.91380720         -13.88931280           3.62014800
    -4.93669520         -13.86594800           3.61347200
    -4.94766240         -13.85068880           3.60155120
    -4.95910640         -13.83876800           3.58772240
    -4.97770320         -13.82446320           3.58724560
    -4.98724000         -13.81063440           3.58963040
    -4.99439200         -13.80538960           3.58676880
    -5.00774400         -13.79203760           3.58915360
    -5.02490960         -13.78154720           3.59201440
    -5.03587760         -13.77058000           3.60107440
    -5.02347920         -13.74483120           3.61967120
    -5.04398320         -13.74387760           3.62300880
    -5.08260720         -13.72432720           3.63016160
    -5.07164000         -13.71049920           3.63874400
    -5.08499120         -13.71526720           3.66354000
    -5.10454160         -13.68379600           3.68976560
    -5.08737600         -13.66043120           3.70121040
    -5.10788000         -13.66281520           3.74269520
    -5.14316560         -13.63372800           3.79133200
    -5.14554960         -13.60511760           3.82375680
    -5.15556320         -13.60702480           3.86714960
    -5.19037280         -13.57269280           3.94105920
    -5.20467760         -13.55409600           3.98874320
    -5.22279760         -13.56410960           4.02688960
    -5.25474560         -13.55743440           4.10509120
    -5.25808320         -13.53597680           4.15945040
    -5.27095760         -13.51070400           4.20475040
    -5.28287920         -13.50212080           4.27007680
    -5.29527680         -13.48829280           4.32109840
    -5.33533120         -13.48686240           4.35686080
    -5.34629840         -13.47017280           4.40216080
    -5.36108000         -13.46588160           4.44555280
    -5.38444480         -13.46635840           4.47893120
    -5.37776960         -13.43393360           4.53042960
    -5.42163840         -13.44013200           4.55904000
    -5.45740160         -13.42773440           4.58478960
    -5.46646080         -13.41247520           4.62675120
    -5.49650160         -13.41486000           4.65250000
    -5.51605200         -13.39578640           4.68397120
    -5.54847680         -13.39149440           4.69732320
    -5.56230560         -13.37909680           4.72402560
    -5.59663760         -13.36193120           4.75978880
    -5.62429440         -13.34381120           4.77981600
    -5.61666480         -13.35096320           4.81700880
    -5.64718240         -13.35144080           4.84609600
    -5.66720960         -13.32140000           4.87756720
    -5.67817680         -13.32902880           4.90522400
    -5.69200480         -13.31996880           4.93955600
    -5.71298560         -13.30757120           4.98580960
    -5.73348960         -13.30804800           5.01918800
    -5.73348960         -13.31424720           5.05208960
    -5.75733200         -13.32092320           5.09405120
    -5.77640560         -13.30137280           5.14411920
    -5.74922560         -13.30328000           5.17654400
    -5.76019280         -13.30614080           5.21421440
    -5.79357120         -13.30184960           5.24330160
    -5.76782240         -13.30280320           5.26237520
    -5.76114640         -13.32712160           5.27524960
    -5.76066960         -13.33379760           5.28526320
    -5.73825840         -13.31901520           5.30004480
    -5.73015200         -13.34714880           5.26523600
    -5.71060160         -13.35382480           5.24568560
    -5.68437600         -13.35191760           5.22994960
    -5.65528880         -13.35859280           5.19180320
    -5.65099680         -13.35906960           5.17082240
    -5.64193760         -13.36669920           5.13362880
    -5.60712800         -13.37099040           5.08928320
    -5.62191040         -13.38863360           5.04493680
    -5.63049280         -13.39578640           5.02395600
    -5.59854480         -13.38624960           5.00726720
    -5.60903520         -13.39292560           4.96530560
    -5.62047920         -13.40341600           4.93717200
    -5.60903520         -13.40675360           4.91237680
    -5.60331360         -13.42296640           4.86421600
    -5.60188320         -13.41867440           4.83274480
    -5.61523440         -13.40341600           4.80413440
    -5.60760480         -13.42916480           4.75263600
    -5.58996240         -13.43202560           4.72021120
    -5.58090240         -13.42105840           4.69255440
    -5.56230560         -13.43345680           4.65917600
    -5.54561600         -13.43536400           4.62722800
    -5.53941760         -13.44585440           4.58574320
    -5.52368160         -13.46063600           4.55856320
    -5.50079360         -13.46492800           4.54282800
    -5.49268720         -13.46540480           4.52327760
    -5.49602480         -13.47637200           4.50038880
    -5.49078000         -13.49210720           4.46605680
    -5.47409040         -13.48400080           4.43077120
    -5.48887280         -13.47255680           4.41694240
    -5.49030320         -13.49830640           4.39357760
    -5.47838240         -13.51547280           4.34446320
    -5.49650160         -13.51118080           4.32062160
    -5.49554800         -13.51451840           4.30631600
    -5.50079360         -13.52548560           4.26626240
    -5.52225120         -13.54598960           4.23097600
    -5.53512560         -13.54265200           4.21333280
    -5.53464880         -13.54455920           4.19759760
    -5.54466240         -13.55361920           4.18758400
    -5.59139280         -13.56267920           4.18138480
    -5.59139280         -13.57126240           4.16612640
    -5.58519360         -13.57555360           4.15897360
    -5.62953920         -13.59128960           4.16612640
    -5.64575200         -13.59367360           4.16851040
    -5.65290480         -13.61608480           4.16517280
    -5.66673280         -13.61513120           4.18281520
    -5.68103760         -13.59319680           4.19473680
    -5.67770000         -13.61990000           4.18090800
    -5.68962080         -13.63277440           4.16517280
    -5.69200480         -13.62943680           4.16469600
    -5.65767280         -13.62943680           4.16421920
    -5.67483920         -13.64421840           4.12845600
    -5.65433520         -13.64421840           4.11796560
    -5.62953920         -13.63563520           4.11701200
    -5.64146080         -13.65947760           4.08840160
    -5.61857200         -13.64946400           4.08268000
    -5.62667840         -13.64564880           4.07886480
    -5.60426720         -13.66281520           4.06551360
    -5.58996240         -13.65089440           4.07934160
    -5.62286400         -13.65137120           4.10032240
    -5.60331360         -13.65947760           4.11081280
    -5.59473040         -13.65900000           4.11987280
    -5.59759120         -13.65566240           4.13227120
    -5.59425360         -13.64946400           4.14037680
    -5.58280960         -13.65375520           4.14609920
    -5.56325920         -13.65518560           4.15706640
    -5.58233280         -13.66138480           4.13560880
    -5.55229200         -13.66853680           4.12464160
    -5.52320480         -13.66329200           4.10890560
    -5.52940400         -13.66138480           4.08268000
    -5.50270080         -13.65804640           4.07934160
    -5.48076640         -13.65423200           4.05693040
    -5.46026240         -13.64660240           4.05073200
    -5.45358640         -13.64088080           4.03356560
    -5.43832800         -13.64803280           4.03022800
    -5.42736080         -13.64803280           4.04930080
    -5.42974480         -13.63134400           4.04882400
    -5.39922720         -13.62419120           4.06599040
    -5.38253760         -13.61942320           4.08172640
    -5.39302800         -13.62180720           4.09555440
    -5.38015360         -13.62037680           4.11558160
    -5.35297360         -13.60368720           4.12940960
    -5.34582160         -13.60988640           4.14466880
    -5.32007200         -13.59987280           4.17518640
    -5.29718400         -13.60607120           4.19187520
    -5.29146160         -13.61465440           4.21094880
    -5.25331520         -13.59367360           4.23097600
    -5.21183040         -13.59653440           4.23383680
    -5.19657120         -13.59319680           4.24814240
    -5.19514080         -13.60464080           4.25338720
    -5.16176240         -13.60416400           4.25910960
    -5.13219840         -13.59605760           4.27007680
    -5.13839760         -13.58985920           4.27484480
    -5.11026400         -13.57889200           4.27293760
    -5.06734880         -13.59939600           4.27055360
    -5.05352000         -13.58079920           4.27198400
    -5.03826160         -13.57030880           4.25338720
    -5.01060480         -13.58509040           4.23002240
    -4.99582320         -13.58127600           4.21905520
    -4.98151760         -13.57936880           4.19044480
