SERVICIO GEOLOGICO COLOMBIANO- RED NACIONAL DE ACELEROGRAFOS DE COLOMBIA
SISMO DE QUETAME (CUNDINAMARCA) 2008/05/24 19:20:44 ML=5.7
LATITUD DEL EVENTO(GRADOS): 4.4
LONGITUD DEL EVENTO(GRADOS): -73.813
PROFUNDIDAD DEL EVENTO (Km): .3
CODIGO DE LA ESTACION: CBOG2
Estacion:GAVIOTAS Geol:COLUVION Topo:ONDULADA
LATITUD DE LA ESTACION (GRADOS): 4.601
LONGITUD DE LA ESTACION (GRADOS): -74.06
DISTANCIA EPICENTRAL: 35.348 km
DISTANCIA HIPOCENTRAL: 35.349 km
INTERVALO DE MUESTREO (SEGUNDOS): 0.005
NUMERO DE DATOS: 16600
DURACION (SEGUNDOS): 83
UNIDADES: cm/s^2
TIPO DE EQUIPO: ETNA
ESCALA MAXIMA (G): 2
CORRECCION DE LINEA BASE: LINEA BASE NO REMOVIDA
TIPO DE DATOS: NO CORREGIDO
         EW                  VER                  NS
[...]
   -31.19134880         -10.10799440          14.64891440
   -30.13515440          -8.98742640          11.61241520
   -28.74469760          -8.04948800           8.03661360
   -26.91316640          -7.08818400           4.34589360
   -24.74498720          -6.18410080           1.02758400
   -22.36843120          -5.43642080          -1.69754000
   -19.94657520          -5.05876560          -3.80039200
   -17.77744320          -5.23138080          -4.85134160
   -16.06416720          -6.03485120          -4.88138160
   -15.11049280          -7.51447680          -4.01401520
   -15.14768640          -9.24825680          -2.00176240
   -16.28541920         -11.03734960           0.72288480
   -18.23329920         -12.46452320           4.30250160
   -20.54738960         -13.35668560           8.25786560
   -22.94731120         -13.81874080          12.17317600
   -25.22325520         -13.94319520          15.95211040
   -27.38571200         -14.23454320          18.97525760
   -29.30498160         -14.69230640          21.46863920
   -30.94768560         -15.42472800          22.88341520
   -32.22751600         -16.25251760          23.35691440
   -33.05244480         -16.83664320          22.95970880
   -33.38050880         -17.14229600          21.48246800
   -33.16259360         -16.79897280          19.76442320
   -32.65333200         -15.98691920          17.58766160
   -31.99529680         -14.70279680          15.46430560
   -31.28004080         -12.97807680          13.39674000
   -30.48753760         -11.09695440          11.09838480
   -29.50143840          -9.10043680           9.03749440
   -28.43809120          -7.40623440           6.68239600
   -27.34184240          -6.00242640           4.31537600
   -26.27229680          -4.97961040           1.72948800
   -25.18606160          -4.46176560          -1.04522720
   -23.71501920          -4.30536240          -3.36933120
   -21.80528640          -4.57906720          -5.78069680
   -19.47069200          -4.89807120          -7.76863120
   -16.74079920          -5.08260720          -9.15336640
   -13.77391840          -5.06830240         -10.07270800
   -10.72692880          -4.75263600         -10.06460160
    -7.89546960          -4.37784160          -9.35173040
    -5.46979920          -4.21237920          -7.74192800
    -3.68118320          -4.60195520          -5.19275680
    -2.80809440          -5.70726400          -2.16913200
    -2.98309360          -7.37047200           1.38521200
    -4.31728400          -9.40990480           5.30386000
    -6.67810480         -11.52992240           9.45472720
    -9.64927680         -13.36479200          13.85450400
   -13.18025600         -14.79148880          18.01395440
   -16.98017120         -15.65599440          22.04847360
   -20.55025120         -16.11137360          25.78592320
   -23.54288080         -16.32690400          28.85103200
   -25.72679520         -16.30067840          31.24094000
   -27.41384480         -16.21723200          32.76491200
   -28.65362160         -16.06607440          33.55407680
   -29.24490000         -15.96069360          33.33520880
   -29.01124960         -15.82431760          32.13739360
   -27.96173120         -15.55585840          30.12418720
   -26.27515760         -15.15579200          27.35948560
   -24.04117600         -14.52636720          24.12509920
   -21.56066880         -13.81778720          20.69759360
   -19.13547520         -13.10634640          17.78745680
   -16.97921760         -12.54844640          15.49720800
   -15.25449760         -12.06159600          13.85450400
   -14.05906640         -11.49129840          12.92800880
   -13.42201200         -10.81991200          12.59803760
   -13.18025600          -9.96780400          12.87317280
   -13.15450640          -9.24778000          13.39101760
   -13.26179520          -8.77237280          14.17875280
   -13.48209360          -8.70561600          15.04707360
   -13.65566240          -9.07087360          15.82479440
   -13.47970960          -9.53388240          16.20721840
   -13.07821280          -9.98306240          15.66553120
   -12.57419600         -10.16807520          14.49775680
   -11.95526160         -10.34832000          12.41922400
   -11.36255280         -10.68162880           9.57918160
   -11.11459760         -11.14797600           6.16264320
   -11.53945920         -11.78836800           2.15435040
   -12.50934640         -12.21323040          -1.92022320
   -13.75007600         -12.34436000          -5.99336640
   -15.08140560         -11.99770000          -9.36698880
   -16.61252960         -11.34443280         -11.76023520
   -18.32580560         -10.69927200         -12.81404480
   -19.87648000         -10.14661760         -12.31336560
   -20.79105360          -9.84811760         -10.71882240
   -20.73621760          -9.51910000          -7.86638240
   -19.82116720          -9.00936160          -4.18758400
   -18.19276800          -8.17680320           0.14400480
   -16.07561120          -7.05480560           4.85849360
   -13.65280160          -5.94806640           9.46235680
   -10.85853600          -5.20038640          14.10388960
    -7.67278640          -5.20420080          18.43214000
    -4.39119360          -5.97095520          22.26829520
    -1.38139760          -7.27796560          25.91705360
     0.92935600          -8.73756400          29.20341520
     2.24351920         -10.00595120          31.98242160
     2.59065600         -10.82992560          34.29174400
     1.96266160         -11.26956960          35.54964080
     0.48828160         -11.56187040          35.53009040
    -1.66654560         -11.91711440          33.97607840
    -4.44030800         -12.45450960          30.59244160
    -7.88259520         -13.00287280          25.69007840
   -12.09497440         -13.54503600          19.38295360
   -16.76416400         -13.92412160          12.47930560
   -21.50583280         -14.12200960           5.29146160
   -26.11732480         -14.17398480          -1.63126000
   -30.45606640         -13.90457120          -6.96420640
   -34.44099440         -13.51738000         -10.79702400
   -37.90235520         -12.96710960         -12.40873360
   -40.98701440         -12.17317600         -11.70110720
   -43.70307920         -11.26623120          -9.62877280
   -45.77922800         -10.04266720          -5.99288960
   -47.17397680          -8.70943040          -2.03657120
   -47.67942400          -7.51113920           1.73044240
   -47.16777840          -6.51025760           5.34868240
   -45.66192640          -6.12258880           7.68136960
   -43.09701920          -6.24752080           9.23347440
   -39.57557680          -6.82067840           9.71126560
   -35.06946560          -7.69710560           9.06086000
   -29.68597440          -8.51202000           8.05521040
   -23.96297440          -9.32550400           6.43110240
   -18.09120160          -9.96208160           4.92429760
   -12.36915600         -10.54620720           3.52096560
    -7.23409680         -10.95485680           2.39849120
    -2.85387040         -11.02018320           1.55925760
     0.61798080         -10.88380800           0.14209760
     3.11660800         -10.29253040          -1.52111040
     4.46653360          -9.50574880          -3.84902960
     4.68874000          -8.63266000          -6.70766800
     3.92723120          -7.90357600          -9.98640080
     2.42233280          -7.68184640         -13.73577120
     0.43249120          -7.84969360         -16.95251440
    -2.03514080          -8.52060320         -19.54078640
    -4.70018400          -9.35983680         -20.86114880
    -7.35473600         -10.14566400         -20.48969280
    -9.99021520         -10.84470720         -18.27573760
   -12.45117200         -11.29961040         -13.72814160
   -14.38665360         -11.70778240          -7.53784160
   -15.61450960         -12.20703120          -0.12826880
   -16.29400240         -13.04626480           7.87639600
   -16.46804800         -14.33038720          15.58589920
   -16.13044720         -16.03078880          22.41849920
   -15.36655440         -18.14889920          27.46820480
   -14.25218560         -20.29943440          30.78842160
   -12.68434560         -22.14193360          32.39250160
   -10.65492640         -23.36740480          32.05537760
    -8.18014160         -23.61583680          30.50088880
    -5.51748240         -22.99308800          27.85921120
    -2.96020480         -21.72422400          24.57380320
    -0.50544720         -20.10154720          21.07381840
     1.53541600         -18.37396640          17.25578320
     3.05080400         -16.48759840          13.76390480
     3.88145440         -14.55450080          10.32257120
     4.14657600         -12.51077680           6.85739520
     4.27675280         -10.35547280           3.39651120
     4.43315520          -8.27646240          -0.16164800
     4.94003280          -6.31570800          -3.23486320
     5.97190880          -4.77457040          -6.14929200
     7.63559360          -3.70359440          -8.30698000
     9.56201520          -3.17192080          -9.11092720
    11.32297520          -3.33166160          -8.59832800
    12.75110240          -4.01782960          -6.43301040
    13.47732560          -5.28717040          -3.18765680
    13.28277600          -6.97660480           1.03902800
    11.89422640          -8.85725040           6.05630880
     9.33218000         -10.81371280          11.23666800
     5.70964800         -12.69960400          16.24774960
     1.08146640         -14.56403760          20.53213120
    -4.09650800         -16.33739440          23.83852000
    -9.26828400         -18.00918560          25.75540560
   -13.94033440         -19.62089520          26.10540400
   -17.97151600         -21.13246880          25.40445360
   -21.39949760         -22.54676800          23.94151680
   -23.99206160         -23.70882000          22.05228800
   -25.57706800         -24.42932160          20.11060720
   -26.26991280         -24.63531520          18.23425280
   -26.24702480         -24.20473120          16.79801920
   -25.79498320         -23.04649360          15.97595200
   -25.31623840         -21.20256400          15.79618480
   -25.26283280         -18.83077600          16.37411120
   -25.72822560         -16.25537840          17.38023760
   -26.47542960         -13.73338720          18.64385600
   -27.53114720         -11.40975920          19.98376880
   -28.77616880          -9.48905920          21.09050720
   -29.77085120          -7.96747200          22.01318720
   -30.34114800          -6.69908560          22.51863440
   -30.49278240          -5.52177440          22.52626400
   -30.04980080          -4.26912320          22.25875840
   -28.93781680          -3.05128080          21.44146000
   -27.12583520          -1.92928320          20.03574400
   -24.57618720          -0.98848320          18.11218240
   -21.60120000          -0.54025680          15.67983600
   -18.58043680          -0.65088240          13.24892080
   -15.98405840          -1.14154800          10.90621920
   -14.29271680          -1.71041520           8.86058800
   -13.63086720          -2.12955440           7.36904160
   -13.98897200          -2.41708720           6.19983680
   -15.23733120          -2.59447120           5.52845040
   -17.27867120          -2.84862480           5.01918800
   -19.86932720          -3.30352800           4.70161440
   -22.54915200          -3.90434240           4.63819520
   -24.98292960          -4.64963920           4.32968160
   -26.83782560          -5.31721120           4.25958640
   -27.90403360          -5.92994720           4.35256960
   -28.10859680          -6.47401840           4.70924400
   -27.37855920          -6.81638720           5.61285040
   -25.81644080          -7.05242160           6.72435760
   -23.60343920          -7.07149520           8.31222560
   -21.07906320          -6.95180880          10.05554160
   -18.82171600          -6.68668720          11.90042480
   -17.05026640          -6.30188000          13.74769200
   -15.93780480          -5.96094160          14.93454000
   -15.66839200          -5.59568400          15.76471360
   -16.05892160          -5.42020800          15.87772400
   -16.76225680          -5.53798640          15.21539680
   -17.58575440          -5.92279440          14.32943360
   -18.71538160          -6.65569280          13.00573360
   -20.10679280          -7.60030720          11.71684240
   -21.49915680          -8.68654240          10.74695600
   -22.85528160          -9.72366320           9.98687760
   -24.26910400         -10.49184800           9.55820080
   -26.08346960         -10.93149200           9.33551760
   -28.64503840         -11.00826240           9.25874720
   -32.11498240         -10.91194160           9.10806640
   -36.57770160         -10.77795040           8.75663760
   -42.08564720         -10.73408160           8.14056400
   -48.60734960         -10.76316800           7.05385200
   -55.71413040         -10.82372640           5.41162480
   -63.09747680         -10.97822160           3.48520240
   -70.49989680         -11.21091840           1.54113760
   -77.36825920         -11.64197920          -0.43535200
   -83.39500400         -12.06541040          -2.16579440
   -88.32025520         -12.31527360          -3.72743600
   -91.63808800         -12.31098160          -5.02490960
   -92.79012720         -11.93189600          -5.85651360
   -91.61853760         -11.29055040          -6.53648400
   -88.12808960         -10.39648080          -6.60038000
   -82.30304720          -9.51290160          -6.14738480
   -74.19681520          -8.89682800          -5.56612000
   -63.98487120          -8.55493520          -4.76312640
   -52.43396720          -8.54969040          -4.21619440
   -40.29798480          -8.62932240          -3.58867680
   -28.05328400          -8.67366800          -2.95925120
   -15.98167440          -8.81385840          -2.69460640
    -4.28152080          -8.98456560          -2.29120240
     6.45160640          -9.31167600          -2.10189840
    15.80810560          -9.79232800          -1.86252560
    23.77080880         -10.52570320          -1.33800480
    30.45368160         -11.55185680          -0.78964240
    35.59398640         -12.62092560          -0.08106240
    39.05010240         -13.83686080           0.54645520
    41.34988800         -15.05804080           1.26314160
    42.84524880         -16.34550080           1.72662720
    43.79749280         -17.72022240           1.86491040
    44.17467120         -18.95570720           1.78813920
    43.93482240         -20.12872720           1.33037600
    43.10560240         -21.07954000           1.00469600
    41.70513120         -21.89779280           0.59127840
    39.70384560         -22.48811760           0.25749200
    36.71503040         -22.70841600           0.37860880
    32.81688720         -22.69935600           0.85639920
    28.20539440         -22.37558400           1.86920160
    22.83000960         -21.99172960           3.39651120
    16.63732560         -21.75760240           5.55896720
     9.70554320         -21.98362320           8.27741600
     2.34556160         -22.84336080          11.52038560
    -5.31625760         -24.11842320          15.00654240
   -13.09013360         -25.55322640          18.61047760
   -20.59602720         -26.54838560          22.51195920
   -27.66847600         -26.92270240          26.00765200
   -34.00468800         -26.49021120          29.33836000
   -39.47782480         -25.34723280          32.16743440
   -44.10457600         -23.92196640          34.20305280
   -47.82056800         -22.19009360          36.01741760
   -50.63867600         -20.47157280          36.80896720
   -52.40297280         -18.69583120          37.07981120
   -53.18546320         -16.87288320          36.78941760
   -52.97088640         -15.20538320          35.38846960
   -51.86414720         -13.59176640          33.53691120
   -50.02927760         -12.38727600          30.84850320
   -47.20926320         -11.51800160          27.75335280
   -43.27821760         -10.89477520          24.45983920
   -38.42592240         -10.57148000          20.61414720
   -33.02192720         -10.26725760          16.88718800
   -27.30655680         -10.13851200          12.94946640
   -21.66080480         -10.18095040           8.84008400
   -16.41702640         -10.30302080           4.91714480
   -11.51371040         -10.61868640           0.67615520
    -6.80255920         -10.84280000          -3.54719200
    -2.31790560         -10.77032080          -7.80820880
     1.55735040         -10.27727120         -11.89661040
     4.59718720          -9.23728960         -15.13814960
     6.93130480          -7.79771840         -18.02492160
     8.82196400          -5.99241280         -20.05195600
    10.25295280          -3.99875680         -20.87879200
    11.09933840          -2.11524960         -20.73288000
    11.42454160          -0.31614320         -19.04439920
    11.21997840           1.20925920         -16.50333440
    10.40792480           2.35652960         -13.11397520
     8.96835360           3.12185280          -8.64124320
     7.03001040           3.18098080          -4.20284240
     4.83369840           2.66027440           0.51593760
     2.58445760           1.57213200           5.14793360
     0.15068080          -0.12540800           9.18436080
    -2.45094320          -2.25067120          13.06867600
    -5.24234800          -4.86660000          16.22676880
    -8.39710240          -7.66992560          19.05965840
   -11.73591600         -10.56671120          21.38090160
   -14.92357280         -13.37051360          22.96018640
   -17.92907680         -15.74850080          24.41453920
   -20.95794640         -17.68541360          25.37775040
   -23.90241600         -18.92042160          26.27086640
   -26.86548240         -19.51360720          26.96228000
   -29.71601520         -19.59228480          27.25219760
   -32.05633200         -19.24180960          27.63891200
   -33.88166400         -18.68248000          27.62270000
   -35.25972400         -17.89474480          27.30798720
   -36.12852080         -16.86573040          26.83305760
   -36.34548160         -15.63644400          25.65574640
   -36.03076960         -14.17779920          23.94437760
   -35.25352480         -12.49122640          21.39949760
   -34.06524640         -10.69498080          17.59433760
   -32.53459920          -8.88681440          12.87078880
   -30.75027440          -7.30848320           7.02142720
   -28.88774880          -6.14881520           0.53310400
   -27.06241600          -5.54990800          -5.90038320
   -25.47264080          -5.66339520         -12.03060160
   -24.01018160          -6.25371920         -16.92628880
   -22.71795280          -7.16495520         -20.32518400
   -21.75521840          -8.15439200         -21.81053200
   -20.91026320          -9.06229040         -21.02851840
   -20.10726960          -9.98115520         -18.32294480
   -19.41299440         -10.80656080         -13.62752880
   -19.04582960         -11.73067120          -7.58790960
