SERVICIO GEOLOGICO COLOMBIANO- RED NACIONAL DE ACELEROGRAFOS DE COLOMBIA
SISMO DE QUETAME (CUNDINAMARCA) 2008/05/24 19:20:44 ML=5.7
LATITUD DEL EVENTO(GRADOS): 4.4
LONGITUD DEL EVENTO(GRADOS): -73.813
PROFUNDIDAD DEL EVENTO (Km): .3
CODIGO DE LA ESTACION: CBUC1
Estacion:FLORIDABLANCA, CDMB Geol:ROCA Topo:ONDULADA
LATITUD DE LA ESTACION (GRADOS): 7.072
LONGITUD DE LA ESTACION (GRADOS): -73.074
DISTANCIA EPICENTRAL: 307.726 km
DISTANCIA HIPOCENTRAL: 307.726 km
INTERVALO DE MUESTREO (SEGUNDOS): 0.005
NUMERO DE DATOS: 7000
DURACION (SEGUNDOS): 35
UNIDADES: cm/s^2
TIPO DE EQUIPO: ETNA
ESCALA MAXIMA (G): 2
CORRECCION DE LINEA BASE: LINEA BASE NO REMOVIDA
TIPO DE DATOS: NO CORREGIDO
         EW                  VER                  NS
[...]
    -1.83486960         -17.47894320          -3.28874560
    -1.83820720         -17.49038720          -3.26347360
    -1.86967840         -17.49515520          -3.24964560
    -1.88207600         -17.52138160          -3.23677040
    -1.89161280         -17.53568640          -3.22866400
    -1.90544160         -17.53711680          -3.20291520
    -1.90877920         -17.55189920          -3.17907360
    -1.93405120         -17.57526400          -3.16286080
    -1.94978720         -17.59672160          -3.13329680
    -1.96504560         -17.61054960          -3.12185280
    -1.97744400         -17.63534560          -3.11803840
    -1.98268880         -17.67253840          -3.11040880
    -2.00462320         -17.69065840          -3.10754800
    -2.00557680         -17.70925520          -3.09848800
    -2.01034560         -17.73643520          -3.09848800
    -2.01320640         -17.74597200          -3.09324240
    -1.99747120         -17.77887360          -3.09419600
    -1.99413280         -17.79222480          -3.10564080
    -1.98078160         -17.80748400          -3.10707120
    -1.96266160         -17.83990880          -3.12328320
    -1.94549600         -17.83895520          -3.12852880
    -1.92976000         -17.87614800          -3.15141680
    -1.90448800         -17.89188400          -3.16810640
    -1.87969200         -17.89808240          -3.15856960
    -1.87873840         -17.93479920          -3.17859680
    -1.85918800         -17.94147520          -3.19576240
    -1.83868400         -17.94528960          -3.21626640
    -1.83534640         -17.94719680          -3.21483600
    -1.82485600         -17.94576640          -3.20863760
    -1.81293520         -17.95244240          -3.21578960
    -1.79719920         -17.95816400          -3.20434560
    -1.78480160         -17.94528960          -3.21006800
    -1.79243120         -17.94004480          -3.20291520
    -1.79004640         -17.93146160          -3.18098080
    -1.77860240         -17.93003120          -3.16047680
    -1.77145040         -17.93336880          -3.14855600
    -1.76763520         -17.91334160          -3.12376000
    -1.77478800         -17.92144800          -3.09038160
    -1.76906560         -17.90618880          -3.08752080
    -1.76000560         -17.89665200          -3.08132160
    -1.74760800         -17.90189760          -3.08132160
    -1.73139600         -17.87519440          -3.06654000
    -1.72901120         -17.86088960          -3.06081760
    -1.71232240         -17.84801520          -3.07893760
    -1.69515600         -17.84706080          -3.07512320
    -1.67894400         -17.83418640          -3.09228880
    -1.65796240         -17.82798800          -3.09276560
    -1.64461120         -17.83275600          -3.09991840
    -1.62887600         -17.81988160          -3.11136240
    -1.61647760         -17.82941840          -3.09181200
    -1.60884880         -17.83132560          -3.11040880
    -1.58739120         -17.83323280          -3.11326960
    -1.56545600         -17.84372320          -3.10754800
    -1.55878080         -17.85039920          -3.11374640
    -1.53970720         -17.86041280          -3.10325600
    -1.51014320         -17.86375040          -3.09038160
    -1.50251360         -17.88282400          -3.07130800
    -1.48057920         -17.88854560          -3.06844720
    -1.44815440         -17.89760560          -3.05652640
    -1.43337280         -17.92383200          -3.04842000
    -1.41048400         -17.92621600          -3.06224800
    -1.39617920         -17.92383200          -3.06177120
    -1.38330480         -17.93050800          -3.06081760
    -1.37376800         -17.94862720          -3.06797040
    -1.36947600         -17.95101200          -3.07798400
    -1.35326400         -17.95578000          -3.09276560
    -1.36232400         -17.97342320          -3.11040880
    -1.37329120         -17.97914480          -3.13329680
    -1.37853600         -17.98439040          -3.15141680
    -1.40571600         -17.97151600          -3.16476800
    -1.41811360         -17.98057520          -3.19766960
    -1.41048400         -18.00441760          -3.22341920
    -1.42860400         -18.00918560          -3.24535360
    -1.44672400         -18.02444480          -3.27587120
    -1.45196880         -18.03159680          -3.29685200
    -1.46245920         -18.04256400          -3.31830960
    -1.48773200         -18.05114720          -3.34692000
    -1.51824960         -18.05496240          -3.35741040
    -1.51920320         -18.06116080          -3.35502640
    -1.55448880         -18.05162400          -3.38029840
    -1.59358960         -18.05067040          -3.38459040
    -1.60837200         -18.04018000          -3.37266960
    -1.65796240         -18.02444480          -3.36313280
    -1.68943440         -18.03255120          -3.33309200
    -1.71184560         -18.02587520          -3.31258800
    -1.76382080         -18.00203360          -3.28683840
    -1.81388880         -18.00060240          -3.27110320
    -1.84154480         -18.01300080          -3.23677040
    -1.85489680         -18.01300080          -3.19194800
    -1.87206240         -18.00537120          -3.17716560
    -1.88493760         -18.00870880          -3.14998640
    -1.89638160         -18.02539840          -3.12948240
    -1.90067280         -18.03207360          -3.10754800
    -1.88922880         -18.04208720          -3.07750720
    -1.88064560         -18.05925360          -3.06654000
    -1.87826160         -18.07069760          -3.06224800
    -1.86395680         -18.08595680          -3.05128080
    -1.82867040         -18.08261840          -3.04937360
    -1.79672240         -18.08500320          -3.05843360
    -1.77240400         -18.09740080          -3.06415520
    -1.73807120         -18.10312240          -3.08227520
    -1.70612320         -18.10741440          -3.08561360
    -1.67226800         -18.09835440          -3.07989120
    -1.64079680         -18.09072480          -3.08322880
    -1.61743200         -18.09501680          -3.09371920
    -1.60598720         -18.08500320          -3.10850160
    -1.59597360         -18.06688320          -3.11279280
    -1.58023840         -18.06497600          -3.11660800
    -1.58596000         -18.04304160          -3.10707120
    -1.59025200         -18.02635200          -3.10325600
    -1.60217280         -18.01872240          -3.10182560
    -1.61647760         -17.99535760          -3.09276560
    -1.63650480         -17.98725120          -3.08036800
    -1.68228160         -17.96865440          -3.07226160
    -1.70993840         -17.95434960          -3.05700320
    -1.73187280         -17.93622960          -3.03697600
    -1.77001920         -17.92621600          -3.03411520
    -1.81198160         -17.93384560          -3.01027280
    -1.84822080         -17.90332800          -2.99453760
    -1.89733520         -17.90332800          -2.97260320
    -1.93977360         -17.92192480          -2.95019120
    -1.97267520         -17.90380480          -2.93254880
    -2.01225280         -17.89617520          -2.89487840
    -2.03514080         -17.89283760          -2.87580480
    -2.07233440         -17.90046720          -2.84242640
    -2.10380560         -17.92335520          -2.83050560
    -2.11238880         -17.92907680          -2.82192240
    -2.11143520         -17.92955360          -2.79045120
    -2.10189840         -17.94004480          -2.79760400
    -2.09951440         -17.94385920          -2.78520560
    -2.07996400         -17.94099840          -2.79426560
    -2.05469120         -17.95053520          -2.80857120
    -2.02274320         -17.95673360          -2.80284880
    -1.98459600         -17.94815040          -2.82526000
    -1.95407840         -17.94528960          -2.83336640
    -1.90830240         -17.94385920          -2.86102320
    -1.85203520         -17.93909040          -2.88200400
    -1.80768960         -17.93289200          -2.89440160
    -1.76096000         -17.91524880          -2.91728960
    -1.71136880         -17.88806880          -2.93397920
    -1.67369840         -17.87424080          -2.94303920
    -1.62601440         -17.85850560          -2.96211280
    -1.59358960         -17.83514000          -2.99263040
    -1.57356240         -17.82846480          -2.99167600
    -1.54781360         -17.79794720          -3.03173040
    -1.52730960         -17.77887360          -3.05557280
    -1.51777280         -17.76599920          -3.04651280
    -1.52730960         -17.72785200          -3.07655360
    -1.52969360         -17.72117600          -3.08370560
    -1.53923040         -17.69971840          -3.08609040
    -1.56068800         -17.68446000          -3.08609040
    -1.57928480         -17.69495040          -3.07941440
    -1.61075600         -17.68302880          -3.08084480
    -1.64222720         -17.68541360          -3.07416880
    -1.66845360         -17.68875120          -3.07416880
    -1.70469280         -17.67396960          -3.05700320
    -1.73902480         -17.67587680          -3.03649920
    -1.78146400         -17.68446000          -3.02743920
    -1.82867040         -17.68302880          -2.99501440
    -1.86538720         -17.69304240          -2.97689440
    -1.92546880         -17.70401040          -2.96402000
    -1.96456880         -17.70734800          -2.93397920
    -1.98650400         -17.72642160          -2.90918320
    -2.02703440         -17.74692560          -2.89201760
    -2.04992320         -17.75836960          -2.87723520
    -2.06470480         -17.77076720          -2.87008320
    -2.07424160         -17.79747040          -2.87580480
    -2.07090400         -17.80796080          -2.85720800
    -2.05087680         -17.81034480          -2.84719440
    -2.02608080         -17.84038560          -2.85339360
    -2.00605360         -17.85373680          -2.85434720
    -1.96313840         -17.86327360          -2.85339360
    -1.92308400         -17.87376400          -2.86388400
    -1.88684480         -17.88711520          -2.88295760
    -1.83105440         -17.90428160          -2.87485120
    -1.79433840         -17.90237440          -2.90632240
    -1.74713120         -17.92383200          -2.93731680
    -1.70326240         -17.93718320          -2.93970080
    -1.68752640         -17.93813680          -2.97403360
    -1.64413440         -17.95768720          -2.99835200
    -1.61027920         -17.97294640          -3.02314720
    -1.59931200         -17.97962160          -3.05795680
    -1.58643760         -17.98677440          -3.08609040
    -1.56641040         -17.99917200          -3.11994560
    -1.54972080         -17.99678800          -3.14092640
    -1.55401200         -17.99440400          -3.15952320
    -1.54972080         -17.99678800          -3.19147120
    -1.54924400         -17.99297360          -3.20291520
    -1.54447520         -17.99869520          -3.22055840
    -1.51729600         -17.99869520          -3.24630720
    -1.51968000         -17.99488080          -3.24678400
    -1.51062000         -18.00060240          -3.25202960
    -1.47628800         -17.99202000          -3.25870480
    -1.46007520         -17.99297360          -3.24964560
    -1.42335920         -18.00012560          -3.25822800
    -1.40810000         -17.99202000          -3.26728800
    -1.40666960         -17.99202000          -3.26824160
    -1.37805920         -17.99917200          -3.27014960
    -1.37281440         -18.00680160          -3.25584400
    -1.37662880         -18.00727840          -3.25822800
    -1.36947600         -18.01156960          -3.26061280
    -1.35421760         -18.01252400          -3.26776480
    -1.35469440         -18.01776880          -3.26824160
    -1.36184720         -18.02730560          -3.25155280
    -1.35135680         -18.03112000          -3.25822800
    -1.36089360         -18.04876320          -3.25965920
    -1.37662880         -18.05400880          -3.26681120
    -1.38282800         -18.06306800          -3.27014960
    -1.39331840         -18.06831360          -3.27110320
    -1.39188800         -18.07403600          -3.28445440
    -1.38759600         -18.09930800          -3.30257440
    -1.39665600         -18.09310880          -3.31878640
    -1.39856320         -18.11170560          -3.33261520
    -1.38759600         -18.13745520          -3.34692000
    -1.37281440         -18.13364000          -3.34739680
    -1.35898560         -18.14508400          -3.36599360
    -1.33562080         -18.15128320          -3.37600720
    -1.29270560         -18.15557440          -3.36599360
    -1.25694240         -18.14651520          -3.36790080
    -1.22022640         -18.13840880          -3.37076160
    -1.16920480         -18.14985280          -3.37171520
    -1.12438240         -18.13030240          -3.37410000
    -1.07765200         -18.10836800          -3.38363680
    -1.02758400         -18.09978480          -3.39031200
    -0.96940960         -18.08071120          -3.38649760
    -0.90312960         -18.06545280          -3.38506720
    -0.85020080         -18.04590240          -3.39412720
    -0.80204000         -18.02015280          -3.38649760
    -0.75054160         -18.00251040          -3.39126560
    -0.70810320         -17.98772800          -3.41129280
    -0.69189040         -17.95625680          -3.39937200
    -0.67281760         -17.92669280          -3.40414080
    -0.66375760         -17.91286480          -3.42130640
    -0.67520160         -17.89951360          -3.41558480
    -0.69522880         -17.88091680          -3.43084320
    -0.74052800         -17.84420000          -3.43465840
    -0.77390640         -17.82798800          -3.41653840
    -0.82731280         -17.83037200          -3.42035280
    -0.89836160         -17.81129840          -3.40175600
    -0.96130400         -17.78602640          -3.38745120
    -1.03092160         -17.77696640          -3.38745120
    -1.09815600         -17.76552240          -3.36694720
    -1.17683440         -17.74406400          -3.36170160
    -1.24692880         -17.74120320          -3.35025760
    -1.32179280         -17.72928240          -3.32975360
    -1.39617920         -17.70639440          -3.32117120
    -1.47533440         -17.69781120          -3.30066720
    -1.55735040         -17.69638080          -3.28683840
    -1.61170960         -17.69304240          -3.27634800
    -1.68371200         -17.68732080          -3.24487680
    -1.76191360         -17.70353280          -3.22246560
    -1.81913360         -17.70734800          -3.20053120
    -1.88255280         -17.72212960          -3.16286080
    -1.94835680         -17.75407760          -3.13711200
    -1.99985520         -17.75455440          -3.10707120
    -2.04992320         -17.75884640          -3.06749360
    -2.08997760         -17.77792000          -3.03268400
    -2.12669360         -17.79651680          -2.99119920
    -2.16102640         -17.79603920          -2.95114480
    -2.17771520         -17.80605280          -2.90012320
    -2.18820560         -17.81129840          -2.85387040
    -2.18868240         -17.80033120          -2.81715360
    -2.19058960         -17.80319200          -2.76136400
    -2.18105280         -17.79747040          -2.72083280
    -2.16293360         -17.79699360          -2.69556080
    -2.15768800         -17.78364160          -2.66313520
    -2.14004480         -17.77362800          -2.63071040
    -2.11095840         -17.76933680          -2.59160960
    -2.08997760         -17.75026320          -2.55775440
    -2.06899680         -17.75169360          -2.53248240
    -2.03704800         -17.75789280          -2.50196480
    -2.01225280         -17.75693920          -2.48241440
    -1.98745760         -17.76504480          -2.46095680
    -1.95121760         -17.78507200          -2.44045280
    -1.92117680         -17.79794720          -2.43091600
    -1.89352000         -17.80652960          -2.42519360
    -1.87158560         -17.81988160          -2.42710080
    -1.85871120         -17.83657040          -2.42710080
    -1.85251200         -17.86041280          -2.43377680
    -1.84249840         -17.85612080          -2.43139280
    -1.83773040         -17.87328720          -2.43234640
    -1.85489680         -17.90285120          -2.43759120
    -1.85442000         -17.90237440          -2.44808160
    -1.86729440         -17.93146160          -2.46715520
    -1.89018240         -17.93670640          -2.46381760
    -1.88446080         -17.91620240          -2.48289120
    -1.91259360         -17.92001760          -2.48861280
    -1.93643600         -17.91238800          -2.49910320
    -1.93691280         -17.90714240          -2.53295920
    -1.96218480         -17.90046720          -2.53820400
    -1.98411920         -17.89236080          -2.57015200
    -1.99317920         -17.90046720          -2.59828560
    -2.00271600         -17.90714240          -2.62641920
    -2.01892880         -17.90666560          -2.66599680
    -2.02989600         -17.90761920          -2.70318960
    -2.03371040         -17.90714240          -2.74801280
    -2.04134000         -17.90714240          -2.78282160
    -2.03990960         -17.91143440          -2.83098240
    -2.03180320         -17.92049440          -2.87008320
    -2.01606720         -17.93670640          -2.91490560
    -2.00986880         -17.94195200          -2.96354320
    -2.00653040         -17.93146160          -3.01027280
    -1.97792080         -17.93909040          -3.06463280
    -1.96027760         -17.94672000          -3.10087200
    -1.93595920         -17.93384560          -3.14807920
    -1.89685840         -17.93003120          -3.18288800
    -1.87635440         -17.93575280          -3.21149840
    -1.83868400         -17.93003120          -3.24773760
    -1.79576880         -17.90952720          -3.27062640
    -1.76477440         -17.91000400          -3.30829600
    -1.72185920         -17.92097120          -3.34739680
    -1.68371200         -17.90475840          -3.37123840
    -1.65128720         -17.89331440          -3.40414080
    -1.61886240         -17.90428160          -3.43847280
    -1.57070160         -17.90094400          -3.45802320
    -1.52730960         -17.89426800          -3.47995760
    -1.50632880         -17.90523520          -3.49712400
    -1.47008880         -17.90857280          -3.50522960
    -1.43957120         -17.91763280          -3.52144240
    -1.42383600         -17.92669280          -3.52096560
    -1.40428560         -17.95291920          -3.50618400
    -1.38092080         -17.98009840          -3.49855440
    -1.36423120         -17.99249680          -3.48091120
    -1.36375440         -18.02062960          -3.45945360
    -1.36995280         -18.02730560          -3.42559840
    -1.38378160         -18.05591600          -3.39317360
    -1.40237840         -18.07594320          -3.36027120
    -1.41525280         -18.06736000          -3.32069360
    -1.42192880         -18.08929440          -3.31020320
    -1.45769120         -18.09549360          -3.27730160
    -1.49202320         -18.10789120          -3.24487680
    -1.50251360         -18.11885840          -3.22818720
