SERVICIO GEOLOGICO COLOMBIANO- RED NACIONAL DE ACELEROGRAFOS DE COLOMBIA
SISMO DE QUETAME (CUNDINAMARCA) 2008/05/24 19:20:44 ML=5.7
LATITUD DEL EVENTO(GRADOS): 4.4
LONGITUD DEL EVENTO(GRADOS): -73.813
PROFUNDIDAD DEL EVENTO (Km): .3
CODIGO DE LA ESTACION: CPRAD
Estacion:EMBALSE  DE  PRADO Geol:ROCA Topo:ESCARPADA
LATITUD DE LA ESTACION (GRADOS): 3.755
LONGITUD DE LA ESTACION (GRADOS): -74.891
DISTANCIA EPICENTRAL: 139.441 km
DISTANCIA HIPOCENTRAL: 139.441 km
INTERVALO DE MUESTREO (SEGUNDOS): 0.005
NUMERO DE DATOS: 13200
DURACION (SEGUNDOS): 66
UNIDADES: cm/s^2
TIPO DE EQUIPO: ETNA
ESCALA MAXIMA (G): 2
CORRECCION DE LINEA BASE: LINEA BASE NO REMOVIDA
TIPO DE DATOS: NO CORREGIDO
         EW                  VER                  NS
[...]
     3.66687760           8.70990720         -12.81404480
     4.36687440           8.76712800         -13.62085360
     4.07838800           8.75711440         -13.19789920
     3.72457520           8.68892640         -12.26615920
     4.65536080           8.60738720         -12.70389520
     4.62818160           8.66603840         -13.11969760
     4.42171120           8.59451280         -13.26036480
     5.18751120           8.48388640         -13.24129120
     5.03921520           8.60214240         -13.15021520
     4.74977520           8.47482720         -13.55075840
     5.04255280           8.28456880         -13.62752880
     4.80890240           8.27741600         -13.39435600
     4.52136960           8.09288000         -13.64469520
     4.82511520           8.08429680         -13.82303200
     5.02061840           7.99751280         -13.59319680
     4.60290880           7.65371360         -13.62609840
     4.71210480           7.67087920         -13.96083840
     5.24091760           7.75575600         -13.70620720
     4.68301760           7.60459920         -13.30375680
     4.77790800           7.46393200         -14.02664160
     5.80024720           7.46297840         -14.11819440
     5.02395600           7.50255600         -13.47494160
     4.70829040           7.43866000         -14.26792160
     5.53321840           7.36856480         -14.51253920
     5.11217120           7.37094880         -13.89169680
     5.47361360           7.24506400         -14.89496240
     6.10876080           7.07530960         -15.34700400
     5.52129760           7.05909760         -14.09292240
     5.94234480           7.03477840         -14.49871040
     6.53171520           7.13205360         -15.49339280
     6.10351600           7.41052640         -14.60695280
     6.36482240           7.59744640         -14.09387600
     6.87885280           7.65037520         -14.54830160
     6.65473920           7.69615200         -14.40000560
     6.44826880           7.76386240         -13.99564720
     6.59513440           7.86209120         -13.68331920
     6.46209680           8.18490960         -13.50545920
     6.19554480           8.45527680         -13.68856400
     6.37054480           8.55064400         -13.54742080
     6.10160800           8.89015200         -13.56124880
     5.72395360           9.00506960         -14.42480080
     5.81121440           8.92448400         -14.62125760
     5.25236160           9.23681280         -14.06192800
     4.78029280           9.34886960         -14.21403920
     4.88233600           9.17148560         -14.46104080
     4.43220160           9.21678560         -13.93699680
     3.63826720           9.37414160         -13.53168480
     3.22198880           9.45282000         -13.56220240
     3.24010880           9.53578960         -13.23366160
     3.09228880           9.68456240         -12.97473920
     2.57253680           9.70792800         -13.22174080
     2.36845040           9.71508000         -12.88366320
     2.47573840           9.77706880         -12.32481040
     2.58588800           9.62066640         -12.89176960
     2.65455280           9.50241120         -13.47208000
     2.92825680           9.48905920         -12.98904400
     3.61204160           9.28974160         -12.76540720
     3.63397600           9.12714000         -13.59415040
     3.35359600           8.87203200         -13.94510240
     3.81803520           8.63075280         -13.28754400
     3.91864800           8.58354560         -13.40103120
     3.65495680           8.23164000         -13.88788240
     3.89575920           7.95316720         -13.52930080
     4.26721600           7.90500640         -13.20219040
     4.13751600           7.72476160         -13.38720320
     3.97348400           7.61175120         -13.65375520
     4.54139680           7.62414960         -13.16928880
     4.52661520           7.57837280         -12.60280640
     4.17375600           7.41243360         -13.12828080
     4.43649280           7.54642480         -13.30041920
     4.14228400           7.79390320         -12.66384160
     4.14323840           7.60412240         -12.89367680
     4.63438000           7.62748720         -13.64326480
     4.47034800           7.88831680         -13.30328000
     4.37212000           7.66277280         -12.70294160
     4.63247280           7.61222800         -12.97950720
     4.51278720           7.92026480         -13.29469680
     4.32109840           8.00418880         -12.87555680
     4.52184640           8.10194000         -12.36200320
     4.55713280           8.17394240         -12.49313360
     4.39930000           8.11481440         -12.66145680
     4.41646560           8.10241680         -12.78400400
     4.36496720           8.08715840         -12.94851280
     4.11653520           8.03804400         -13.33475120
     4.67824960           8.00752640         -13.89217360
     5.01585040           8.03041440         -13.81635680
     4.20331920           8.01992400         -13.95273200
     4.29248800           7.93218640         -14.50061760
     4.54330480           7.83538800         -14.28937920
     4.19998160           7.83872640         -13.86213280
     4.36925920           8.04424320         -14.06717280
     4.22382320           8.23211680         -13.55361920
     3.75127760           8.17966480         -12.73012160
     4.04787040           8.25500480         -13.37480560
     4.12368800           8.60500320         -13.73338720
     3.68642800           8.81338080         -13.12923440
     4.18424640           8.79526160         -12.94803600
     4.33826480           8.76855840         -13.12637360
     3.76367600           8.80289040         -13.48352400
     4.09030880           8.85963440         -13.70430000
     4.24957280           8.97359840         -13.37289840
     3.74031040           9.03034240         -13.19742240
     3.98111360           9.05656800         -13.54598960
     4.34732400           9.18292960         -13.40389280
     3.77225840           9.23442880         -13.44108560
     3.65304960           9.28497280         -14.12725440
     3.85141360           9.43326960         -13.77630240
     3.56769600           9.39273840         -13.21363440
     3.83901600           9.13429280         -13.75579840
     3.79180880           9.15813440         -13.83113840
     3.03888320           9.19771200         -12.89415360
     3.33309200           8.98694960         -12.81166080
     4.04977760           9.16338000         -13.28468320
     3.80706800           9.43040880         -12.67337760
     4.04405600           9.44852800         -11.99436160
     4.73499280           9.44995920         -12.26282080
     4.66251360           9.45949520         -12.65478160
     5.24330160           9.57346000         -12.71629360
     6.30283360           9.74845920         -12.70103440
     6.40106240           9.81330880         -12.56942720
     6.56843200           9.69839120         -12.80260080
     7.25412400           9.62018960         -13.00954800
     7.20119440           9.61828240         -12.68148400
     7.24983200           9.58251920         -12.98475280
     8.02898400           9.54103440         -13.34571840
     8.07428320           9.47809200         -12.95328160
     7.85827600           9.32598080         -12.93706880
     8.12673600           9.07611840         -13.27419280
     8.23640800           8.90159600         -13.09490240
     8.04424320           8.85772720         -13.03529760
     8.18061840           8.81528880         -13.11302160
     8.31556320           8.51917280         -12.56132160
     7.96175040           8.20016880         -12.59088480
     7.96461120           8.16822080         -13.27943840
     7.61604320           8.06999200         -13.13352560
     7.12347040           7.86304480         -12.91990320
     7.75814080           7.72094720         -13.54360560
     7.89880720           7.63654720         -13.64326480
     7.14778880           7.51924480         -13.49973680
     7.22837440           7.37953200         -14.00232320
     7.29274720           7.41910960         -13.68474960
     6.75106080           7.56120720         -13.42296640
     6.98566400           7.60507600         -13.82207840
     6.93082800           7.65562080         -13.32473760
     6.36434560           7.86542880         -13.11302160
     6.10208480           7.92455680         -13.82732400
     5.49316400           7.87925760         -13.54980480
     5.27095760           8.07094560         -12.91322720
     5.32054880           8.13531840         -13.70000800
     4.64916240           8.00085040         -14.13917520
     4.13274800           7.77292240         -13.56506320
     4.20284240           7.28797920         -13.75102960
     3.71837600           7.05671280         -14.40572720
     3.17144400           7.22456000         -14.20831680
     3.39174240           7.17926000         -13.39483280
     3.47042080           6.83307680         -13.43965520
     3.35645680           6.68764080         -14.18256720
     3.49903120           6.83689120         -14.04905280
     3.69358080           6.70003920         -13.19694480
     3.75938400           6.46877280         -13.10777680
     4.22906880           6.56843200         -13.63897360
     4.91809840           6.77490240         -13.49544560
     4.76121920           6.92749040         -13.24987440
     4.90427040           6.93178160         -13.75389120
     5.83791760           7.02476480         -13.76819600
     5.82170480           7.36141200         -13.53597680
     5.81216800           7.52496720         -14.08672320
     6.55269600           7.49731040         -13.81731040
     6.45637520           7.62367280         -13.13924800
     6.62994400           7.61127440         -13.90171040
     7.34615360           7.52258320         -14.11390320
     7.03382480           7.55739200         -12.83216480
     6.95514640           7.49683360         -12.82119760
     7.37524000           7.72476160         -13.70430000
     7.04574560           7.99608240         -12.98999760
     6.46352800           8.00752640         -12.28618640
     6.39534000           8.18300240         -12.93087040
     6.34050400           8.36515440         -12.87221920
     5.83600960           8.38804240         -12.20846160
     5.74874880           8.36324720         -12.44068160
     6.01577760           8.44097120         -12.44163520
     5.97953760           8.61549360         -11.97481120
     6.21080400           8.77904880         -12.35198960
     6.38532640           9.04560080         -12.37726240
     6.15692160           9.31692160         -11.75785040
     6.76488880           9.44900480         -12.16220880
     7.00902960           9.55677040         -12.59708400
     6.22701680           9.68074800         -12.13932000
     6.61230080           9.77945360         -12.11547840
     6.90364800           9.81855360         -12.56513600
     6.16073600           9.62638880         -12.61377360
     6.31094000           9.51290160         -12.67433200
     6.61039360           9.74845920         -12.88890800
     5.99765760           9.60874560         -12.90559760
     5.78022000           9.16671760         -13.11636000
     6.05201760           9.13143120         -13.62228400
     5.70344960           9.10425200         -13.80586640
     5.22184400           8.65364080         -13.81206480
     5.32150240           8.03279840         -13.75627520
     4.95672240           7.60841360         -13.72385040
     4.41551200           7.31802000         -14.46866960
     4.65154640           6.91270800         -14.73426800
     4.31203840           6.58702880         -14.05620560
     4.00638560           6.37388240         -14.44244400
     4.42743280           6.16025920         -15.17772640
     4.02545920           5.91898000         -14.64176160
     3.71932960           5.63716880         -14.66464960
     4.13370160           5.63430800         -15.54203040
     4.03928720           5.78641920         -15.26117360
     4.09412400           5.85556000         -15.04659680
     4.43172480           5.97476960         -15.69032640
     4.34875520           6.08062720         -15.58256160
     4.48703760           6.24275200         -15.32459280
     4.89711760           6.48498560         -15.98930320
     4.94861600           6.73437120         -16.27922080
     4.83417520           7.12776160         -15.93017600
     5.48410400           7.66277280         -16.07275040
     5.53750960           8.11147680         -16.22056960
     4.27484480           8.52012640         -15.89536640
     4.44364560           8.90064240         -15.65218000
     4.85515600           9.15050480         -15.22922480
     3.59010720           9.56296960         -14.79148880
     3.37362320          10.02645520         -14.48774320
     3.59392160          10.40697120         -12.86220560
     2.38847760          10.85519760         -11.64531680
     1.92880640          11.30580880         -12.35818880
     1.86729440          11.84988000         -11.36970560
     1.19256960          12.17985120          -9.31596720
     1.21450400          12.16220880          -9.48572160
     1.02615360          12.27617280          -9.66358160
     0.64945200          12.41588560          -8.64887200
     1.02472320          12.44020480          -8.44574000
     1.10292400          12.58420960          -8.97407520
     0.91552720          12.73250560          -8.96501520
     1.23262400          12.71724720          -8.79764560
     1.70660000          12.45641680          -9.15622720
     1.55544320          12.07542400          -9.72700080
     1.68609600          11.76786400         -10.10608640
     2.35080720          11.34872400         -10.28633120
     2.37035760          10.85615120         -10.56432720
     2.77805360          10.37073120         -11.24954240
     3.51238240           9.94730000         -11.62576640
     3.26108960           9.58299600         -11.33537280
     3.54003920           9.03034240         -12.03823120
     4.63914880           8.51583520         -12.99381280
     4.80365760           8.32080880         -13.02194560
     5.16700720           8.10146320         -13.43107200
     5.92136400           7.64083840         -13.85784160
     6.02102240           7.31086720         -14.03713200
     6.40058480           7.13443760         -14.68324640
     6.84452080           6.91080080         -15.38228960
     7.28940960           6.66666000         -15.48719440
     7.81202320           6.53648400         -15.68603520
     8.07380640           6.58702880         -16.32070560
     7.99655920           6.50596640         -16.50285760
     7.63893120           6.35242480         -16.45374320
     7.87210480           6.26182560         -16.68071760
     7.95364400           6.18314720         -16.64018640
     7.48729680           6.18028640         -16.12281760
     7.60841360           6.05201760         -15.76328240
     7.55453120           5.95760320         -15.34509680
     7.01284400           6.17361040         -15.02943040
     7.30085360           6.38580320         -14.81580720
     7.50589360           6.61754640         -13.92364480
     7.41720160           7.09342960         -13.55981840
     8.00085040           7.51352320         -13.84496720
     8.05997840           7.91931120         -13.45777520
     8.03995120           8.38375120         -13.17501040
     8.40473200           8.76712800         -13.55218880
     8.40759280           9.23347440         -13.39101760
     8.60595680           9.57632080         -13.00382640
     8.79907600           9.65404480         -13.41247520
     8.62741440           9.73081600         -13.72528080
     8.35037200           9.79948080         -13.65900000
     8.36181680           9.69028480         -13.72766480
     8.60500320           9.51385520         -13.91696960
     8.35943200           9.53054400         -13.93175120
     7.94649120           9.49192080         -13.57221600
     7.70044320           9.06562800         -13.25750320
     7.20453280           8.65316400         -13.14544640
     7.04240800           8.55302800         -13.33427440
     7.17496880           8.48913200         -13.24653600
     6.40630720           8.37135280         -12.59422320
     5.93709920           8.19110880         -12.66193360
     6.00719440           8.00037360         -13.14735440
     5.00345200           7.98177680         -13.21935680
     4.36019920           7.86113760         -13.35906960
     4.25815600           7.59363200         -13.27657680
     3.42512160           7.45868720         -13.10443840
     2.89440160           7.27319680         -13.86260960
     2.59399440           7.11965600         -14.36948800
     1.65844000           6.99567760         -13.89122000
     1.19638480           6.76202800         -13.79871360
     1.43337280           6.80065120         -13.97562000
     1.10530880           6.84165920         -13.68951760
     0.57935680           6.63518880         -13.27657680
     0.74482000           6.64710960         -13.35144080
     1.00517280           6.72292720         -13.40007760
     0.94223040           6.65426240         -13.21554160
     1.64270400           6.76298160         -13.00478000
     2.12049520           6.95991520         -12.33291600
     1.84440640           6.95943840         -12.18414320
     2.79569600           6.84261360         -12.76683840
     3.53288640           6.81114160         -12.40921040
     3.26347360           6.83116880         -11.83843600
     4.14133040           6.76918000         -12.13741280
     4.84275840           6.90174080         -11.70206080
     4.36449040           7.00712240         -11.54088960
     5.09262080           6.76250480         -12.48836480
     5.84697760           6.89220400         -12.20274000
     5.46932240           7.09962880         -11.86370880
     5.98049200           6.78348560         -12.88318640
     6.44111600           6.88791280         -13.07439840
     5.88750800           7.29131680         -12.56704320
     5.57422640           7.21645360         -13.22937040
     5.94377520           7.32851040         -13.86404000
     6.09159440           7.78102880         -13.54885120
     5.68437600           7.97462480         -13.70048560
     5.68437600           7.91931120         -14.12916160
     5.91516480           8.04758080         -13.86451760
     5.86557360           8.48531760         -14.02854880
     5.81598320           8.81671920         -14.71424080
     5.92660880           9.13429280         -14.17541520
     6.13641760           9.41371920         -13.58699760
     5.92660880           9.46283360         -14.49203520
     5.31625760           9.63926320         -15.01655600
     5.30290640           9.72509360         -14.42575440
     5.35106640           9.62209680         -14.32180400
     4.71258160           9.70315920         -15.07663760
     4.57859040           9.80997120         -15.06233200
     4.34350960           9.73987600         -14.16730880
