SERVICIO GEOLOGICO COLOMBIANO- RED NACIONAL DE ACELEROGRAFOS DE COLOMBIA
SISMO DE QUETAME (CUNDINAMARCA) 2008/05/24 19:20:44 ML=5.7
LATITUD DEL EVENTO(GRADOS): 4.4
LONGITUD DEL EVENTO(GRADOS): -73.813
PROFUNDIDAD DEL EVENTO (Km): .3
CODIGO DE LA ESTACION: CROSA
Estacion:EL  ROSAL Geol:ROCA Topo:ONDULADA
LATITUD DE LA ESTACION (GRADOS): 4.848
LONGITUD DE LA ESTACION (GRADOS): -74.321
DISTANCIA EPICENTRAL: 75.183 km
DISTANCIA HIPOCENTRAL: 75.184 km
INTERVALO DE MUESTREO (SEGUNDOS): 0.005
NUMERO DE DATOS: 21200
DURACION (SEGUNDOS): 106
UNIDADES: cm/s^2
TIPO DE EQUIPO: ETNA
ESCALA MAXIMA (G): 2
CORRECCION DE LINEA BASE: LINEA BASE NO REMOVIDA
TIPO DE DATOS: NO CORREGIDO
         EW                  VER                  NS
[...]
     1.34134320           3.76033760          -0.94413760
     1.30987200           3.78179520          -0.75197200
     1.26504880           3.78513360          -0.56695920
     1.24788320           3.77655040          -0.34809120
     1.22880960           3.74650960          -0.09584400
     1.18923200           3.70264080           0.11014960
     1.17063520           3.65114240           0.30279120
     1.17731120           3.60250480           0.50735440
     1.14536320           3.53288640           0.70667280
     1.11866000           3.46899040           0.89311600
     1.11961360           3.45134720           1.07288400
     1.10197040           3.45468560           1.24025360
     1.05953200           3.43275040           1.38187440
     1.06096240           3.45420800           1.55448880
     1.07145280           3.49903120           1.70230880
     1.04761120           3.51047520           1.81674960
     1.08385120           3.58724560           1.96981440
     1.12199760           3.64017520           2.09426880
     1.12199760           3.64112880           2.17056240
     1.17540320           3.72171440           2.29120240
     1.22880960           3.76939760           2.40707360
     1.21116640           3.76367600           2.45380400
     1.23930000           3.80706800           2.53963440
     1.28793680           3.82852560           2.62784960
     1.27744640           3.80516080           2.64644640
     1.27553920           3.77464320           2.67887120
     1.28698320           3.73411200           2.69699120
     1.31464000           3.68833520           2.68793120
     1.30796400           3.61824000           2.65979760
     1.31702400           3.55529760           2.60114640
     1.33371360           3.48234160           2.53295920
     1.29652000           3.38077520           2.43043920
     1.29270560           3.31401840           2.31456720
     1.27410880           3.22008160           2.18772880
     1.23214720           3.09705760           2.05421440
     1.20878240           2.99692160           1.91211680
     1.19018560           2.90107760           1.75857520
     1.15680720           2.80284880           1.59454320
     1.12199760           2.69556080           1.43098800
     1.10864640           2.63452560           1.29270560
     1.05047200           2.56013840           1.07383760
     0.98180800           2.48193760           0.88024160
     0.95176720           2.47287760           0.74195840
     0.90503680           2.45380400           0.53405760
     0.85210800           2.44808160           0.36048880
     0.80299360           2.47907600           0.19693360
     0.77486000           2.53152880           0.00810640
     0.74482000           2.59685520          -0.14114400
     0.68759920           2.67267200          -0.25987600
     0.67281760           2.77185440          -0.36811840
     0.63514720           2.85768480          -0.45394880
     0.57983360           2.95162240          -0.51450720
     0.55789920           3.05938720          -0.54597840
     0.55027040           3.15523120          -0.55932960
     0.52547440           3.24678400          -0.53548800
     0.50210960           3.33499920          -0.48112880
     0.50163280           3.41939920          -0.45680960
     0.46014800           3.48568000          -0.37527120
     0.44107440           3.55386720          -0.26893600
     0.38385360           3.61680960          -0.20265600
     0.32758720           3.67021600          -0.08249280
     0.30708320           3.72028320           0.03480880
     0.25844560           3.75413920           0.11825600
     0.27227440           3.81040560           0.26226080
     0.24843200           3.81660480           0.35047520
     0.23222000           3.80277600           0.39577520
     0.26988960           3.81088240           0.47588320
     0.28944000           3.77845760           0.48828160
     0.32472640           3.74746320           0.47254560
     0.39529840           3.70121040           0.44393520
     0.46777760           3.65972480           0.41723280
     0.51879920           3.59010720           0.35667440
     0.61416640           3.49426240           0.25033920
     0.68092320           3.43465840           0.15449520
     0.74005120           3.36360960           0.03480880
     0.83303440           3.28969920          -0.10156640
     0.90456000           3.20625280          -0.23412720
     0.98800640           3.13997280          -0.36764160
     1.06096240           3.08704400          -0.53930320
     1.13678000           3.02982320          -0.68473840
     1.19924560           2.99930560          -0.82254400
     1.25932720           2.99119920          -0.98323840
     1.31082560           2.99215280          -1.11198400
     1.32036240           2.98786160          -1.25026720
     1.34754160           2.99167600          -1.39522560
     1.35183360           3.01504160          -1.53017040
     1.33323680           3.03554560          -1.63936640
     1.29127520           3.03173040          -1.77478800
     1.26266480           3.07607680          -1.86681760
     1.22976320           3.10420960          -1.91879280
     1.11389200           3.05461920          -2.02846560
     1.03855120           3.07560000          -2.07328800
     0.94890560           3.08227520          -2.11906400
     0.82588160           3.03983680          -2.18200720
     0.74434320           3.05175760          -2.19345120
     0.62942480           3.04794320          -2.21872320
     0.50640080           3.04412880          -2.26163840
     0.42104720           3.07655360          -2.28023520
     0.33617040           3.10850160          -2.26640720
     0.22220640           3.13282000          -2.27975840
     0.15926400           3.18145760          -2.27117520
     0.08249280           3.24058560          -2.24781040
    -0.03624000           3.27253360          -2.28452720
    -0.12302400           3.32736960          -2.28452720
    -0.21314640           3.39460400          -2.22969040
    -0.27561200           3.44085680          -2.20441840
    -0.37622480           3.47518960          -2.18534480
    -0.45633280           3.51667440          -2.11858720
    -0.52785840           3.53670160          -2.05707520
    -0.64706800           3.52334960          -2.03037280
    -0.68092320           3.53050240          -1.94454160
    -0.74482000           3.50522960          -1.88875200
    -0.81872960           3.47471200          -1.85871120
    -0.81634560           3.47137440          -1.74999200
    -0.86736640           3.42845920          -1.72233600
    -0.91934240           3.38316000          -1.70660000
    -0.87976480           3.38316000          -1.61600080
    -0.86975120           3.36504000          -1.58071520
    -0.86164480           3.34072080          -1.56116480
    -0.79011920           3.37696080          -1.48010240
    -0.74911120           3.38506720          -1.44004800
    -0.71525600           3.37219200          -1.44195520
    -0.64086880           3.41749200          -1.34706480
    -0.57315840           3.44181040          -1.23739280
    -0.54550160           3.41320000          -1.17683440
    -0.45680960           3.41272320          -1.03092160
    -0.36191920           3.39221920          -0.83684960
    -0.32711040           3.30495840          -0.73623680
    -0.23746480           3.24583040          -0.54597840
    -0.14352800           3.19385520          -0.27847280
    -0.08726080           3.11422320          -0.10395040
    -0.01001360           3.04269760           0.12111680
     0.08964560           2.99787520           0.37050240
     0.12779200           2.93302560           0.55599200
     0.16307840           2.87342080           0.74148160
     0.23889520           2.86388400           0.98323840
     0.27513520           2.82526000           1.16062160
     0.29802320           2.80141840           1.30987200
     0.31089760           2.81381600           1.51968000
     0.30088400           2.78234480           1.64556480
     0.25844560           2.72274000           1.73807120
     0.22983520           2.69651440           1.87969200
     0.17929040           2.66027440           2.01034560
     0.06389600           2.57682800           2.05755200
    -0.01096720           2.51293200           2.14481360
    -0.11539440           2.43568400           2.24351920
    -0.26178320           2.32362720           2.25210160
    -0.35905840           2.23445920           2.30932240
    -0.47111520           2.14576720           2.36177440
    -0.61368960           2.03800240           2.36415840
    -0.72860720           1.95646320           2.37274160
    -0.83446480           1.86729440           2.39372240
    -0.97703920           1.75142320           2.36272800
    -1.10912320           1.66702240           2.33459440
    -1.19686160           1.56736400           2.34460800
    -1.30462640           1.45292320           2.27355920
    -1.41477600           1.37281440           2.23827360
    -1.49726880           1.28316880           2.18915920
    -1.60312640           1.16968160           2.05087680
    -1.71422960           1.06048560           1.95789360
    -1.80864320           0.97846960           1.85918800
    -1.91020960           0.89311600           1.75094640
    -1.99317920           0.81396080           1.63650480
    -2.04420080           0.76866160           1.49822240
    -2.10046800           0.72383920           1.36232400
    -2.11048160           0.72670000           1.21641120
    -2.09379200           0.77724480           1.08623520
    -2.09236160           0.80156320           0.90122240
    -2.04944640           0.85306160           0.67758560
    -1.98507280           0.94842880           0.49924880
    -1.92070000           1.01184880           0.27036640
    -1.83677680           1.11913680           0.03385520
    -1.73282640           1.25741920          -0.16164800
    -1.68657280           1.33991280          -0.41246400
    -1.65128720           1.44147840          -0.66804880
    -1.57117840           1.57833120          -0.87261200
    -1.56259520           1.69086480          -1.12772000
    -1.56641040           1.81579600          -1.39236480
    -1.52587920           1.99270240          -1.59358960
    -1.54972080           2.12144880          -1.85728080
    -1.60455680           2.23398240          -2.14099920
    -1.59120560           2.38609280          -2.37560240
    -1.57356240           2.53772720          -2.58874880
    -1.60026560           2.66456640          -2.80714000
    -1.56450240           2.77996080          -3.01027280
    -1.48582480           2.91919680          -3.15475440
    -1.45959840           2.98929200          -3.33499920
    -1.38664240           3.05271120          -3.48806400
    -1.26838720           3.13758880          -3.56102000
    -1.16586720           3.16333760          -3.64446640
    -1.02758400           3.18479520          -3.69310400
    -0.88071840           3.20672960          -3.69215040
    -0.75483360           3.19528560          -3.69453440
    -0.64849840           3.16143040          -3.67307680
    -0.48589680           3.17144400          -3.60250480
    -0.34189200           3.15237040          -3.51476640
    -0.25653840           3.09610400          -3.41463120
    -0.09489040           3.08370560          -3.25822800
     0.02431840           3.04126720          -3.12042240
     0.10633440           2.97212640          -2.98261680
     0.25320080           2.91872000          -2.75325760
     0.38814560           2.86102320          -2.55441680
     0.49591040           2.79569600          -2.33793280
     0.63419360           2.74133680          -2.08139440
     0.80823920           2.69937520          -1.85346640
     0.97036400           2.65932080          -1.60932560
     1.12772000           2.60734560          -1.35660160
     1.31511680           2.57968880          -1.10435520
     1.50918960           2.57062880          -0.86259840
     1.68943440           2.56204640          -0.58889360
     1.88875200           2.58874880          -0.33235520
     2.08759280           2.61545200          -0.09727440
     2.24924080           2.65169120           0.15926400
     2.37751040           2.69985200           0.39625200
     2.49862640           2.75182720           0.67186320
     2.55870800           2.79045120           0.93889200
     2.59447120           2.83765760           1.20878240
     2.64883040           2.91681280           1.50918960
     2.62784960           2.96163520           1.78003280
     2.63261760           3.05032720           2.10142160
     2.63738640           3.15094000           2.42567040
     2.57921200           3.19004080           2.68745440
     2.51340880           3.25202960           2.97355680
     2.44855920           3.30305120           3.24773760
     2.39706000           3.33404560           3.50904480
     2.31981280           3.35025760           3.74603280
     2.24876400           3.31020320           3.92770800
     2.16484080           3.26395040           4.11844240
     2.06041360           3.21292880           4.27246080
     1.94883360           3.12614480           4.38404080
     1.83200800           3.04889680           4.47797760
     1.67751280           2.96974160           4.54330480
     1.46293680           2.86769840           4.55379520
     1.28078480           2.81047840           4.52375440
     1.07336080           2.74467440           4.46939440
     0.82111360           2.66790400           4.39739200
     0.57744960           2.62546560           4.29964080
     0.34046160           2.55680080           4.14609920
     0.09059920           2.52246880           4.02975120
    -0.17976800           2.49099760           3.86762640
    -0.43916720           2.42853200           3.68928880
    -0.71477920           2.38037120           3.52382640
    -0.98037680           2.32124320           3.32117120
    -1.19066240           2.29549440           3.17716560
    -1.39665600           2.25687040           3.00312080
    -1.59645120           2.18534480           2.80952480
    -1.73711760           2.14862800           2.63261760
    -1.85203520           2.12001840           2.44522080
    -1.94788000           2.08711600           2.24113440
    -2.01797520           2.05516800           2.03704800
    -2.05707520           2.02226640           1.83296240
    -2.08663920           1.99365600           1.61123280
    -2.10475920           1.96313840           1.41048400
    -2.06947360           1.93882000           1.19113920
    -2.03990960           1.91974640           0.98419200
    -1.99222560           1.91020960           0.78821200
    -1.91879280           1.90782560           0.57601920
    -1.82437920           1.92642240           0.41103360
    -1.72615040           1.94644960           0.21934480
    -1.61027920           1.96361520           0.01144400
    -1.44767760           1.98984160          -0.13399120
    -1.32513040           1.98411920          -0.33903120
    -1.16491280           2.00557680          -0.52547440
    -0.98323840           2.02369680          -0.64897520
    -0.83446480           2.00605360          -0.80108640
    -0.63514720           2.03752480          -0.92697120
    -0.44345840           2.06327440          -1.05428720
    -0.28228720           2.06947360          -1.15537680
    -0.11301040           2.10952720          -1.24216080
     0.06723440           2.16722480          -1.34420400
     0.25558480           2.23350560          -1.41620640
     0.43773680           2.31933600          -1.45149200
     0.63705440           2.41088880          -1.50966640
     0.83112720           2.51054800          -1.57070160
     1.01327920           2.61306800          -1.59740480
     1.22213360           2.70318960          -1.65653200
     1.39093360           2.78568240          -1.71184560
     1.52921680           2.85291680          -1.78003280
     1.68371200           2.92110480          -1.80816640
     1.81245840           2.96640400          -1.84202160
     1.92546880           2.99882880          -1.90544160
     2.02322000           3.03697600          -1.91736240
     2.08663920           3.05795680          -1.98507280
     2.14195280           3.09658080          -2.02369680
     2.19345120           3.14188000          -2.04277040
     2.21586240           3.18527200          -2.08997760
     2.22444560           3.24010880          -2.11572640
     2.23445920           3.27968560          -2.12383280
     2.21824640           3.33404560          -2.11715680
     2.18915920           3.38697440          -2.13050880
     2.16865520           3.42464480          -2.09808320
     2.11906400           3.46660640          -2.08473200
     2.04849280           3.46231440          -2.09093120
     1.97124480           3.45087040          -2.07996400
     1.88112240           3.45611600          -2.06613520
     1.76239040           3.41653840          -2.05755200
     1.61552400           3.35693360          -2.12621680
     1.49726880           3.31640240          -2.10332880
     1.33037600           3.23867760          -2.07996400
     1.16586720           3.15666160          -2.15911840
     1.01852400           3.09228880          -2.17199360
     0.83065040           2.97927840          -2.19583520
     0.68616880           2.90441520          -2.19774240
     0.51593760           2.87008320          -2.15816480
     0.34809120           2.81906160          -2.15530400
     0.21553040           2.77662240          -2.12144880
     0.08344640           2.73799920          -2.06851920
    -0.03957760           2.70080560          -2.03084960
    -0.14972720           2.66695040          -1.95837040
    -0.23031200           2.64024720          -1.86491040
    -0.30994400           2.60114640          -1.80864320
    -0.38480720           2.55346320          -1.72758080
    -0.45680960           2.51150160          -1.62887600
    -0.51450720           2.47287760          -1.53112400
    -0.60319920           2.43425360          -1.41429920
    -0.69522880           2.39753760          -1.31845440
    -0.75912480           2.39944480          -1.18827840
    -0.85067760           2.39944480          -1.08146640
    -0.92315680           2.39896800          -0.99611280
    -0.97179440           2.46334080          -0.85496880
    -1.00278880           2.53248240          -0.75054160
    -1.03521360           2.58827200          -0.67853920
    -1.04761120           2.67028800          -0.57411200
    -1.00183520           2.77423840          -0.47922160
    -0.96893280           2.88438800          -0.41961680
    -0.92506400           2.97021840          -0.32138800
    -0.83875680           3.06987760          -0.24652480
    -0.76866160           3.17716560          -0.18882720
    -0.68998320           3.25632080          -0.11396400
    -0.59700000           3.35359600          -0.06008160
    -0.51975280           3.45134720           0.00906000
    -0.45537920           3.50952160           0.04863760
