SERVICIO GEOLOGICO COLOMBIANO- RED NACIONAL DE ACELEROGRAFOS DE COLOMBIA
SISMO DE QUETAME (CUNDINAMARCA) 2008/05/24 19:20:44 ML=5.7
LATITUD DEL EVENTO(GRADOS): 4.4
LONGITUD DEL EVENTO(GRADOS): -73.813
PROFUNDIDAD DEL EVENTO (Km): .3
CODIGO DE LA ESTACION: CIBA3
Estacion:IBAGUE CHAMPAGNAT Geol:SUELO Topo:PLANA
LATITUD DE LA ESTACION (GRADOS): 4.4319
LONGITUD DE LA ESTACION (GRADOS): -75.188
DISTANCIA EPICENTRAL: 152.666 km
DISTANCIA HIPOCENTRAL: 152.666 km
INTERVALO DE MUESTREO (SEGUNDOS): 0.005
NUMERO DE DATOS: 11800
DURACION (SEGUNDOS): 59
UNIDADES: cm/s^2
TIPO DE EQUIPO: ETNA
ESCALA MAXIMA (G): 1
CORRECCION DE LINEA BASE: LINEA BASE NO REMOVIDA
TIPO DE DATOS: NO CORREGIDO
         NS                  VER                  EW
[...]
    -0.57196600          -6.50787360           4.46677200
    -0.76699240          -5.75113280           4.71615800
    -0.78988080          -4.99200840           4.78267680
    -0.82588200          -4.30488600           4.58073600
    -0.64063080          -3.76415240           4.23216800
    -0.39029120          -3.39293480           3.81708160
    -0.02932560          -3.20386880           3.41892240
     0.46420080          -3.14927120           3.15141680
     0.94246880          -3.21507440           3.00264360
     1.50704400          -3.40628640           2.98714640
     2.04753880          -3.65901000           3.07106960
     2.49886520          -3.97968280           3.20696840
     2.84719480          -4.31704520           3.33499920
     3.16309920          -4.64510920           3.42321400
     3.37314600          -4.98247160           3.40199480
     3.49783880          -5.34319880           3.23820120
     3.54051600          -5.68914400           2.97021880
     3.48663320          -6.02078440           2.64763840
     3.44181080          -6.37030600           2.37083440
     3.31234920          -6.73604000           2.20489520
     3.16286080          -7.16066360           2.11262720
     2.99644480          -7.59100920           2.02107440
     2.80094160          -8.05759440           1.90973280
     2.61449800          -8.49628440           1.76572800
     2.39634520          -8.87084000           1.63507480
     2.18606000          -9.20867920           1.54113760
     2.02608120          -9.44542880           1.49273880
     1.88970560          -9.63902480           1.48248680
     1.80220600          -9.73677640           1.47581120
     1.79457680          -9.75322720           1.47199640
     1.83153160          -9.71841800           1.40404720
     2.04134000          -9.62758080           1.34229680
     2.25877760          -9.54985600           1.24716760
     2.58469600          -9.44185240           1.18708600
     2.99882880          -9.34052480           1.23882280
     3.39150440          -9.25493240           1.28388400
     3.90982640          -9.17863840           1.40976920
     4.25243360          -9.14955120           1.47128120
     4.64224800          -9.11450400           1.48248680
     4.82940680          -9.12976280           1.45816800
     4.80270400          -9.15575040           1.40976920
     4.72068800          -9.10902040           1.44433960
     4.35566920          -9.04250160           1.45602240
     4.01735320          -8.86917120           1.54256840
     3.46899040          -8.56566440           1.63388240
     2.88987160          -8.18228720           1.73950200
     2.25257880          -7.68852240           1.91593160
     1.46341320          -7.12871560           2.14839000
     0.73361400          -6.56247120           2.45952600
    -0.04267680          -6.00552560           2.79378880
    -0.71311000          -5.46455400           3.14688680
    -1.30558000          -4.98890880           3.31091880
    -1.64318080          -4.55808640           3.26442720
    -1.84321400          -4.19521320           3.00192840
    -1.86467160          -3.92627720           2.61521320
    -1.77025800          -3.71289240           2.32076640
    -1.58405320          -3.59654440           2.17843040
    -1.24025360          -3.53884680           2.32458120
    -1.09553320          -3.59439840           2.58708000
    -0.73623640          -3.71646880           2.97522560
    -0.54764760          -3.94248960           3.25465200
    -0.29253960          -4.32109840           3.35907920
    -0.00333800          -4.77314000           3.42488280
     0.12969960          -5.37252440           3.27444080
     0.57125080          -5.98931320           3.13758840
     0.83374960          -6.60634040           2.89750080
     1.42741200          -7.19761840           2.68769280
     1.93238240          -7.68566120           2.50887880
     2.52914440          -8.05902480           2.39944440
     3.21674360          -8.29815880           2.47383120
     3.68213640          -8.40663920           2.64263160
     4.26173200          -8.34631920           3.09181200
     4.47130200          -8.13817960           3.61251840
     4.69088560          -7.77578360           4.24170480
     4.66632840          -7.32755680           4.77194800
     4.52280040          -6.82973880           5.19824040
     4.10008440          -6.34574880           5.43689720
     3.60035880          -5.89776040           5.42140000
     3.02720080          -5.50913800           5.29003160
     2.20489520          -5.24401680           4.90283960
     1.57094000          -5.01275080           4.50563440
     0.68688400          -4.84132760           4.02808200
     0.03719320          -4.75358960           3.64017480
    -0.67448600          -4.68397160           3.35383400
    -1.27387040          -4.64081760           3.14641000
    -1.75976760          -4.60982320           3.01361080
    -2.27332120          -4.57978240           2.80714040
    -2.48146040          -4.52947600           2.56395320
    -2.73251520          -4.45294400           2.11334240
    -2.73609160          -4.37617320           1.56283360
    -2.63047200          -4.26912320           0.88810920
    -2.28738800          -4.15039080           0.19764920
    -1.83439240          -4.00924680          -0.43106080
    -1.27077120          -3.83687000          -0.89859960
    -0.62036520          -3.65734120          -1.14583960
     0.02813320          -3.47995760          -1.26743320
     0.73504440          -3.30805760          -1.19233120
     1.24216080          -3.15976160          -1.13415720
     1.79076200          -3.05938720          -1.09839440
     2.11739560          -2.97307960          -1.17135040
     2.36749640          -2.90751440          -1.30748760
     2.46906280          -2.88414960          -1.40762320
     2.46977800          -2.90679920          -1.42765040
     2.44116800          -2.99716000          -1.25050560
     2.26426120          -3.16476840          -0.95200520
     2.19082840          -3.43060480          -0.48899640
     2.05636040          -3.79610080          -0.01549720
     2.08616240          -4.28271280           0.47135360
     2.01082240          -4.89807120           0.85806840
     2.08163280          -5.52582760           1.15919120
     2.21085560          -6.19530680           1.33752840
     2.38347040          -6.85691840           1.35350240
     2.69389160          -7.45010360           1.39522560
     2.84981720          -8.00728800           1.34682640
     3.24296960          -8.43548760           1.43623360
     3.48567960          -8.75782960           1.56331080
     3.89075280          -8.97383680           1.76429760
     4.21214120          -9.10282120           1.98435800
     4.53186040          -9.13119320           2.10881240
     4.90975360          -9.13310040           2.16054920
     5.12409200          -9.13071640           2.01010720
     5.47432880          -9.09757600           1.86443320
     5.59473040          -9.15241240           1.69992440
     5.77759760          -9.22751440           1.77192680
     5.69224360          -9.32788840           2.03418720
     5.64765920          -9.43708400           2.50363360
     5.45620920          -9.56034680           3.09228880
     5.14769560          -9.68265520           3.61704840
     4.88615040          -9.74679000           4.12917120
     4.31561480          -9.81736200           4.36735160
     3.93247600          -9.79089720           4.53543680
     3.25250640          -9.68480120           4.51183320
     2.66575800          -9.55200200           4.41622720
     1.99437160          -9.31668280           4.32848920
     1.34444240          -9.03272640           4.16731840
     0.93674640          -8.71682160           4.12178040
     0.43225280          -8.38923440           4.09960760
     0.27203560          -8.08215160           4.18138520
     0.14495840          -7.82179840           4.22334680
     0.23245800          -7.65585880           4.19902800
     0.37670120          -7.55620000           4.07242760
     0.60486800          -7.50756280           3.82161160
     0.90551360          -7.48014440           3.54409200
     1.14321720          -7.45701800           3.28469280
     1.41716000          -7.39455240           3.18479520
     1.49750720          -7.26008400           3.19027920
     1.67012200          -7.01999680           3.38625920
     1.64365760          -6.67643560           3.63922120
     1.65224080          -6.21199600           3.90958800
     1.60574920          -5.63216200           4.15420520
     1.46102920          -4.99176960           4.25553320
     1.38163560          -4.30417080           4.33111200
     1.09720240          -3.66377840           4.24385080
     1.02114680          -3.07536120           4.15372840
     0.74529640          -2.62379640           3.98135200
     0.58317200          -2.32172000           3.79371640
     0.45824040          -2.20394120           3.62777720
     0.28538720          -2.27355960           3.39555760
     0.20837800          -2.50673280           3.22437280
     0.02360360          -2.87866600           2.94494640
     0.05245200          -3.31544880           2.70533560
    -0.11110320          -3.85689720           2.37298000
    -0.14591200          -4.36115280           2.06971160
    -0.24437920          -4.89377960           1.78623200
    -0.30326840          -5.36942480           1.58143040
    -0.44703480          -5.80096240           1.56831760
    -0.60510640          -6.21747960           1.60527240
    -0.70118920          -6.51025760           1.77478800
    -1.03425960          -6.75296800           1.85346600
    -1.14917760          -6.84666640           1.99866280
    -1.52707080          -6.81853280           2.01535240
    -1.61790840          -6.65020960           2.07185760
    -1.89495080          -6.41489040           2.14934360
    -2.04920760          -6.08110440           2.17652320
    -2.01058400          -5.67674640           2.26688400
    -2.11572640          -5.24687760           2.15864200
    -1.83653840          -4.79292880           2.06708920
    -1.75690640          -4.40073000           1.79982200
    -1.30796440          -4.04167160           1.58619880
    -0.98443040          -3.83615480           1.40261640
    -0.49424160          -3.71503840           1.30915640
     0.08726120          -3.69882600           1.37329120
     0.61678880          -3.79800800           1.44982320
     1.34778040          -4.01449200           1.67989720
     1.90377240          -4.37808040           1.80411320
     2.69699080          -4.82273120           1.92952160
     3.26585760          -5.36036480           1.89781200
     3.93104560          -5.91349600           1.81269640
     4.40263760          -6.38151160           1.74045560
     4.79936600          -6.69908520           1.70540800
     5.19108760          -6.89816480           1.90114960
     5.33676160          -6.96158400           2.24018080
     5.57398800          -6.91890720           2.81739240
     5.54561600          -6.79731360           3.46827520
     5.56826600          -6.63328160           4.14061560
     5.46860680          -6.48093240           4.70018400
     5.30910480          -6.36506080           5.04350680
     5.17678280          -6.36672960           5.16033160
     4.99749200          -6.46901120           5.05375880
     4.86564640          -6.66975960           4.78696840
     4.78076920          -6.92558280           4.42647920
     4.74977480          -7.20381720           4.10676000
     4.71568120          -7.43961320           3.81732000
     4.87017640          -7.55143160           3.64279760
     4.99081600          -7.54189480           3.48210320
     5.19967080          -7.37833960           3.34858880
     5.33366200          -7.10058200           3.21102160
     5.38373000          -6.70433040           3.02577000
     5.39326680          -6.23631480           2.91657440
     5.13553600          -5.79166400           2.87246720
     4.78863720          -5.42545320           2.96998040
     4.22310840          -5.17606720           3.11374680
     3.54790680          -5.07736200           3.25775160
     2.76041040          -5.15508640           3.29017640
     1.94025040          -5.32412520           3.13258160
     1.12366680          -5.60355200           2.79641160
     0.32734880          -5.88703160           2.32028960
    -0.39982800          -6.08515720           1.83081640
    -1.04784960          -6.20436680           1.36137000
    -1.55568120          -6.15453720           1.03068360
    -2.12311760          -5.96475600           0.78153600
    -2.55250920          -5.60259800           0.63586240
    -2.96807280          -5.07521640           0.57053560
    -3.36670880          -4.47583200           0.50568600
    -3.71432320          -3.86476520           0.48613560
    -4.21977040          -3.33547600           0.35667400
    -4.60553160          -2.89726240           0.13375280
    -5.06329520          -2.55680080          -0.21195400
    -5.54752360          -2.35605240          -0.66351880
    -5.94306000          -2.24018080          -1.03878960
    -6.37221320          -2.20370280          -1.37686720
    -6.50262840          -2.21037880          -1.53112400
    -6.55961040          -2.20966320          -1.53446200
    -6.34217280          -2.14958200          -1.43337240
    -5.82861920          -1.98388080          -1.17683400
    -5.20801560          -1.75046920          -0.88691720
    -4.20761120          -1.48487080          -0.52475920
    -3.19099440          -1.23357760          -0.22482880
    -1.99031840          -1.02925320           0.05650520
    -0.78296680          -0.98490720           0.26965160
     0.37670120          -1.11436840           0.35953520
     1.57976160          -1.45554560           0.35405160
     2.60782240          -1.99937840           0.24437920
     3.55720520          -2.70533560           0.16999240
     4.40454480          -3.53884680           0.16808520
     5.18941880          -4.38141840           0.38385400
     5.86843480          -5.18536560           0.75483320
     6.53672200          -5.83004960           1.29151360
     7.07864760          -6.32739080           1.82151800
     7.69901280          -6.64901720           2.26020800
     8.12625880          -6.85358040           2.55155560
     8.42690480          -6.99758520           2.63643280
     8.60309600          -7.08723080           2.67386440
     8.44264040          -7.24291800           2.61998160
     8.18753240          -7.46178640           2.65502920
     7.50017160          -7.76696200           2.74896640
     6.69479360          -8.16130640           2.96473520
     5.56588160          -8.61072560           3.24225440
     4.32562840          -9.07397280           3.51715080
     3.06177120          -9.53841200           3.69071960
     1.81412680          -9.90104680           3.66354000
     0.74648840         -10.15138640           3.46851360
    -0.18262880         -10.21862040           3.06677800
    -0.75578680         -10.06531720           2.62618080
    -1.19018560          -9.73105440           2.09331520
    -1.21021280          -9.18149960           1.70993800
    -1.21593480          -8.51750360           1.37257560
    -0.91052040          -7.75289520           1.15180000
    -0.63180920          -7.05218320           1.09648720
    -0.41604040          -6.46829600           1.13844880
    -0.14662760          -6.04963320           1.45077720
    -0.25534640          -5.85126880           1.80172920
    -0.19288080          -5.83434120           2.26259240
    -0.46253200          -6.01029400           2.58779520
    -0.66781040          -6.26564040           2.76994720
    -0.93197840          -6.50715840           2.78496760
    -1.13272680          -6.60657880           2.69866000
    -1.12795840          -6.54220600           2.66981120
    -1.13630280          -6.23154640           2.71320360
    -0.87690360          -5.69152840           3.00169000
    -0.62799440          -4.92620480           3.36909280
    -0.15568720          -3.99327280           3.88669960
     0.22697440          -3.05652600           4.31847560
     0.64086920          -2.17747680           4.66084480
     0.88977800          -1.55878080           4.80318080
     1.03569040          -1.20425240           4.68826280
     1.03569040          -1.16324440           4.46105000
     0.77629080          -1.42097480           4.02402880
     0.50902360          -1.90877920           3.59940520
     0.01454360          -2.58755680           3.13115120
    -0.29754640          -3.29637520           2.73895280
    -0.67973120          -3.98230560           2.39563000
    -0.89788440          -4.54902640           2.13551520
    -1.01447120          -4.98247160           1.97649000
    -1.02305400          -5.26046760           1.86657920
    -0.83923320          -5.39612760           1.87182440
    -0.66804880          -5.45692440           1.88446040
    -0.27537360          -5.43165200           1.94859520
     0.00810640          -5.41329400           1.91998480
     0.42200080          -5.45907040           1.90925600
     0.72455400          -5.59568400           1.86538680
     1.01566320          -5.85627560           1.78766240
     1.31177920          -6.16860400           1.78527840
     1.43933280          -6.54387480           1.72019000
     1.70683880          -6.91604600           1.68061240
     1.79457680          -7.19690320           1.57284720
     1.98006640          -7.41410240           1.44553200
     2.11358080          -7.50112520           1.33585920
     2.20227240          -7.49540320           1.24788280
     2.40898120          -7.44724280           1.27458560
     2.49171240          -7.37524040           1.34611120
     2.60877600          -7.33733160           1.48940080
     2.61807440          -7.39026080           1.60193440
     2.65669840          -7.55095480           1.67417520
     2.60281560          -7.84158720           1.72615040
     2.43783000          -8.24284560           1.78599360
     2.20894800          -8.69536400           1.89852720
     1.84559840          -9.17148600           2.01320640
     1.48272520          -9.55963120           2.19678880
     0.97537040          -9.81068600           2.33888640
     0.52881240          -9.80567920           2.52890600
     0.01001360          -9.54222680           2.70891200
    -0.36764160          -9.04130920           2.89797800
    -0.76818480          -8.25452800           3.13091280
    -1.12581240          -7.25698480           3.30352800
    -1.25694280          -6.11710560           3.58700760
    -1.48701680          -4.99153120           3.80659120
    -1.35421760          -3.93033040           4.09483920
    -1.33085240          -3.00383560           4.34136400
    -1.07765200          -2.29311000           4.49299800
    -0.68926800          -1.81269640           4.60839280
    -0.33307080          -1.56974800           4.56190120
