SERVICIO GEOLOGICO COLOMBIANO- RED NACIONAL DE ACELEROGRAFOS DE COLOMBIA
SISMO DE CORDOBA (QUINDIO) 1999/01/25 18:19:17 ML=6.3
LATITUD DEL EVENTO(GRADOS): 4.439
LONGITUD DEL EVENTO(GRADOS): -75.698
PROFUNDIDAD DEL EVENTO (Km): 0
CODIGO DE LA ESTACION: CARME
Estacion:ARMENIA Geol:SUELO Topo:PLANA
LATITUD DE LA ESTACION (GRADOS): 4.55
LONGITUD DE LA ESTACION (GRADOS): -75.66
DISTANCIA EPICENTRAL: 13.023 km
DISTANCIA HIPOCENTRAL: 13.023 km
INTERVALO DE MUESTREO (SEGUNDOS): 0.005
NUMERO DE DATOS: 14336
DURACION (SEGUNDOS): 71.680
UNIDADES: cm/s^2
TIPO DE EQUIPO: SSA
ESCALA MAXIMA (G): 2
CORRECCION DE LINEA BASE: LINEA BASE NO REMOVIDA
TIPO DE DATOS: NO CORREGIDO
         EW                  VER                  NS
[...]
   -31.25000000          59.57031280        -115.23437520
   -50.78124960          14.64843760         -96.67968720
   -85.93750000         -19.53124960         -82.03124960
  -122.07031280         -43.94531280         -83.00781280
  -151.36718720         -59.57031280         -96.67968720
  -172.85156240         -69.33593760        -115.23437520
  -182.61718720         -74.21875040        -127.92968720
  -179.68750000         -77.14843760        -125.97656240
  -165.03906240         -77.14843760        -108.39843760
  -145.50781280         -74.21875040         -76.17187520
  -119.14062480         -62.50000000         -37.10937520
   -90.82031280         -36.13281280           0.97656240
   -61.52343760          11.71875040          30.27343760
   -32.22656240          81.05468720          47.85156240
    -3.90624960         153.32031280          56.64062480
    23.43750000         208.98437520          59.57031280
    48.82812480         231.44531280          57.61718720
    69.33593760         215.82031280          48.82812480
    86.91406240         166.01562480          32.22656240
   103.51562480          92.77343760          17.57812480
   120.11718720           9.76562480          11.71875040
   137.69531280         -67.38281280          10.74218720
   146.48437520        -128.90624960          12.69531280
   135.74218720        -168.94531280          16.60156240
   106.44531280        -186.52343760          17.57812480
    69.33593760        -182.61718720          14.64843760
    23.43750000        -164.06250000          10.74218720
   -30.27343760        -141.60156240           5.85937520
   -83.00781280        -123.04687520          -1.95312480
  -126.95312480        -111.32812480         -12.69531280
  -166.01562480        -107.42187520         -23.43750000
  -200.19531280        -107.42187520         -29.29687520
  -223.63281280        -106.44531280         -27.34375040
  -232.42187520         -96.67968720         -16.60156240
  -232.42187520         -81.05468720          -0.97656240
  -232.42187520         -62.50000000          17.57812480
  -233.39843760         -47.85156240          42.96875040
  -230.46875040         -40.03906240          73.24218720
  -222.65624960         -41.99218720         106.44531280
  -209.96093760         -48.82812480         135.74218720
  -195.31250000         -58.59375040         151.36718720
  -186.52343760         -68.35937520         150.39062480
  -191.40624960         -71.28906240         134.76562480
  -203.12500000         -60.54687520         110.35156240
  -215.82031280         -34.17968720          83.98437520
  -216.79687520           4.88281280          60.54687520
  -197.26562480          47.85156240          41.01562480
  -155.27343760          86.91406240          31.25000000
  -103.51562480         110.35156240          35.15624960
   -54.68750000         114.25781280          51.75781280
    -9.76562480          97.65624960          75.19531280
    28.32031280          69.33593760          96.67968720
    53.71093760          38.08593760         114.25781280
    61.52343760          10.74218720         131.83593760
    56.64062480          -6.83593760         152.34375040
    42.96875040         -19.53124960         175.78124960
    32.22656240         -30.27343760         199.21875040
    30.27343760         -42.96875040         218.75000000
    42.96875040         -56.64062480         233.39843760
    66.40624960         -65.42968720         242.18750000
    92.77343760         -65.42968720         246.09375040
   114.25781280         -56.64062480         250.00000000
   125.97656240         -38.08593760         259.76562480
   129.88281280          -4.88281280         278.32031280
   128.90624960          41.01562480         302.73437520
   125.97656240          94.72656240         327.14843760
   115.23437520         141.60156240         345.70312480
   101.56250000         168.94531280         353.51562480
    87.89062480         166.01562480         350.58593760
    82.03124960         126.95312480         336.91406240
    82.03124960          53.71093760         313.47656240
    88.86718720         -44.92187520         279.29687520
   105.46875040        -149.41406240         236.32812480
   132.81250000        -239.25781280         188.47656240
   165.03906240        -292.96875040         144.53124960
   190.42968720        -303.71093760         113.28124960
   208.98437520        -275.39062480         103.51562480
   224.60937520        -225.58593760         116.21093760
   239.25781280        -174.80468720         145.50781280
   248.04687520        -136.71875040         169.92187520
   248.04687520        -122.07031280         173.82812480
   237.30468720        -131.83593760         153.32031280
   211.91406240        -160.15624960         118.16406240
   168.94531280        -198.24218720          76.17187520
   113.28124960        -233.39843760          38.08593760
    53.71093760        -251.95312480           2.92968720
     4.88281280        -240.23437520         -29.29687520
   -25.39062480        -194.33593760         -52.73437520
   -37.10937520        -121.09375040         -62.50000000
   -39.06250000         -33.20312480         -62.50000000
   -37.10937520          54.68750000         -64.45312480
   -35.15624960         128.90624960         -75.19531280
   -37.10937520         183.59375040         -96.67968720
   -37.10937520         217.77343760        -125.97656240
   -22.46093760         230.46875040        -166.01562480
     4.88281280         214.84375040        -214.84375040
    34.17968720         166.01562480        -265.62500000
    51.75781280          87.89062480        -308.59375040
    53.71093760          -9.76562480        -334.96093760
    56.64062480        -106.44531280        -344.72656240
    78.12500000        -174.80468720        -336.91406240
   121.09375040        -207.03124960        -321.28906240
   183.59375040        -209.96093760        -304.68750000
   244.14062480        -193.35937520        -278.32031280
   289.06250000        -163.08593760        -240.23437520
   326.17187520        -116.21093760        -197.26562480
   358.39843760         -52.73437520        -149.41406240
   378.90624960          20.50781280         -96.67968720
   388.67187520          94.72656240         -49.80468720
   389.64843760         160.15624960          -9.76562480
   380.85937520         208.00781280          23.43750000
   367.18750000         234.37500000          45.89843760
   347.65624960         240.23437520          60.54687520
   326.17187520         227.53906240          64.45312480
   298.82812480         199.21875040          52.73437520
   266.60156240         156.25000000          20.50781280
   232.42187520         110.35156240         -33.20312480
   200.19531280          71.28906240        -102.53906240
   172.85156240          47.85156240        -170.89843760
   154.29687520          44.92187520        -224.60937520
   145.50781280          54.68750000        -256.83593760
   139.64843760          55.66406240        -274.41406240
   125.97656240          24.41406240        -280.27343760
    93.75000000         -45.89843760        -277.34375040
    43.94531280        -144.53124960        -266.60156240
   -23.43750000        -247.07031280        -251.95312480
   -98.63281280        -327.14843760        -238.28124960
  -159.17968720        -375.00000000        -234.37500000
  -198.24218720        -394.53124960        -237.30468720
  -220.70312480        -395.50781280        -239.25781280
  -236.32812480        -377.92968720        -228.51562480
  -242.18750000        -340.82031280        -206.05468720
  -241.21093760        -283.20312480        -178.71093760
  -234.37500000        -211.91406240        -150.39062480
  -221.67968720        -137.69531280        -125.00000000
  -202.14843760         -69.33593760        -110.35156240
  -180.66406240         -10.74218720        -107.42187520
  -166.99218720          37.10937520        -113.28124960
  -171.87500000          80.07812480        -125.00000000
  -198.24218720         122.07031280        -132.81250000
  -243.16406240         161.13281280        -132.81250000
  -296.87500000         195.31250000        -124.02343760
  -340.82031280         218.75000000        -111.32812480
  -361.32812480         230.46875040         -99.60937520
  -349.60937520         230.46875040         -92.77343760
  -311.52343760         223.63281280         -91.79687520
  -259.76562480         214.84375040         -92.77343760
  -206.05468720         207.03124960         -94.72656240
  -157.22656240         200.19531280         -96.67968720
  -112.30468720         191.40624960         -94.72656240
   -72.26562480         176.75781280         -83.00781280
   -37.10937520         156.25000000         -57.61718720
    -4.88281280         128.90624960         -23.43750000
    24.41406240         100.58593760          11.71875040
    51.75781280          72.26562480          41.99218720
    76.17187520          44.92187520          63.47656240
    90.82031280          15.62500000          81.05468720
    94.72656240         -21.48437520         104.49218720
    96.67968720         -67.38281280         137.69531280
   106.44531280        -113.28124960         184.57031280
   129.88281280        -148.43750000         238.28124960
   167.96875040        -165.03906240         294.92187520
   208.98437520        -160.15624960         348.63281280
   241.21093760        -134.76562480         396.48437520
   259.76562480         -98.63281280         434.57031280
   263.67187520         -59.57031280         459.96093760
   251.95312480         -24.41406240         475.58593760
   230.46875040           4.88281280         484.37500000
   200.19531280          24.41406240         490.23437520
   163.08593760          33.20312480         494.14062480
   118.16406240          33.20312480         493.16406240
    64.45312480          25.39062480         485.35156240
     5.85937520          14.64843760         470.70312480
   -49.80468720           2.92968720         446.28906240
   -98.63281280          -8.78906240         410.15624960
  -133.78906240         -21.48437520         363.28124960
  -148.43750000         -36.13281280         305.66406240
  -144.53124960         -54.68750000         244.14062480
  -127.92968720         -77.14843760         181.64062480
  -106.44531280        -105.46875040         125.97656240
   -87.89062480        -136.71875040          88.86718720
   -81.05468720        -168.94531280          78.12500000
   -94.72656240        -194.33593760          96.67968720
  -125.97656240        -206.05468720         134.76562480
  -166.99218720        -196.28906240         179.68750000
  -208.98437520        -161.13281280         211.91406240
  -241.21093760         -97.65624960         220.70312480
  -257.81250000         -11.71875040         199.21875040
  -259.76562480          84.96093760         156.25000000
  -246.09375040         172.85156240         103.51562480
  -218.75000000         243.16406240          51.75781280
  -181.64062480         292.96875040          10.74218720
  -137.69531280         318.35937520         -15.62500000
   -83.98437520         316.40624960         -32.22656240
   -15.62500000         283.20312480         -39.06250000
    65.42968720         220.70312480         -39.06250000
   153.32031280         133.78906240         -34.17968720
   234.37500000          33.20312480         -34.17968720
   286.13281280         -62.50000000         -52.73437520
   283.20312480        -137.69531280         -95.70312480
   215.82031280        -185.54687520        -148.43750000
   119.14062480        -214.84375040        -180.66406240
    61.52343760        -227.53906240        -170.89843760
    78.12500000        -222.65624960        -137.69531280
   143.55468720        -208.00781280        -104.49218720
   220.70312480        -194.33593760         -80.07812480
   311.52343760        -177.73437520         -70.31250000
   409.17968720        -150.39062480         -59.57031280
   484.37500000        -114.25781280         -30.27343760
   527.34375040         -66.40624960          18.55468720
   538.08593760          -6.83593760          78.12500000
   516.60156240          55.66406240         137.69531280
   463.86718720         115.23437520         181.64062480
   393.55468720         162.10937520         200.19531280
   317.38281280         193.35937520         190.42968720
   242.18750000         210.93750000         149.41406240
   170.89843760         214.84375040          79.10156240
   105.46875040         209.96093760         -10.74218720
    50.78124960         195.31250000        -109.37500000
     6.83593760         169.92187520        -208.00781280
   -18.55468720         130.85937520        -292.96875040
    -7.81250000          76.17187520        -350.58593760
    50.78124960          -0.97656240        -372.07031280
   142.57812480        -106.44531280        -361.32812480
   239.25781280        -228.51562480        -323.24218720
   304.68750000        -333.00781280        -283.20312480
   294.92187520        -379.88281280        -276.36718720
   200.19531280        -358.39843760        -313.47656240
    63.47656240        -311.52343760        -379.88281280
   -59.57031280        -274.41406240        -454.10156240
  -154.29687520        -253.90624960        -519.53124960
  -218.75000000        -239.25781280        -561.52343760
  -247.07031280        -221.67968720        -582.03124960
  -249.02343760        -195.31250000        -579.10156240
  -245.11718720        -161.13281280        -553.71093760
  -249.02343760        -120.11718720        -507.81250000
  -256.83593760         -72.26562480        -443.35937520
  -267.57812480         -17.57812480        -363.28124960
  -283.20312480          40.03906240        -276.36718720
  -297.85156240         100.58593760        -193.35937520
  -305.66406240         160.15624960        -125.97656240
  -308.59375040         211.91406240         -79.10156240
  -311.52343760         252.92968720         -55.66406240
  -309.57031280         279.29687520         -47.85156240
  -303.71093760         292.96875040         -51.75781280
  -296.87500000         291.99218720         -56.64062480
  -291.01562480         277.34375040         -56.64062480
  -280.27343760         248.04687520         -45.89843760
  -265.62500000         202.14843760         -19.53124960
  -248.04687520         141.60156240          18.55468720
  -221.67968720          71.28906240          61.52343760
  -185.54687520           3.90624960          96.67968720
  -142.57812480         -51.75781280         110.35156240
   -99.60937520         -87.89062480          92.77343760
   -58.59375040         -96.67968720          43.94531280
   -22.46093760         -83.00781280         -18.55468720
     9.76562480         -51.75781280         -73.24218720
    38.08593760         -13.67187520         -98.63281280
    61.52343760          20.50781280         -88.86718720
    86.91406240          40.03906240         -42.96875040
   106.44531280          29.29687520          26.36718720
   117.18750000         -18.55468720         110.35156240
   126.95312480        -111.32812480         197.26562480
   125.97656240        -233.39843760         275.39062480
   104.49218720        -356.44531280         333.00781280
    62.50000000        -447.26562480         358.39843760
    26.36718720        -482.42187520         347.65624960
     8.78906240        -456.05468720         313.47656240
     3.90624960        -379.88281280         275.39062480
     4.88281280        -270.50781280         238.28124960
    14.64843760        -137.69531280         200.19531280
    16.60156240           0.97656240         163.08593760
     0.00000000         128.90624960         133.78906240
   -36.13281280         231.44531280         113.28124960
   -92.77343760         296.87500000         103.51562480
  -166.01562480         321.28906240         104.49218720
  -242.18750000         299.80468720         117.18750000
  -307.61718720         233.39843760         145.50781280
  -343.75000000         123.04687520         189.45312480
  -337.89062480         -21.48437520         246.09375040
  -284.17968720        -186.52343760         309.57031280
  -196.28906240        -340.82031280         366.21093760
  -118.16406240        -447.26562480         400.39062480
   -96.67968720        -479.49218720         399.41406240
  -125.00000000        -444.33593760         365.23437520
  -158.20312480        -369.14062480         310.54687520
  -167.96875040        -273.43750000         255.85937520
  -158.20312480        -165.03906240         213.86718720
  -126.95312480         -45.89843760         186.52343760
   -77.14843760          77.14843760         171.87500000
   -17.57812480         192.38281280         166.99218720
    45.89843760         288.08593760         162.10937520
   114.25781280         356.44531280         155.27343760
   184.57031280         397.46093760         145.50781280
   251.95312480         413.08593760         134.76562480
   313.47656240         403.32031280         122.07031280
   370.11718720         373.04687520         100.58593760
   418.94531280         323.24218720          65.42968720
   451.17187520         258.78906240          11.71875040
   455.07812480         185.54687520         -53.71093760
   429.68750000         107.42187520        -112.30468720
   375.97656240          20.50781280        -149.41406240
   284.17968720         -82.03124960        -147.46093760
   166.99218720        -199.21875040         -94.72656240
    78.12500000        -297.85156240         -14.64843760
    73.24218720        -333.00781280          30.27343760
   110.35156240        -302.73437520          21.48437520
   115.23437520        -242.18750000         -13.67187520
    90.82031280        -166.01562480         -72.26562480
    81.05468720         -75.19531280        -149.41406240
    75.19531280          14.64843760        -210.93750000
    68.35937520          89.84375040        -246.09375040
    75.19531280         140.62500000        -256.83593760
    92.77343760         160.15624960        -238.28124960
   112.30468720         149.41406240        -194.33593760
   137.69531280         114.25781280        -135.74218720
   165.03906240          67.38281280         -66.40624960
   193.35937520          13.67187520           0.00000000
   216.79687520         -39.06250000          44.92187520
   227.53906240         -89.84375040          62.50000000
   225.58593760        -140.62500000          52.73437520
   212.89062480        -194.33593760          20.50781280
   188.47656240        -253.90624960         -24.41406240
   156.25000000        -311.52343760         -69.33593760
   123.04687520        -355.46875040        -101.56250000
    84.96093760        -377.92968720        -111.32812480
    35.15624960        -373.04687520         -91.79687520
   -14.64843760        -338.86718720         -53.71093760
   -54.68750000        -282.22656240         -14.64843760
   -84.96093760        -207.03124960          18.55468720
  -119.14062480        -118.16406240          48.82812480
  -157.22656240         -22.46093760          77.14843760
