SERVICIO GEOLOGICO COLOMBIANO- RED NACIONAL DE ACELEROGRAFOS DE COLOMBIA
SISMO DE CORDOBA (QUINDIO) 1999/01/25 18:19:17 ML=6.3
LATITUD DEL EVENTO(GRADOS): 4.439
LONGITUD DEL EVENTO(GRADOS): -75.698
PROFUNDIDAD DEL EVENTO (Km): 0
CODIGO DE LA ESTACION: CBOG2
Estacion:GAVIOTAS Geol:COLUVION Topo:ONDULADA
LATITUD DE LA ESTACION (GRADOS): 4.601
LONGITUD DE LA ESTACION (GRADOS): -74.06
DISTANCIA EPICENTRAL: 182.705 km
DISTANCIA HIPOCENTRAL: 182.705 km
INTERVALO DE MUESTREO (SEGUNDOS): 0.005
NUMERO DE DATOS: 6000
DURACION (SEGUNDOS): 30
UNIDADES: cm/s^2
TIPO DE EQUIPO: ETNA
ESCALA MAXIMA (G): 2
CORRECCION DE LINEA BASE: LINEA BASE NO REMOVIDA
TIPO DE DATOS: NO CORREGIDO
         EW                  VER                  NS
[...]
    -1.89447440          -2.43043920           1.39188800
    -1.95169440          -2.44379040           1.39331840
    -1.89971920          -2.51865360           1.34706480
    -1.84297600          -2.58159600           1.42955760
    -1.81674960          -2.67982480           1.54209120
    -1.76715840          -2.83527360           1.57403920
    -1.74570080          -2.95543680           1.62458400
    -1.82962400          -3.06415520           1.71566000
    -1.88398400          -3.16906000           1.73568720
    -1.91259360          -3.23534000           1.69038800
    -2.03704800          -3.26252000           1.72138240
    -2.09903680          -3.29208400           1.66654560
    -2.07519520          -3.29113040           1.50012960
    -2.09856000          -3.24440000           1.43432640
    -2.09331520          -3.19814720           1.31464000
    -1.99079520          -3.15618480           1.09434160
    -1.88493760          -3.07941440           0.97703920
    -1.81341200          -3.00264320           0.86593600
    -1.66225440          -2.97308000           0.66947920
    -1.49059280          -2.89869280           0.57649600
    -1.43861760          -2.82573680           0.53834880
    -1.31940880          -2.78711280           0.45919440
    -1.13964080          -2.69937520           0.44012080
    -1.04141200          -2.62403520           0.49352640
    -0.87308880          -2.58874880           0.56886640
    -0.65135920          -2.53629680           0.62465680
    -0.51307680          -2.47573840           0.78678160
    -0.40197360          -2.46477120           0.98657600
    -0.22363680          -2.49004400           1.09815600
    -0.10061280          -2.50959360           1.28936800
    -0.10585760          -2.52580640           1.50108320
    -0.08726080          -2.57635120           1.63412080
    -0.10824240          -2.61020640           1.74903840
    -0.24843200          -2.59685520           1.88684480
    -0.34523040          -2.61974320           1.94120400
    -0.42104720          -2.60686880           1.87778480
    -0.58889360          -2.56633760           1.84345280
    -0.73385200          -2.57539760           1.70516960
    -0.81110000          -2.59447120           1.43241920
    -0.97513200          -2.63404880           1.17206560
    -1.15871440          -2.67648720           0.89979200
    -1.27410880          -2.73418400           0.52833520
    -1.47819520          -2.78759040           0.12159360
    -1.72185920          -2.82192240          -0.21171600
    -1.88779840          -2.87199040          -0.60081520
    -2.10809680          -2.90060080          -1.00755680
    -2.42614720          -2.92825680          -1.27744640
    -2.67410240          -2.97927840          -1.48105600
    -2.90679920          -3.05223440          -1.68848000
    -3.17239760          -3.11613120          -1.73807120
    -3.31068000          -3.16143040          -1.62696800
    -3.36885440          -3.23009520          -1.52111040
    -3.43465840          -3.26204320          -1.22594800
    -3.43370400          -3.25536720          -0.75483360
    -3.29875920          -3.25536720          -0.30088400
    -3.10897840          -3.23009520           0.27275120
    -2.90822960          -3.19814720           0.95796560
    -2.59876240          -3.19147120           1.60455680
    -2.25544000          -3.17573520           2.24018080
    -1.97935120          -3.13472720           2.90060080
    -1.63793600          -3.10182560           3.51667440
    -1.25408160          -3.07989120           4.01258480
    -0.92506400          -3.03173040           4.44984400
    -0.62084160          -2.98929200           4.81939280
    -0.30517600          -2.95543680           4.99820720
    -0.01716640          -2.88343440           5.08928320
     0.19741040          -2.84194960           5.12027760
     0.45013440          -2.80952480           4.99773040
     0.67377120          -2.73132320           4.76503360
     0.78678160          -2.64596960           4.46844080
     0.90169920          -2.56490720           4.09889200
     0.97894640          -2.48384480           3.63588320
     0.98037680          -2.37035760           3.20863760
     0.97656240          -2.28977200           2.79712640
     0.98180800          -2.25877760           2.29787840
     0.94890560          -2.24304160           1.84488320
     0.90169920          -2.26450000           1.46007520
     0.93936960          -2.28452720           1.09577200
     0.93936960          -2.30455360           0.75292560
     0.87261200          -2.30312320           0.54168720
     0.87976480          -2.28881840           0.40197360
     0.88357920          -2.26259200           0.27608880
     0.83637200          -2.23159760           0.28944000
     0.80633200          -2.25400960           0.31328240
     0.81300720          -2.27880480           0.37860880
     0.75674080          -2.30407680           0.47445280
     0.66328080          -2.33602560           0.57744960
     0.58174160          -2.37464880           0.67853920
     0.45585600          -2.41994880           0.71334800
     0.28467200          -2.46429440           0.77676800
     0.11777840          -2.51913040           0.75817120
    -0.07009520          -2.52866720           0.68998320
    -0.37097920          -2.56300000           0.61988800
    -0.66280400          -2.60019280           0.53596480
    -0.94986000          -2.61497520           0.41770960
    -1.31177920          -2.64263120           0.28944000
    -1.68037440          -2.63452560           0.24795520
    -2.01749840          -2.66456640           0.17642960
    -2.34270080          -2.68030160           0.15926400
    -2.64930720          -2.66885760           0.22935840
    -2.85816160          -2.69079200           0.30660640
    -3.02457840          -2.69365280           0.43535200
    -3.16000000          -2.67839440           0.64086880
    -3.18384160          -2.66885760           0.89597680
    -3.10754800          -2.65884400           1.09672560
    -3.00931920          -2.63500240           1.31559360
    -2.86960640          -2.62403520           1.55448880
    -2.66361200          -2.60782240           1.68991120
    -2.45761840          -2.60877600           1.81531920
    -2.21967680          -2.63214080           1.95646320
    -1.92928320          -2.63214080           2.02655760
    -1.69324880          -2.65264480           2.03895600
    -1.51729600          -2.66552000           2.05707520
    -1.33371360          -2.65455280           2.02035920
    -1.18017200          -2.62784960           1.92594560
    -1.12533600          -2.54964800           1.86729440
    -1.12533600          -2.48050720           1.76668160
    -1.12104400          -2.40802800           1.65462480
    -1.22451760          -2.31933600           1.52444800
    -1.39617920          -2.26116160           1.38902640
    -1.54352160          -2.18248400           1.28459920
    -1.73997840          -2.09808320           1.17206560
    -1.99747120          -2.02417360           1.12485920
    -2.21109360          -1.95694000           1.10912320
    -2.39038480          -1.88398400           1.14107120
    -2.53725040          -1.79529200           1.24645200
    -2.57635120          -1.73282640           1.41763680
    -2.57682800          -1.68895760           1.60741840
    -2.53343600          -1.63936640           1.89590480
    -2.45428080          -1.58786800           2.29644800
    -2.31647520          -1.58023840           2.60305440
    -2.16436400          -1.56450240           2.94065440
    -2.06089040          -1.54972080           3.28540800
    -1.92165360          -1.58834480           3.50379920
    -1.83248480          -1.62792240           3.66544720
    -1.82533280          -1.68752640           3.77655040
    -1.83343920          -1.76000560           3.78656400
    -1.87873840          -1.84345280           3.68833520
    -1.98364240          -1.91783920           3.54576080
    -2.11858720          -1.97839760           3.33738320
    -2.25782400          -2.03514080           3.08322880
    -2.44283680          -2.07042720           2.77090080
    -2.67744080          -2.10809680           2.45904960
    -2.89249440          -2.15053520           2.14767440
    -3.13997280          -2.20870960           1.79100000
    -3.42416800          -2.27642080           1.54018400
    -3.65543360          -2.32362720           1.24073040
    -3.85141360          -2.31981280           0.94318400
    -4.06074560          -2.32934960           0.78248960
    -4.23908240          -2.36320480           0.59318560
    -4.32205200          -2.35223760           0.44918080
    -4.38451760          -2.32553520           0.41580240
    -4.41217440          -2.30312320           0.45728720
    -4.33349600          -2.30026240           0.52022960
    -4.18281520          -2.29167920           0.64563760
    -4.00400160          -2.28166560           0.84114080
    -3.73411200          -2.27832800           1.03807440
    -3.41558480          -2.26020800           1.24073040
    -3.11040880          -2.23588960           1.50108320
    -2.77280800          -2.23636640           1.77240400
    -2.44331360          -2.27308240           1.96695360
    -2.16198000          -2.31838240           2.19249760
    -1.91211680          -2.36606560           2.38752400
    -1.66559200          -2.40755120           2.46429440
    -1.53493920          -2.46286400           2.48622880
    -1.42383600          -2.46000320           2.52103840
    -1.26647920          -2.45952640           2.50005760
    -1.17397280          -2.50816320           2.37131120
    -1.08528160          -2.51388560           2.24638000
    -0.98562240          -2.55775440           2.09093120
    -0.84924720          -2.61306800           1.89018240
    -0.73528320          -2.67601040           1.66416160
    -0.66709520          -2.74944320           1.44290960
    -0.57935680          -2.80427920           1.21355040
    -0.54264080          -2.84719440           0.97560880
    -0.60176880          -2.85673120           0.76055520
    -0.68330800          -2.88486480           0.50449360
    -0.78487360          -2.89773920           0.24604800
    -0.95319760          -2.89583200           0.02622640
    -1.15013120          -2.90775280          -0.19598000
    -1.32083920          -2.91776640          -0.45108800
    -1.50394400          -2.92396560          -0.65422080
    -1.69610960          -2.96449680          -0.81253040
    -1.84583680          -3.03697600          -1.01184880
    -1.97172160          -3.03697600          -1.07669840
    -2.08139440          -3.02743920          -1.04475040
    -2.19583520          -3.03077680          -1.04904160
    -2.25734720          -3.00025920          -0.92887840
    -2.32124320          -2.97117200          -0.72765360
    -2.36988080          -2.92539600          -0.53548800
    -2.34222400          -2.85863840          -0.28276480
    -2.31885920          -2.81810800          -0.00906000
    -2.23541280          -2.81763040           0.30660640
    -2.09856000          -2.82287600           0.70428880
    -1.93977360          -2.86674480           1.15203840
    -1.74427040          -2.91681280           1.65462480
    -1.50775920          -2.95591360           2.16436400
    -1.25026720          -3.02124000           2.72035600
    -1.03092160          -3.10420960           3.33309200
    -0.84352480          -3.22771040           3.90434240
    -0.65422080          -3.31592560           4.43410880
    -0.55408480          -3.39365040           4.89616400
    -0.52690480          -3.50046160           5.25665280
    -0.46062480          -3.56197360           5.48267360
    -0.44822720          -3.61108800           5.60569760
    -0.44250480          -3.68690480           5.62810880
    -0.40006640          -3.75795360           5.52558880
    -0.39529840          -3.77893440           5.36251040
    -0.39720560          -3.75747680           5.15365600
    -0.39434400          -3.73411200           4.91094560
    -0.39625200          -3.72552880           4.58908080
    -0.43773680          -3.69501120           4.26101680
    -0.52499760          -3.61680960           3.89289840
    -0.60558320          -3.51142880           3.40175600
    -0.70762640          -3.37457680           2.94208560
    -0.84829360          -3.21197520           2.47097040
    -0.97084080          -3.07178480           1.95121760
    -1.11961360          -2.95829760           1.47056560
    -1.26695600          -2.84194960           1.00564960
    -1.31320960          -2.74133680           0.50067920
    -1.31320960          -2.63547920          -0.01955040
    -1.28316880          -2.47478480          -0.46443920
    -1.18970880          -2.30360000          -0.85735360
    -1.11484560          -2.14576720          -1.25169760
    -1.08766560          -1.97124480          -1.59311280
    -1.04284320          -1.81627280          -1.87301600
    -0.99229840          -1.67560560          -2.13718400
    -1.01280240          -1.54352160          -2.39515280
    -1.11818320          -1.47390400          -2.60353120
    -1.24454480          -1.45340000          -2.79855760
    -1.39904000          -1.44863120          -2.96306640
    -1.59978880          -1.48630160          -3.02934640
    -1.76477440          -1.60121920          -3.05891040
    -1.88016880          -1.74140960          -3.00312080
    -2.03228000          -1.90782560          -2.83336640
    -2.18248400          -2.10523600          -2.56347680
    -2.31647520          -2.30264640          -2.23016720
    -2.47144720          -2.51960720          -1.82247200
    -2.61878960          -2.72846240          -1.33466720
    -2.72750880          -2.93350240          -0.84638560
    -2.80237200          -3.13234320          -0.35429040
    -2.90203120          -3.32927680           0.12302400
    -2.91442880          -3.50999840           0.60510640
    -2.82859840          -3.63349920           1.05524080
    -2.76899360          -3.72409840           1.52683280
    -2.67219520          -3.77941120           1.99127200
    -2.50720960          -3.77368960           2.39133840
    -2.31885920          -3.70693200           2.81000160
    -2.08902320          -3.60298160           3.18050400
    -1.83010080          -3.47423520           3.50856800
    -1.61838560          -3.31878640           3.81422080
    -1.42002080          -3.15141680           4.06599040
    -1.18732480          -3.00693520           4.22000880
    -0.96035040          -2.85244000           4.32443600
    -0.78678160          -2.71892560           4.33874160
    -0.62561040          -2.63071040           4.30727040
    -0.45585600          -2.53677360           4.29582560
    -0.37813200          -2.47907600           4.20141200
    -0.33521680          -2.44522080           4.18376960
    -0.25224720          -2.45475760           4.17614000
    -0.28419520          -2.50005760           4.14752960
    -0.43153760          -2.56967520           4.12464160
    -0.56219120          -2.69746800           4.05120880
    -0.73432960          -2.81810800           4.01067760
    -0.97703920          -2.94685360           3.91197200
    -1.21927280          -3.10611760           3.82947920
    -1.43146480          -3.25870480           3.73983360
    -1.66225440          -3.41796880           3.60345840
    -1.84154480          -3.60202800           3.48377200
    -1.92356080          -3.76510640           3.30638880
    -2.00366960          -3.89385200           3.08942800
    -2.04515440          -3.99112720           2.81763040
    -1.99937840          -4.02688960           2.53915760
    -1.91974640          -4.01830640           2.19345120
    -1.88636800          -3.95584080           1.79910640
    -1.81865680          -3.85904320           1.41572960
    -1.71470640          -3.75080080           0.90217600
    -1.64699520          -3.60107440           0.38003920
    -1.55401200          -3.45230080          -0.16021760
    -1.47581120          -3.34835040          -0.73957440
    -1.44290960          -3.25441360          -1.23643840
    -1.41620640          -3.16095360          -1.66797600
    -1.36470800          -3.10754800          -2.05326080
    -1.31368640          -3.04126720          -2.37131120
    -1.30033520          -2.92682640          -2.55107840
    -1.25694240          -2.84099600          -2.67076480
    -1.21545760          -2.77042400          -2.65836720
    -1.26647920          -2.73847600          -2.48336800
    -1.35612480          -2.77900720          -2.22015360
    -1.47151920          -2.81810800          -1.88970560
    -1.65891680          -2.85387040          -1.55973440
    -1.88255280          -2.89011040          -1.17778800
    -2.09379200          -2.92110480          -0.82683600
    -2.34365440          -2.94065440          -0.41008000
    -2.67982480          -2.96115840           0.05006800
    -2.99310720          -2.99501440           0.41103360
    -3.26108960          -3.00168960           0.82826640
    -3.55625120          -3.00407440           1.21116640
    -3.81183600          -3.03077680           1.47390400
    -3.99112720          -3.06749360           1.68085120
    -4.14466880          -3.08513680           1.87969200
    -4.23336000          -3.12805200           2.01702080
    -4.23288320          -3.14855600           2.05946000
    -4.16088080          -3.09848800           2.08187120
    -4.01592240          -3.04508240           2.06995040
    -3.75413920          -2.94160880           2.04992320
    -3.42082960          -2.83670400           2.01034560
    -3.11231600          -2.76136400           1.99556320
    -2.73323040          -2.70843520           1.95837040
    -2.30312320          -2.69889840           1.88922880
    -1.89971920          -2.69460640           1.87301600
    -1.48487120          -2.69889840           1.82008720
    -1.07431440          -2.68793120           1.79719920
    -0.70571920          -2.67028800           1.84726720
    -0.36334960          -2.66504320           1.93405120
    -0.00715280          -2.62069680           2.06851920
     0.29802320          -2.55107840           2.21109360
     0.49924880          -2.51770000           2.33221040
     0.66375760          -2.47907600           2.41041200
     0.76198560          -2.45666480           2.41231920
     0.77056880          -2.47097040           2.38800080
     0.77199920          -2.49958000           2.34890000
     0.72813040          -2.53772720           2.20203360
     0.61798080          -2.55584720           2.07519520
     0.49877200          -2.57921200           1.96075440
     0.35381280          -2.57587440           1.79576880
     0.15354160          -2.58970240           1.68561920
    -0.06532640          -2.62260400           1.57928480
    -0.24747840          -2.66408960           1.43623360
    -0.45156480          -2.73656880           1.31845440
    -0.72145440          -2.79998800           1.22642480
    -0.95558160          -2.90489200           1.12009040
