SERVICIO GEOLOGICO COLOMBIANO- RED NACIONAL DE ACELEROGRAFOS DE COLOMBIA
SISMO DE CORDOBA (QUINDIO) 1999/01/25 18:19:17 ML=6.3
LATITUD DEL EVENTO(GRADOS): 4.439
LONGITUD DEL EVENTO(GRADOS): -75.698
PROFUNDIDAD DEL EVENTO (Km): 0
CODIGO DE LA ESTACION: CECAL
Estacion:EMBALSE  CALIMA Geol:ROCA Topo:ESCARPADA
LATITUD DE LA ESTACION (GRADOS): 3.884
LONGITUD DE LA ESTACION (GRADOS): -76.561
DISTANCIA EPICENTRAL: 113.892 km
DISTANCIA HIPOCENTRAL: 113.892 km
INTERVALO DE MUESTREO (SEGUNDOS): 0.005
NUMERO DE DATOS: 13000
DURACION (SEGUNDOS): 65
UNIDADES: cm/s^2
TIPO DE EQUIPO: ETNA
ESCALA MAXIMA (G): 2
CORRECCION DE LINEA BASE: LINEA BASE NO REMOVIDA
TIPO DE DATOS: NO CORREGIDO
         EW                  VER                  NS
[...]
     6.36911360          -1.18970880           7.06863440
     6.46591200          -1.22308720           6.99758560
     6.52313200          -1.26886400           6.93035120
     6.61230080          -1.32083920           6.87408480
     6.67715040          -1.39665600           6.79063760
     6.70337680          -1.44624720           6.70623760
     6.71625120          -1.51014320           6.60228720
     6.68954880          -1.59358960           6.55078880
     6.64472560          -1.65128720           6.52360880
     6.55794160          -1.70898400           6.48260080
     6.46209680          -1.71995200           6.48212400
     6.41107520          -1.67608240           6.50787360
     6.37006720          -1.58977520           6.57796880
     6.36863680          -1.49536160           6.64901760
     6.39104880          -1.47628800           6.74629200
     6.42252000          -1.53398480           6.87789920
     6.44779200          -1.68848000           6.99281680
     6.49499920          -1.86204880           7.12776160
     6.61087040          -2.00510000           7.19404240
     6.71148320          -2.10237520           7.21454640
     6.83689120          -2.11048160           7.27701200
     6.99234000          -2.09236160           7.36331920
     7.12871520          -2.04181680           7.51066240
     7.22551360          -1.96600000           7.67183280
     7.27176640          -1.87921520           7.79485680
     7.28559520          -1.78861600           7.88974800
     7.23075840          -1.73330320           7.96413440
     7.14588160          -1.69944800           8.01134080
     7.03096400          -1.68991120           8.05521040
     6.89411200          -1.70135520           8.11815280
     6.77347200          -1.72090560           8.17728080
     6.67572000          -1.76620480           8.24260720
     6.61468480          -1.86634080           8.27980080
     6.56604800          -1.99031840           8.24785200
     6.51884080          -2.17056240           8.11910640
     6.46448160          -2.41470320           7.89833040
     6.42395040          -2.63309440           7.62701040
     6.41393680          -2.86340720           7.29179360
     6.44636160          -3.06892400           6.87646880
     6.53409920          -3.18813360           6.42824160
     6.63661920          -3.27158000           5.99479680
     6.71243680          -3.32307840           5.59949840
     6.76059760          -3.34167520           5.29909120
     6.76059760          -3.34072080           5.08213040
     6.70337680          -3.29589840           4.94337120
     6.59370400          -3.21817360           4.88233600
     6.42633440          -3.10945520           4.89568720
     6.21557200          -2.94828400           5.00345200
     5.97572320          -2.75564160           5.14316560
     5.73730480          -2.51150160           5.33103920
     5.52320480          -2.25877760           5.58519360
     5.36775600          -2.01845200           5.87558720
     5.26618960          -1.77478800           6.19554480
     5.21945920          -1.56545600           6.46352800
     5.26142160          -1.32799120           6.67428960
     5.34725200          -1.10340080           6.85501120
     5.44643440          -0.94890560           6.96611440
     5.56135200          -0.83494160           7.02619520
     5.66816320          -0.80919280           7.03859360
     5.74302640          -0.86832080           7.00950640
     5.79500160          -0.99849680           6.95180880
     5.85269920          -1.18064880           6.81686400
     5.90944320          -1.35898560           6.62660560
     5.95426560          -1.50108320           6.41870480
     5.97143200          -1.59072880           6.21223440
     5.90086000          -1.64938000           6.06822960
     5.75351680          -1.67846640           6.00338000
     5.58948480          -1.69515600           6.01625440
     5.43451280          -1.69658640           6.08062720
     5.31721120          -1.65319440           6.16025920
     5.23614880          -1.63221360           6.26516320
     5.19132640          -1.63936640           6.36053120
     5.18989600          -1.66225440           6.40249280
     5.22422800          -1.69420240           6.42204320
     5.28526320          -1.69610960           6.40773760
     5.36680240          -1.69277200           6.34717920
     5.47885920          -1.66606880           6.30140320
     5.61380400          -1.63364400           6.26802480
     5.74541120          -1.63507440           6.23321520
     5.85412960          -1.64604160           6.19554480
     5.95474240          -1.66893040           6.16407360
     6.04772560          -1.69944800           6.14690800
     6.12306560          -1.71947440           6.10590000
     6.21461840          -1.71041520           6.07919680
     6.30140320          -1.68848000           6.05154000
     6.31761520          -1.70135520           6.01768480
     6.27231600          -1.73282640           5.99098240
     6.15453760          -1.76143680           5.96332560
     5.98716720          -1.82437920           5.98669040
     5.80740000          -1.86777120           6.07776640
     5.57851760          -1.91593200           6.20842000
     5.37014000          -2.00080880           6.36100800
     5.19132640          -2.01463680           6.54840480
     5.02157200          -2.03371040           6.69336320
     4.90140880          -2.04849280           6.82067840
     4.81986960          -1.98411920           6.97040560
     4.79173680          -1.92260720           7.11298000
     4.78935280          -1.86920160           7.28607200
     4.81796240          -1.83868400           7.46726960
     4.88281280          -1.84965120           7.64656080
     4.93860240          -1.86681760           7.76767760
     5.01394240          -1.88016880           7.81869920
     5.08785280          -1.88875200           7.82823600
     5.17129920          -1.88112240           7.77244560
     5.27763360          -1.86967840           7.66944880
     5.40065760          -1.84869760           7.51638400
     5.56659680          -1.82437920           7.30180720
     5.72395360          -1.82437920           7.02285760
     5.88178640          -1.85155840           6.72817200
     5.98573680          -1.90734880           6.41584400
     6.01100960          -1.99747120           6.13546400
     6.00290320          -2.14338320           5.93566880
     5.93852960          -2.30121600           5.72919840
     5.86938880          -2.46429440           5.56087520
     5.82408880          -2.62689600           5.42545280
     5.79404800          -2.74705920           5.29193840
     5.76305360          -2.82239920           5.20515440
     5.75828560          -2.82526000           5.15222560
     5.74541120          -2.78759040           5.17702080
     5.71584720          -2.71177280           5.28907760
     5.71250880          -2.57635120           5.44357280
     5.70774080          -2.39515280           5.62572480
     5.71060160          -2.18343760           5.81550560
     5.68914400          -1.92976000           5.98287600
     5.68342240          -1.65700880           6.10876080
     5.68294560          -1.43718720           6.23035440
     5.67436240          -1.23214720           6.34956320
     5.70297280          -1.10054000           6.46209680
     5.72490720          -1.06811520           6.62040720
     5.78022000          -1.05381040           6.80303600
     5.83648720          -1.10292400           6.99234000
     5.87081920          -1.22022640           7.16209440
     5.94997440          -1.34801840           7.28511840
     6.04343440          -1.48773200           7.39049920
     6.11400640          -1.65796240           7.46679280
     6.17742560          -1.82437920           7.56359120
     6.22987760          -2.00128560           7.67707840
     6.26325600          -2.15196640           7.76004800
     6.29091280          -2.23875040           7.82489760
     6.30521760          -2.33030320           7.81631440
     6.28042240          -2.41708720           7.74097440
     6.22272480          -2.50339520           7.62462640
     6.15072240          -2.59351760           7.41004960
     6.05297120          -2.66647360           7.15255760
     5.96570960          -2.74038320           6.86740880
     5.91325760          -2.81190880           6.56557120
     5.89513760          -2.86960640           6.30283360
     5.94282160          -2.90679920           6.04200400
     6.03818880          -2.91872000           5.84220880
     6.16788880          -2.88915600           5.69725040
     6.31237040          -2.83002880           5.60569760
     6.47306480          -2.76947040           5.58900800
     6.62851360          -2.67410240           5.59139280
     6.75392160          -2.56729120           5.64527520
     6.87551520          -2.49910320           5.72538400
     6.93893440          -2.45237360           5.85031520
     6.92510640          -2.45046640           5.99527360
     6.86788560          -2.48193760           6.11114480
     6.77251840          -2.53248240           6.21318800
     6.66713680          -2.59447120           6.22320160
     6.56461680          -2.65264480           6.17980960
     6.46114320          -2.71797200           6.13498720
     6.37054480          -2.73847600           6.06489200
     6.31427760          -2.70605120           5.97953760
     6.29425040          -2.62355840           5.89323040
     6.29091280          -2.47573840           5.79738640
     6.34050400          -2.26068480           5.71632400
     6.43062560          -2.00605360           5.67865360
     6.47020320          -1.81293520           5.68389920
     6.46352800          -1.70564640           5.79261760
     6.40392320          -1.66463840           5.96809360
     6.29806480          -1.69277200           6.16788880
     6.20937360          -1.72472000           6.36148480
     6.14356960          -1.72376640           6.49070720
     6.12545040          -1.69086480           6.59990320
     6.14881520          -1.59168240           6.68716400
     6.16359680          -1.42669680           6.76774960
     6.19697600          -1.24502160           6.85501120
     6.22129440          -1.08861920           6.96992880
     6.22272480          -0.97370160           7.14445120
     6.23273840          -0.92363360           7.32851040
     6.20365120          -0.93269360           7.50827760
     6.16931920          -0.95939600           7.65228240
     6.12592720          -1.03092160           7.76338560
     6.05535520          -1.14345520           7.80296320
     6.02674480          -1.22547120           7.76100160
     6.03342080          -1.27601600           7.66801840
     6.07252160          -1.30653360           7.47394560
     6.15024560          -1.29365920           7.31086720
     6.25801120          -1.25932720           7.20262560
     6.40153920          -1.20162960           7.11393360
     6.56938560          -1.10960000           7.09486000
     6.73151040          -0.98609920           7.08627680
     6.85739520          -0.85926080           7.12728480
     6.93178160          -0.76198560           7.20787040
     6.94894800          -0.67615520           7.27748880
     6.89840320          -0.62990160           7.35330560
     6.80160560          -0.61559680           7.40766560
     6.68573360          -0.64706800           7.43961360
     6.57272320          -0.74338880           7.46536240
     6.47974000          -0.83351120           7.46774640
     6.40344640          -0.93126320           7.45820960
     6.37388240          -1.03759760           7.44247440
     6.33573520          -1.17444960           7.39908240
     6.25514960          -1.37615200           7.35712080
     6.17074960          -1.60264960           7.28416480
     6.07490560          -1.82771680           7.14874240
     6.00910160          -1.96933760           6.96325280
     5.98192240          -2.03228000           6.76250480
     5.99622720          -2.03275680           6.62136080
     6.03151360          -1.97935120           6.55698800
     6.06107680          -1.93357440           6.59465760
     6.12115840          -1.86872480           6.71720480
     6.17456400          -1.82485600           6.86645520
     6.22558560          -1.80435200           7.02953360
     6.26230240          -1.78289440           7.15398800
     6.23893760          -1.83630000           7.21645360
     6.19602240          -1.93452800           7.23457360
     6.13689440          -2.03704800           7.17687600
     6.10017760          -2.10905040           7.10773440
     6.13784800          -2.10905040           7.07435600
     6.24990480          -2.07567200           7.05671280
     6.45732880          -1.96790720           7.13062320
     6.73341760          -1.78575520           7.28034960
     7.02953360          -1.63602800           7.45773280
     7.33184800          -1.48344000           7.65705120
     7.61222800          -1.30033520           7.90309920
     7.85493840          -1.18780160           8.16249840
     8.07285280          -1.09529520           8.39710240
     8.27884640          -0.96225760           8.61120240
     8.41951360          -0.89216240           8.70084800
     8.49342320          -0.89406960           8.69274160
     8.52632560          -0.98991360           8.62646080
     8.45527680          -1.20449040           8.48293280
     8.34369680          -1.48105600           8.28599920
     8.23164000          -1.82151760           8.03661360
     8.10241680          -2.10857360           7.79294960
     8.00704960          -2.32362720           7.56788240
     7.90929760          -2.50768640           7.35998160
     7.82871280          -2.59065600           7.19308880
     7.78436640          -2.62117360           7.09438320
     7.72953040          -2.58684160           7.06672640
     7.66801840          -2.51579280           7.09056880
     7.58409520          -2.46286400           7.17830640
     7.46870080          -2.38943120           7.33804720
     7.35330560          -2.32601200           7.54785520
     7.25412400          -2.24256480           7.77530640
     7.16447840          -2.13003120           7.97414800
     7.10010560          -2.01749840           8.15105440
     7.06005120          -1.88970560           8.31413280
     7.04860720          -1.76858880           8.43477280
     7.05671280          -1.66654560           8.52680240
     7.07912480          -1.59788160           8.56018080
     7.12633120          -1.54161440           8.52298720
     7.18021360          -1.49869920           8.41808320
     7.24840160          -1.46436720           8.26549520
     7.31658960          -1.40666960           8.08811200
     7.37857840          -1.37042960           7.90739040
     7.39097600          -1.35803200           7.76052480
     7.33089440          -1.38378160           7.58028000
     7.24077200          -1.43098800           7.40480400
     7.10725760          -1.48010240           7.24220240
     6.94227200          -1.57880800           7.04813040
     6.77537920          -1.66273120           6.89315760
     6.60991680          -1.73044240           6.77013360
     6.45303760          -1.82771680           6.67572000
     6.31094000          -1.90734880           6.59847280
     6.17456400          -1.96075440           6.53219200
     6.06107680          -2.00462320           6.48736960
     5.98621360          -2.05135360           6.45351440
     5.94091440          -2.10380560           6.41298320
     5.91945680          -2.13146240           6.35766960
     5.90896640          -2.14529040           6.32810560
     5.88417040          -2.15387360           6.32095360
     5.85126880          -2.13098560           6.35528560
     5.82695040          -2.07519520           6.42252000
     5.78308080          -1.95789360           6.50262800
     5.73587440          -1.82151760           6.56557120
     5.71584720          -1.68132800           6.60896320
     5.69152800          -1.53589280           6.67428960
     5.66053360          -1.46913520           6.70051600
     5.66720960          -1.45435360           6.69765440
     5.67483920          -1.45530720           6.67428960
     5.68294560          -1.46913520           6.64901760
     5.71441680          -1.47294960           6.62231440
     5.75637840          -1.46198240           6.56890880
     5.82122800          -1.46579760           6.54363600
     5.87654080          -1.50442160           6.51741040
     5.94806640          -1.54495200           6.50119760
     5.99432000          -1.61552400           6.46257440
     5.97190880          -1.69849360           6.40630720
     5.91325760          -1.79290800           6.39152560
     5.78641920          -1.95694000           6.36196160
     5.59377680          -2.11143520           6.34288800
     5.34963600          -2.23684320           6.32524480
     5.13887440          -2.34651600           6.28566720
     4.97961040          -2.40612000           6.23941440
     4.87804400          -2.43473040           6.20698960
     4.89378000          -2.45761840           6.19840640
     4.96625920          -2.49767280           6.18648560
     5.06830240          -2.54726400           6.19220720
     5.18178960          -2.57778160           6.20794320
     5.27048080          -2.59590160           6.26659360
     5.33294640          -2.64406240           6.36339200
     5.38873680          -2.69222240           6.46877280
     5.45883200          -2.73513760           6.59513440
     5.52320480          -2.77423840           6.68811760
     5.58280960          -2.78234480           6.75201440
     5.65242800          -2.75373440           6.78157840
     5.70726400          -2.66933440           6.78634640
     5.73825840          -2.56967520           6.73961600
     5.77640560          -2.42948560           6.61039360
     5.79881680          -2.30884560           6.46591200
     5.81264480          -2.22158400           6.32143040
     5.86652720          -2.12717040           6.22224800
     5.93185440          -2.09379200           6.19125360
     6.02150000          -2.02178960           6.22892400
     6.11305200          -1.96218480           6.30188000
     6.14309280          -1.95789360           6.36386880
     6.13641760          -1.91831600           6.47306480
     6.08062720          -1.90544160           6.60753280
     5.98478320          -1.90734880           6.72388080
     5.87511040          -1.93357440           6.81304960
     5.74874880          -1.99270240           6.84070560
     5.63383120          -2.05326080           6.81543360
     5.49984000          -2.14815120           6.74390800
     5.35964960          -2.25496320           6.62708320
     5.23948640          -2.34937680           6.49356880
     5.13982800          -2.39753760           6.38151200
     5.06162640          -2.38990800           6.29425040
     4.98914720          -2.34127040           6.21414160
     4.94194000          -2.23875040           6.18171680
