SERVICIO GEOLOGICO COLOMBIANO- RED NACIONAL DE ACELEROGRAFOS DE COLOMBIA
SISMO DE CORDOBA (QUINDIO) 1999/01/25 18:19:17 ML=6.3
LATITUD DEL EVENTO(GRADOS): 4.439
LONGITUD DEL EVENTO(GRADOS): -75.698
PROFUNDIDAD DEL EVENTO (Km): 0
CODIGO DE LA ESTACION: CBOCA
Estacion:PEREIRA, NUEVO LIBARE Geol:ROCA Topo:PLANA
LATITUD DE LA ESTACION (GRADOS): 4.7817
LONGITUD DE LA ESTACION (GRADOS): -75.6455
DISTANCIA EPICENTRAL: 38.483 km
DISTANCIA HIPOCENTRAL: 38.483 km
INTERVALO DE MUESTREO (SEGUNDOS): 0.005
NUMERO DE DATOS: 28800
DURACION (SEGUNDOS): 144
UNIDADES: cm/s^2
TIPO DE EQUIPO: ETNA
ESCALA MAXIMA (G): 1
CORRECCION DE LINEA BASE: LINEA BASE NO REMOVIDA
TIPO DE DATOS: NO CORREGIDO
         EW                  VER                  NS
[...]
    -0.96988680          -9.74059120          -4.99558440
    -1.06906880          -8.76283640          -4.54640400
    -1.55758840          -9.10019880          -3.83996960
    -1.85346600         -10.11562360          -3.03149240
    -1.29151360         -10.92720040          -2.29263320
     0.31518920         -11.18969920          -1.60288800
     2.58469600         -11.14630680          -0.75197200
     4.70542920         -10.90312000           0.44155120
     5.97381600         -10.22791880           2.11930280
     6.01410880          -9.15098200           4.20403480
     4.80318080          -7.83967960           6.20174400
     2.69746800          -6.00266440           7.72786160
     0.23794160          -3.51572040           8.74948520
    -2.04467760          -0.96583360           9.54937920
    -3.93962880           1.08051320          10.55288320
    -5.38277640           2.68793120          11.94119440
    -6.32166880           3.92270080          13.57626920
    -6.89315800           4.37712680          15.04611960
    -7.27057440           4.20904160          16.10326760
    -7.46798520           4.38261040          16.96944240
    -7.35473640           5.26213640          17.81964320
    -6.83069240           6.11853600          18.57399960
    -5.77044480           6.01077080          19.17314520
    -3.99088840           4.66895120          19.70958720
    -1.36661520           2.64716160          20.30015000
     2.11620320           0.82373600          20.82014080
     6.32643680          -0.23627280          20.81298840
    11.04140280          -0.77986720          19.65737360
    15.69986360          -1.65152560          17.02547080
    19.57559600          -3.33333000          12.92705520
    22.12715160          -5.62548640           7.53712640
    22.98808080          -8.14199440           1.28889080
    22.36986160         -10.61582560          -5.48386560
    20.82514760         -12.71009440         -12.42589960
    18.90277880         -13.96155360         -19.01268960
    17.13109000         -14.34111600         -24.83344080
    15.58351520         -14.17636880         -29.33192240
    14.03498640         -13.55123520         -32.19461440
    12.26687440         -12.40706440         -33.61463560
    10.15877720         -10.74957840         -34.09194960
     7.79676440          -8.65125640         -34.47556480
     5.45787800          -6.29663480         -35.18986720
     3.34858880          -4.19092160         -35.88366520
     1.41549120          -2.98357000         -35.94565400
    -0.50759320          -2.69556040         -34.90734120
    -2.60210040          -2.53510480         -32.76658040
    -4.74047680          -1.78432480         -29.77252000
    -6.63924200          -0.48637400         -25.88629720
    -8.08835040           1.13296520         -20.87235440
    -8.92972960           3.04555880         -14.66369640
    -9.14764400           4.94456280          -7.59768480
    -8.58759880           6.34145720          -0.57530400
    -6.97731960           7.21001640           5.55181520
    -3.97706040           7.88760200          10.28847680
     0.55861480           8.46481320          13.26346400
     6.21533400           8.79669200          14.57452760
    12.16626160           8.72731200          14.80555520
    17.39215840           8.20541400          14.63794720
    20.99466320           7.20024120          14.52350600
    22.54366880           5.58543200          14.47510720
    22.47190480           3.49879280          14.00947560
    21.47078520           1.57737720          12.72058480
    19.82259760           0.51069240          10.78939440
    17.87996280           0.31495080           8.60142720
    16.02935800           0.66709520           6.66213040
    14.54424840           1.69873240           5.19275680
    13.66662960           3.34143640           4.07671920
    13.45872880           4.75120560           3.46565240
    13.93032080           5.38015360           3.56721880
    15.21492000           5.79667080           4.65655320
    17.45128640           6.77371040           6.68430320
    20.65897000           8.20207600           8.90660280
    24.67346200           9.27972800          10.79750080
    28.84888640           9.27996640          12.24422440
    32.28378280           7.95435920          13.01980000
    34.18588640           5.24115560          12.78448120
    34.06572360           1.25384320          11.26122480
    32.11927400          -3.14331040           8.24618320
    28.87105960          -6.64186480           3.84449960
    24.83892440          -8.52322560          -1.32322320
    20.57552320          -9.05776040          -6.44516960
    16.62206640          -8.93211360         -10.82992560
    13.17596440          -8.57973080         -14.13202280
    10.05578040          -8.09383400         -16.31212240
     7.30085360          -7.39765160         -17.50659960
     5.12552280          -6.26373280         -18.08643360
     3.73458880          -4.43077080         -18.43190200
     2.96044360          -2.10857400         -18.64171040
     2.36487400           0.06246560         -18.31126200
     1.86800960           1.74307840         -16.90816880
     1.75142280           3.02386280         -14.21189320
     2.64906880           3.93319120         -10.19001000
     5.14793400           4.40716760          -4.88185880
     9.33766360           4.47082520           1.81603440
    14.54710960           4.08983240           9.88817200
    19.80304720           3.36694720          18.81623280
    24.51562880           2.73394600          27.80699720
    28.34892280           2.59637840          36.05127320
    31.15272520           3.08489800          42.89078720
    32.87148480           3.98111360          47.99079880
    33.40172760           4.76360320          51.39637000
    32.53769880           5.12671480          53.31158640
    30.09772320           5.31172760          53.98869520
    26.02744120           5.53274160          53.70450000
    20.70903760           5.58495520          52.69718160
    14.93358600           5.36870960          51.44047720
     9.42873960           5.38253800          50.44984800
     4.75192080           6.32953640          49.90410800
     0.96297280           8.26740280          49.85713960
    -1.96361560          10.62750800          50.03261560
    -3.94558920          12.91966440          49.80039600
    -4.97722640          14.87207400          48.57492440
    -4.69613080          15.91587080          45.43256760
    -2.81882280          15.23709280          39.58511360
     0.51403040          12.59636880          31.26311320
     4.60124000           8.57353200          21.42667760
     8.11886800           4.16946400          11.66415200
     9.68956960           0.25320040           3.35001960
     8.63409040          -2.55537040          -3.14831720
     5.14721880          -3.87835520          -7.90667520
     0.04029280          -3.86810320         -11.39426240
    -5.29932960          -2.98976880         -14.23025120
    -9.77253920          -1.78027160         -16.53265960
   -12.64405240          -0.72741520         -18.20468920
   -13.39030280          -0.18739720         -19.22607440
   -11.84535040          -0.45108800         -19.47116840
    -7.99393640          -1.48940080         -18.95642280
    -2.59470920          -2.55632400         -17.76599880
     3.40771680          -2.70295160         -15.73896400
     8.91137120          -1.80554400         -12.57491120
    12.46595400          -0.19073480          -8.26287280
    12.91966440           1.94287320          -3.57770920
     9.61112960           4.19402120           0.78153600
     3.40700160           6.18529320           4.34875480
    -3.80277640           8.15558440           6.83212280
   -10.46180720          10.68210600           8.70823880
   -15.55609720          13.72337360          10.08462920
   -18.84818080          16.48068440          11.21377960
   -20.61891560          18.05949200          12.89844520
   -20.87736120          17.94981960          15.51914200
   -19.46377760          16.25347120          19.41561680
   -16.46661760          13.79251480          24.29723720
   -12.23373400          11.96289080          29.60681920
    -7.30991360          11.74640640          35.06016720
    -1.83367720          12.72606840          40.05002960
     4.05192360          13.69833960          44.14606080
    10.05077360          14.03379440          46.71025280
    15.85173600          13.81349560          47.11675640
    20.72358120          13.00287240          45.60279840
    24.19304840          11.23571400          42.72675520
    25.57039280           8.65554800          39.46042080
    24.47485920           6.06131560          36.54646880
    21.60930640           3.85689720          33.93054000
    17.84729960           2.04849240          31.73494320
    14.68014720           0.62489520          29.78611000
    13.14282400          -0.58794040          27.68707280
    13.17977920          -2.00796120          25.28071400
    14.40405840          -4.44912920          22.20129960
    15.80429080          -8.39138040          18.69392400
    16.66998880         -13.30304160          15.27428640
    16.74413680         -18.15652840          12.20464720
    16.07775680         -22.20678320           9.70578200
    15.48361760         -25.17914760           7.39526760
    15.45190800         -26.73769000           5.00631320
    15.76423640         -26.64089200           2.65717520
    15.88726040         -25.43211000           0.38695320
    14.90139960         -24.24907680          -1.74617760
    12.25042360         -23.91648280          -3.97419920
     8.19396960         -24.33919920          -6.60610200
     3.58176240         -25.08068080          -9.82379920
    -0.53834920         -25.86603160         -13.81683360
    -3.73864160         -26.23891840         -18.42761040
    -6.09159480         -25.85721000         -23.18239200
    -7.64107720         -25.19512160         -27.70090120
    -8.36348520         -25.26044840         -31.58020960
    -7.76529320         -26.42107000         -34.56211080
    -4.85587120         -27.99057960         -36.72122960
     0.83374960         -29.28304680         -37.89091120
     8.63027560         -30.22980680         -37.86659240
    16.76988600         -30.66778200         -36.44824040
    22.99690240         -30.06553640         -33.34689160
    25.40779120         -28.15103520         -28.92112720
    23.03600320         -25.09260160         -23.86379240
    16.37196560         -21.34585400         -18.91160000
     6.80899640         -17.54093160         -14.56546800
    -4.00066360         -14.22286040         -11.02161400
   -15.14387120         -11.55257240          -8.56947880
   -26.91507320          -9.40704360          -6.97255120
   -38.94448280          -7.85231600          -6.24513640
   -50.22311200          -6.79159160          -6.58512120
   -60.10603920          -5.80525400          -7.70235080
   -68.16196440          -4.63676440          -9.81211680
   -74.22876360          -3.16596040         -12.63666160
   -78.44996440          -1.80768960         -15.42925840
   -81.30311960          -1.15656840         -17.85421360
   -82.83662800          -0.97370160         -19.70076560
   -82.76176440          -0.71215640         -21.35682120
   -80.98340040          -0.36764160         -23.02336680
   -77.64506360          -0.53787240         -24.51062200
   -73.20523280          -1.65438640         -25.55513400
   -68.26019280          -3.45778480         -25.54726600
   -63.44127640          -5.47695160         -24.21331400
   -59.02242680          -7.13896760         -21.50917040
   -55.10139480          -7.77602200         -17.40074160
   -51.27143840          -7.13157640         -11.82007800
   -46.89073560          -5.57088840          -4.63843360
   -41.58139240          -3.78203400           3.85403640
   -34.97171400          -2.22992880          12.82119760
   -27.36616120          -0.84924680          20.90024960
   -19.65737360           0.58984760          26.89266200
   -12.90631280           2.00891480          30.19690520
    -8.03208360           3.09300440          30.75623520
    -5.76639160           3.67593760          29.13713440
    -6.30450240           3.91817080          25.86531640
    -9.18746000           3.95298000          21.38876920
   -13.53955280           3.67546080          16.39342320
   -17.87376400           3.10587880          11.63148880
   -20.64442640           2.54583360           8.05711760
   -20.48873920           2.40468960           6.05702400
   -17.02189440           2.79879560           5.23233400
   -10.61677920           3.07059280           5.39898880
    -1.92308440           2.23994240           6.31308560
     8.20899000           0.13518320           7.80391680
    19.44422720          -2.50792520          10.00809680
    31.18610400          -4.92811200          12.75634760
    43.03646080          -6.65712360          16.04080200
    54.23140520          -7.59792320          20.09320240
    63.63940240          -8.03208360          24.96647840
    71.27833360          -8.07595240          30.47585480
    76.93505280          -7.58957880          36.22746480
    80.71613320          -6.47258760          41.61953920
    83.25672160          -4.87518320          45.66907880
    84.51819400          -3.20029240          47.59550080
    84.06400680          -1.83820720          46.94962520
    81.19773880          -0.92124920          43.40934760
    75.48594480          -0.39768200          37.13583960
    66.68114680          -0.51641480          28.92589560
    55.21154400          -1.45077720          20.19047720
    42.27828960          -2.62498840          12.24112520
    28.73015400          -3.06105600           5.66458720
    15.28382320          -2.32005120           0.28944000
     2.51293200          -1.10554680          -4.24718840
    -9.41061960          -0.31900400          -7.76219360
   -19.59157000          -0.19025800         -10.01906400
   -26.85165400          -0.50067920         -11.02209080
   -31.06141080          -0.87690360         -10.71262360
   -32.65857680          -1.15633000          -9.26589960
   -32.58919720          -1.23453160          -6.93345080
   -31.87823280          -0.93436240          -3.89313680
   -31.18467320          -0.40841120          -0.62513360
   -31.01849560          -0.03790840           2.34484680
   -31.33916840           0.12826920           4.21786320
   -31.92663200           0.32210360           4.33182720
   -32.78803840           0.57387360           2.79927240
   -34.16204440           0.81610680          -0.10967240
   -36.45920760           0.99444400          -3.63588320
   -39.69573960           0.92577920          -7.11035720
   -43.52998720           0.67567840         -10.32829280
   -47.32894880           0.77176080         -13.19766040
   -49.91579040           1.47366520         -15.99931720
   -50.51422120           2.15768800         -18.41092120
   -48.86412640           2.09331520         -20.13349520
   -44.60740080           1.59263600         -21.15249640
   -37.78028480           1.36423120         -21.34275440
   -28.53131280           1.13797200         -21.28553400
   -17.11654680           0.33402440         -21.11434920
    -4.39047800          -0.66781040         -20.55692680
     8.67247600          -1.01065640         -19.75321760
    20.87330800          -0.29516240         -18.81432520
    31.07905400           1.18827800         -18.27168480
    38.77639760           2.78830520         -18.64695560
    43.62583160           3.98230560         -19.69885840
    45.73011400           4.54401960         -20.86639400
    45.66717160           4.68564040         -21.53873440
    44.30818560           5.04326840         -21.07858640
    43.03669920           6.13665600         -19.31428920
    42.97041880           7.94005400         -16.56866080
    44.36063760          10.09511960         -13.05508600
    47.07455640          12.14098920          -8.99052600
    50.68111400          13.71407520          -4.69589240
    54.58903320          15.05422600          -0.53215040
    58.50148200          16.62087440           3.05438040
    61.91825880          18.26500880           5.97071640
    64.36276440          19.34003840           8.24618320
    65.41275960          19.48785800          10.08892040
    64.33510800          18.92161360          12.20488560
    60.91833120          17.71116240          14.77217680
    55.47046680          15.86818680          17.63129240
    48.83956920          13.82613200          20.49326880
    41.95022600          12.11857800          22.71819120
    34.94262680          10.97559920          24.20544640
    27.75526040          10.09106640          24.68037600
    20.31493200           9.25397880          23.95916000
    12.83168800           8.32366960          22.61471760
     5.78808800           6.82401640          21.13628400
    -0.41484840           4.92429720          20.06578440
    -5.48625000           3.32832320          19.52314360
    -9.61160640           2.42543240          19.60182200
   -13.11588280           2.04849240          20.25175080
   -16.22915280           1.66058560          20.73168760
   -19.08326160           0.78940400          20.89023600
   -21.72398560          -1.23095520          20.60437200
   -24.01590360          -4.50730320          19.89793760
   -25.82883840          -7.98869120          19.06919480
   -27.05025680         -10.54787640          17.97795280
   -27.50992760         -11.88254360          16.48044600
   -27.29105960         -12.68792160          14.35613640
   -26.12495440         -13.78011720          11.70849800
   -23.98204800         -15.38491240           8.36801520
   -21.12436280         -17.32540120           4.34517880
   -17.83108720         -19.37389360           0.39839760
   -14.45603360         -21.07095720          -3.33857520
   -10.89572920         -21.55447000          -6.71720520
    -7.46703160         -20.64180360          -9.51123240
    -4.82654560         -19.03343200         -11.60526280
    -3.41939920         -17.36521720         -12.81023040
    -3.26108920         -15.95711720         -13.19289200
    -4.24599640         -14.96791840         -12.82954200
    -6.20579720         -14.57023640         -12.20035560
    -8.79693040         -14.66965680         -11.69443120
   -11.99269280         -14.68324680         -11.59000400
   -15.44475560         -13.99922360         -12.49480240
   -18.94712440         -12.56966600         -14.56213000
   -22.35269560         -10.87665560         -17.80915280
   -25.36773680          -8.93878920         -22.07803720
   -28.08690080          -6.38031960         -26.70693400
   -30.44867520          -3.63087640         -31.22305880
   -32.68528000          -1.43599520         -35.30001640
   -34.96456160          -0.09036080         -38.68937480
   -37.28485120           0.21314640         -41.14151000
   -39.80016720          -0.42676920         -42.35196120
   -42.19841960          -1.53970720         -42.31500640
