SERVICIO GEOLOGICO COLOMBIANO- RED NACIONAL DE ACELEROGRAFOS DE COLOMBIA
SISMO DE CORDOBA (QUINDIO) 1999/01/25 18:19:17 ML=6.3
LATITUD DEL EVENTO(GRADOS): 4.439
LONGITUD DEL EVENTO(GRADOS): -75.698
PROFUNDIDAD DEL EVENTO (Km): 0
CODIGO DE LA ESTACION: CCAST
Estacion:CASTA?ARES, PEREIRA (RISAR) Geol:RELLENO Topo:PLANA
LATITUD DE LA ESTACION (GRADOS): 4.792
LONGITUD DE LA ESTACION (GRADOS): -75.687
DISTANCIA EPICENTRAL: 39.202 km
DISTANCIA HIPOCENTRAL: 39.202 km
INTERVALO DE MUESTREO (SEGUNDOS): 0.005
NUMERO DE DATOS: 18176
DURACION (SEGUNDOS): 90.88
UNIDADES: cm/s^2
TIPO DE EQUIPO: SSA
ESCALA MAXIMA (G): 2
CORRECCION DE LINEA BASE: LINEA BASE NO REMOVIDA
TIPO DE DATOS: NO CORREGIDO
         EW                  VER                  NS
[...]
    -2.92968720           7.81250000         -88.86718720
    12.69531280          11.71875040         -90.82031280
    25.39062480          13.67187520         -95.70312480
    34.17968720          14.64843760         -99.60937520
    41.99218720          15.62500000        -103.51562480
    48.82812480          17.57812480        -106.44531280
    50.78124960          21.48437520        -107.42187520
    50.78124960          23.43750000        -106.44531280
    52.73437520          21.48437520        -106.44531280
    57.61718720          16.60156240        -106.44531280
    64.45312480          10.74218720        -109.37500000
    73.24218720           4.88281280        -112.30468720
    82.03124960           0.97656240        -115.23437520
    90.82031280          -2.92968720        -116.21093760
    96.67968720          -6.83593760        -113.28124960
   101.56250000         -10.74218720        -110.35156240
   105.46875040         -12.69531280        -107.42187520
   106.44531280         -15.62500000        -102.53906240
   107.42187520         -18.55468720         -95.70312480
   108.39843760         -20.50781280         -86.91406240
   112.30468720         -23.43750000         -75.19531280
   117.18750000         -24.41406240         -64.45312480
   123.04687520         -25.39062480         -55.66406240
   130.85937520         -23.43750000         -52.73437520
   137.69531280         -21.48437520         -52.73437520
   141.60156240         -15.62500000         -52.73437520
   146.48437520          -8.78906240         -51.75781280
   149.41406240          -1.95312480         -46.87500000
   149.41406240           2.92968720         -40.03906240
   144.53124960           6.83593760         -31.25000000
   137.69531280           7.81250000         -22.46093760
   132.81250000           6.83593760         -14.64843760
   129.88281280           5.85937520          -8.78906240
   127.92968720           4.88281280          -2.92968720
   125.97656240           3.90624960           2.92968720
   125.97656240           2.92968720          10.74218720
   126.95312480           0.97656240          17.57812480
   125.97656240          -0.97656240          25.39062480
   123.04687520          -3.90624960          33.20312480
   118.16406240          -7.81250000          39.06250000
   114.25781280         -13.67187520          43.94531280
   110.35156240         -17.57812480          49.80468720
   106.44531280         -21.48437520          54.68750000
   105.46875040         -24.41406240          56.64062480
   107.42187520         -25.39062480          56.64062480
   112.30468720         -26.36718720          55.66406240
   119.14062480         -28.32031280          53.71093760
   123.04687520         -32.22656240          57.61718720
   124.02343760         -36.13281280          61.52343760
   125.97656240         -40.03906240          62.50000000
   129.88281280         -46.87500000          62.50000000
   131.83593760         -51.75781280          62.50000000
   133.78906240         -53.71093760          61.52343760
   132.81250000         -51.75781280          58.59375040
   127.92968720         -49.80468720          56.64062480
   120.11718720         -49.80468720          54.68750000
   112.30468720         -51.75781280          52.73437520
   106.44531280         -55.66406240          48.82812480
   102.53906240         -59.57031280          43.94531280
   101.56250000         -62.50000000          40.03906240
   102.53906240         -62.50000000          35.15624960
   102.53906240         -59.57031280          29.29687520
    98.63281280         -53.71093760          24.41406240
    93.75000000         -48.82812480          20.50781280
    86.91406240         -45.89843760          18.55468720
    80.07812480         -44.92187520          19.53124960
    73.24218720         -42.96875040          21.48437520
    66.40624960         -40.03906240          24.41406240
    58.59375040         -35.15624960          28.32031280
    50.78124960         -30.27343760          32.22656240
    42.96875040         -24.41406240          35.15624960
    34.17968720         -18.55468720          37.10937520
    26.36718720         -11.71875040          38.08593760
    16.60156240          -3.90624960          38.08593760
     6.83593760           2.92968720          40.03906240
    -2.92968720           9.76562480          41.01562480
   -13.67187520          14.64843760          42.96875040
   -23.43750000          19.53124960          44.92187520
   -33.20312480          24.41406240          46.87500000
   -41.99218720          29.29687520          48.82812480
   -49.80468720          34.17968720          51.75781280
   -59.57031280          36.13281280          55.66406240
   -68.35937520          38.08593760          59.57031280
   -78.12500000          39.06250000          61.52343760
   -87.89062480          40.03906240          63.47656240
   -97.65624960          40.03906240          64.45312480
  -108.39843760          41.01562480          63.47656240
  -118.16406240          41.99218720          63.47656240
  -125.97656240          41.01562480          62.50000000
  -132.81250000          40.03906240          61.52343760
  -137.69531280          38.08593760          58.59375040
  -141.60156240          35.15624960          53.71093760
  -144.53124960          31.25000000          46.87500000
  -146.48437520          26.36718720          39.06250000
  -149.41406240          21.48437520          29.29687520
  -151.36718720          15.62500000          20.50781280
  -156.25000000          11.71875040          12.69531280
  -161.13281280           9.76562480           6.83593760
  -164.06250000           8.78906240           1.95312480
  -165.03906240           7.81250000          -2.92968720
  -167.96875040           3.90624960          -8.78906240
  -170.89843760          -0.97656240         -16.60156240
  -173.82812480          -4.88281280         -24.41406240
  -174.80468720          -6.83593760         -32.22656240
  -170.89843760          -8.78906240         -38.08593760
  -166.01562480          -8.78906240         -41.99218720
  -159.17968720          -9.76562480         -45.89843760
  -152.34375040         -11.71875040         -47.85156240
  -147.46093760         -13.67187520         -51.75781280
  -143.55468720         -14.64843760         -55.66406240
  -141.60156240         -16.60156240         -60.54687520
  -138.67187520         -20.50781280         -65.42968720
  -135.74218720         -23.43750000         -70.31250000
  -133.78906240         -24.41406240         -77.14843760
  -135.74218720         -25.39062480         -83.00781280
  -135.74218720         -26.36718720         -86.91406240
  -130.85937520         -29.29687520         -86.91406240
  -121.09375040         -29.29687520         -83.98437520
  -112.30468720         -25.39062480         -78.12500000
  -107.42187520         -19.53124960         -72.26562480
  -104.49218720         -14.64843760         -63.47656240
  -103.51562480         -12.69531280         -56.64062480
  -102.53906240         -13.67187520         -51.75781280
   -99.60937520         -14.64843760         -50.78124960
   -93.75000000         -14.64843760         -52.73437520
   -86.91406240         -12.69531280         -53.71093760
   -83.00781280          -6.83593760         -47.85156240
   -83.00781280          -0.97656240         -41.01562480
   -83.00781280           2.92968720         -34.17968720
   -81.05468720           6.83593760         -31.25000000
   -79.10156240           9.76562480         -32.22656240
   -78.12500000          12.69531280         -35.15624960
   -79.10156240          12.69531280         -38.08593760
   -80.07812480          11.71875040         -42.96875040
   -80.07812480           7.81250000         -46.87500000
   -78.12500000           3.90624960         -50.78124960
   -74.21875040           0.00000000         -54.68750000
   -68.35937520          -0.97656240         -58.59375040
   -61.52343760           0.00000000         -63.47656240
   -53.71093760           0.97656240         -69.33593760
   -45.89843760           1.95312480         -75.19531280
   -37.10937520           1.95312480         -84.96093760
   -24.41406240           2.92968720         -93.75000000
   -14.64843760           4.88281280         -98.63281280
   -11.71875040           6.83593760        -100.58593760
   -10.74218720           6.83593760        -101.56250000
    -7.81250000           5.85937520        -101.56250000
    -0.97656240           5.85937520         -96.67968720
     4.88281280           2.92968720         -89.84375040
    11.71875040          -2.92968720         -83.00781280
    18.55468720         -12.69531280         -78.12500000
    28.32031280         -20.50781280         -80.07812480
    42.96875040         -21.48437520         -86.91406240
    54.68750000         -17.57812480         -91.79687520
    66.40624960         -14.64843760         -89.84375040
    79.10156240         -18.55468720         -83.98437520
    91.79687520         -24.41406240         -75.19531280
   104.49218720         -27.34375040         -65.42968720
   115.23437520         -24.41406240         -59.57031280
   121.09375040         -18.55468720         -57.61718720
   118.16406240         -16.60156240         -59.57031280
   113.28124960         -21.48437520         -59.57031280
   112.30468720         -30.27343760         -55.66406240
   116.21093760         -37.10937520         -43.94531280
   125.00000000         -38.08593760         -36.13281280
   135.74218720         -31.25000000         -29.29687520
   135.74218720         -29.29687520          -9.76562480
   125.97656240         -17.57812480          -2.92968720
   112.30468720         -19.53124960          16.60156240
   106.44531280         -28.32031280          33.20312480
   109.37500000         -31.25000000          36.13281280
   115.23437520         -36.13281280          38.08593760
   117.18750000         -38.08593760          42.96875040
   117.18750000         -31.25000000          44.92187520
   117.18750000         -22.46093760          43.94531280
   121.09375040         -20.50781280          44.92187520
   129.88281280         -24.41406240          48.82812480
   138.67187520         -28.32031280          56.64062480
   147.46093760         -29.29687520          61.52343760
   154.29687520         -26.36718720          62.50000000
   159.17968720         -23.43750000          62.50000000
   160.15624960         -22.46093760          67.38281280
   159.17968720         -22.46093760          77.14843760
   158.20312480         -20.50781280          83.00781280
   158.20312480         -22.46093760          84.96093760
   159.17968720         -24.41406240          86.91406240
   161.13281280         -24.41406240          89.84375040
   164.06250000         -21.48437520          92.77343760
   166.01562480         -15.62500000          95.70312480
   166.99218720         -11.71875040         100.58593760
   166.99218720          -9.76562480         106.44531280
   166.01562480          -6.83593760         111.32812480
   165.03906240          -2.92968720         114.25781280
   164.06250000           0.97656240         116.21093760
   160.15624960           5.85937520         117.18750000
   153.32031280          10.74218720         116.21093760
   141.60156240          13.67187520         113.28124960
   126.95312480          16.60156240         110.35156240
   113.28124960          20.50781280         105.46875040
   101.56250000          25.39062480          99.60937520
    89.84375040          32.22656240          94.72656240
    76.17187520          36.13281280          92.77343760
    61.52343760          37.10937520          92.77343760
    49.80468720          36.13281280          92.77343760
    39.06250000          35.15624960          92.77343760
    31.25000000          35.15624960          90.82031280
    26.36718720          39.06250000          90.82031280
    23.43750000          46.87500000          86.91406240
    13.67187520          53.71093760          83.00781280
    -2.92968720          51.75781280          81.05468720
   -20.50781280          43.94531280          82.03124960
   -30.27343760          33.20312480          83.98437520
   -31.25000000          23.43750000          85.93750000
   -30.27343760          18.55468720          86.91406240
   -33.20312480          21.48437520          85.93750000
   -41.01562480          28.32031280          79.10156240
   -52.73437520          31.25000000          70.31250000
   -65.42968720          27.34375040          64.45312480
   -81.05468720          18.55468720          64.45312480
   -96.67968720           8.78906240          64.45312480
  -106.44531280           1.95312480          61.52343760
  -112.30468720          -1.95312480          55.66406240
  -115.23437520          -4.88281280          50.78124960
  -118.16406240          -5.85937520          46.87500000
  -122.07031280          -6.83593760          43.94531280
  -127.92968720          -8.78906240          40.03906240
  -136.71875040         -11.71875040          33.20312480
  -148.43750000         -13.67187520          25.39062480
  -162.10937520         -15.62500000          14.64843760
  -176.75781280         -17.57812480           3.90624960
  -199.21875040         -22.46093760          -3.90624960
  -215.82031280         -26.36718720         -15.62500000
  -206.05468720         -22.46093760         -35.15624960
  -179.68750000         -10.74218720         -44.92187520
  -156.25000000           2.92968720         -43.94531280
  -142.57812480          11.71875040         -40.03906240
  -141.60156240           8.78906240         -40.03906240
  -147.46093760          -0.97656240         -42.96875040
  -157.22656240          -5.85937520         -48.82812480
  -166.01562480          -2.92968720         -52.73437520
  -170.89843760           3.90624960         -56.64062480
  -171.87500000          13.67187520         -59.57031280
  -172.85156240          21.48437520         -59.57031280
  -175.78124960          24.41406240         -56.64062480
  -179.68750000          23.43750000         -52.73437520
  -187.50000000          21.48437520         -49.80468720
  -194.33593760          18.55468720         -50.78124960
  -188.47656240          11.71875040         -54.68750000
  -169.92187520           2.92968720         -58.59375040
  -148.43750000          -0.97656240         -60.54687520
  -131.83593760          -1.95312480         -62.50000000
  -116.21093760          -1.95312480         -65.42968720
   -92.77343760          -1.95312480         -72.26562480
   -83.98437520           2.92968720         -86.91406240
   -96.67968720           6.83593760         -96.67968720
  -112.30468720           3.90624960         -92.77343760
  -117.18750000          -2.92968720         -81.05468720
  -114.25781280          -8.78906240         -70.31250000
  -112.30468720         -11.71875040         -60.54687520
  -105.46875040         -12.69531280         -55.66406240
   -93.75000000         -12.69531280         -58.59375040
   -81.05468720         -13.67187520         -66.40624960
   -70.31250000         -15.62500000         -76.17187520
   -61.52343760         -17.57812480         -84.96093760
   -51.75781280         -19.53124960         -91.79687520
   -43.94531280         -24.41406240         -94.72656240
   -40.03906240         -26.36718720         -92.77343760
   -36.13281280         -25.39062480         -86.91406240
   -31.25000000         -22.46093760         -81.05468720
   -28.32031280         -20.50781280         -75.19531280
   -20.50781280         -16.60156240         -73.24218720
    -8.78906240         -12.69531280         -74.21875040
     2.92968720          -8.78906240         -76.17187520
    10.74218720          -2.92968720         -77.14843760
    18.55468720           2.92968720         -78.12500000
    27.34375040           8.78906240         -76.17187520
    36.13281280          11.71875040         -72.26562480
    43.94531280          12.69531280         -67.38281280
    51.75781280          12.69531280         -60.54687520
    56.64062480          13.67187520         -51.75781280
    57.61718720          14.64843760         -41.99218720
    59.57031280          13.67187520         -35.15624960
    67.38281280          12.69531280         -32.22656240
    79.10156240          11.71875040         -32.22656240
    89.84375040           9.76562480         -31.25000000
   102.53906240           7.81250000         -32.22656240
   121.09375040           7.81250000         -35.15624960
   138.67187520           5.85937520         -34.17968720
   150.39062480          -0.97656240         -30.27343760
   160.15624960         -13.67187520         -28.32031280
   172.85156240         -23.43750000         -31.25000000
   186.52343760         -24.41406240         -36.13281280
   190.42968720         -24.41406240         -37.10937520
   187.50000000         -27.34375040         -32.22656240
   180.66406240         -36.13281280         -23.43750000
   177.73437520         -46.87500000         -13.67187520
   177.73437520         -52.73437520          -6.83593760
   180.66406240         -48.82812480          -5.85937520
   187.50000000         -37.10937520          -4.88281280
   191.40624960         -26.36718720          -0.97656240
   194.33593760         -23.43750000           5.85937520
   196.28906240         -26.36718720          15.62500000
   200.19531280         -30.27343760          23.43750000
   201.17187520         -29.29687520          25.39062480
   201.17187520         -26.36718720          22.46093760
   198.24218720         -23.43750000          18.55468720
   193.35937520         -23.43750000          17.57812480
   186.52343760         -24.41406240          19.53124960
   178.71093760         -26.36718720          24.41406240
   170.89843760         -24.41406240          27.34375040
   163.08593760         -23.43750000          26.36718720
   155.27343760         -22.46093760          23.43750000
   148.43750000         -16.60156240          20.50781280
   142.57812480         -12.69531280          17.57812480
   132.81250000         -14.64843760          19.53124960
   124.02343760         -16.60156240          23.43750000
   118.16406240         -12.69531280          24.41406240
   113.28124960         -10.74218720          20.50781280
   103.51562480         -12.69531280          20.50781280
    94.72656240         -14.64843760          19.53124960
    86.91406240         -14.64843760          16.60156240
    80.07812480         -14.64843760          13.67187520
    73.24218720         -13.67187520          13.67187520
    66.40624960         -12.69531280          14.64843760
    61.52343760         -11.71875040          17.57812480
    56.64062480          -8.78906240          21.48437520
    49.80468720          -4.88281280          25.39062480
    41.01562480           0.00000000          29.29687520
    32.22656240           5.85937520          34.17968720
    22.46093760          11.71875040          38.08593760
    12.69531280          16.60156240          41.99218720
