SERVICIO GEOLOGICO COLOMBIANO- RED NACIONAL DE ACELEROGRAFOS DE COLOMBIA
SISMO DE CORDOBA (QUINDIO) 1999/01/25 18:19:17 ML=6.3
LATITUD DEL EVENTO(GRADOS): 4.439
LONGITUD DEL EVENTO(GRADOS): -75.698
PROFUNDIDAD DEL EVENTO (Km): 0
CODIGO DE LA ESTACION: CMAN1
Estacion:MANIZALES, INGEOMINAS Geol:SUELO Topo:ONDULADA
LATITUD DE LA ESTACION (GRADOS): 5.043
LONGITUD DE LA ESTACION (GRADOS): -75.314
DISTANCIA EPICENTRAL: 79.446 km
DISTANCIA HIPOCENTRAL: 79.446 km
INTERVALO DE MUESTREO (SEGUNDOS): 0.005
NUMERO DE DATOS: 17200
DURACION (SEGUNDOS): 86
UNIDADES: cm/s^2
TIPO DE EQUIPO: ETNA
ESCALA MAXIMA (G): 2
CORRECCION DE LINEA BASE: LINEA BASE NO REMOVIDA
TIPO DE DATOS: NO CORREGIDO
         EW                  VER                  NS
[...]
   -31.02922400          11.57283760          -5.38587600
   -28.12385520           9.36460480          -2.93064080
   -23.38171040           6.33478160          -4.30011760
   -20.01810080           5.79977040          -5.75685520
   -18.40353040           8.06379280          -4.98580960
   -18.44835280          11.02733600          -7.28654880
   -18.97001280          14.39762080          -9.36937360
   -17.72785200          16.67356480          -9.87196000
   -16.80088080          16.79944960         -11.95573840
   -16.75653440          15.39421120         -13.19646800
   -16.27826720          13.22317120         -14.16730880
   -15.21301280          11.31343840         -15.91014880
   -14.43767520          10.69545760         -16.28494240
   -15.00225040          11.12031920         -17.13895760
   -14.97745520          11.83986640         -18.29528800
   -13.84115200          12.09497440         -18.68391040
   -12.81595200          11.38401040         -20.94411840
   -11.99388480          10.29396080         -23.77080880
   -11.20376560           8.24165360         -26.48687360
    -9.97161840           5.45072560         -31.27622640
    -8.65554800           3.80468400         -35.46810160
    -8.07285280           2.94017760         -38.22326640
    -8.08286640           1.87921520         -42.04988480
    -7.64989840           1.01614000         -46.12302800
    -6.91461600          -0.20694720         -49.35216880
    -6.12497360          -2.28881840         -52.79016480
    -5.27811040          -4.74596000         -56.73837680
    -4.57811360          -7.34186160         -60.66465360
    -3.57341760          -9.31978240         -64.48984160
    -2.91156800         -10.22624960         -67.72613520
    -2.94876080         -10.05601920         -69.93246080
    -3.32593920          -9.20295680         -71.37155520
    -3.92007840          -8.52966320         -72.50213600
    -4.18615360          -8.34178960         -73.33707840
    -4.57620640          -8.14056400         -73.67038720
    -5.29956800          -7.99894320         -73.58408000
    -5.24473200          -8.02660000         -73.16494000
    -4.35590720          -7.36856480         -72.39675520
    -2.82382960          -6.23798400         -71.36631040
    -1.12295120          -4.49514400         -70.38831680
     0.30279120          -2.42185600         -69.46420640
     2.65359840          -0.93984640         -68.03989440
     5.79118720          -0.22506720         -66.13826720
     8.43811040          -0.11682480         -63.86709200
    10.90383520          -0.32758720         -60.66322320
    13.85450400          -1.73902480         -57.24239360
    16.69263840          -4.14657600         -53.44438560
    18.75352880          -6.66379920         -48.39086560
    20.31850800          -8.72612000         -43.44511040
    21.67463280         -10.02979280         -38.88654720
    23.23007600         -10.90908080         -34.54685200
    25.11978160         -11.94667840         -30.60007120
    26.66997920         -13.25798000         -26.41868560
    28.20158000         -14.38665360         -22.09949520
    30.27153040         -15.78187920         -17.71211600
    32.19127680         -17.47751200         -13.27848400
    33.62369520         -19.14644240          -8.83483920
    34.55257440         -19.77539040          -4.14037680
    35.37130320         -18.95666160           1.21402720
    36.38362880         -17.20428480           7.51304640
    37.19997440         -14.46771600          14.31274400
    37.60766960         -11.34729360          20.85494960
    37.77313200          -8.46767440          26.33810080
    38.41257120          -6.12306560          30.95626800
    39.08062000          -4.36496720          35.54487200
    39.60895520          -3.36265600          39.71958160
    40.41576400          -3.33309200          42.95539840
    41.05949440          -4.05788400          45.15457120
    41.20922080          -4.75215920          46.63419760
    40.17925280          -5.21135360          48.36034800
    38.34438320          -4.99725360          50.22478080
    36.27157200          -4.43363200          51.94807040
    34.60121120          -5.64384480          53.49111520
    33.71524800          -8.21065920          53.78580080
    32.29904160         -10.70165600          52.63471600
    30.53998960         -12.52031360          50.63486080
    28.76758560         -13.44871520          48.47860320
    27.02617680         -15.68508160          47.57213600
    25.55561040         -19.33813120          47.06764240
    23.24676480         -20.97082160          46.25844960
    21.09050720         -19.94037600          45.83835600
    19.44684960         -16.80850960          44.91853680
    17.42601360         -12.49218000          43.80846000
    16.88909520          -9.28401920          41.28885280
    16.95871360          -6.84452080          36.55195200
    16.16048800          -4.21571760          31.58950800
    15.74373280          -1.99890160          26.17263760
    14.74428160          -0.21982160          21.07048000
    14.04142400           0.39482080          16.59107200
    15.05422560           0.34332240          11.74020800
    15.54203040           1.31082560           7.89976080
    15.85292800           1.71089200           4.77552400
    16.56055440           0.92840160           1.38521200
    16.40272160          -0.11110320          -1.65796240
    16.44754400          -1.27363200          -4.89521040
    16.62158960          -1.71756720          -8.12912000
    16.24298080          -1.40571600         -10.52427280
    16.65973680          -1.36375440         -12.85076160
    17.46416080          -1.61552400         -15.40327040
    17.97914480          -1.32799120         -17.86470400
    18.94235600          -0.69046000         -20.44963840
    19.91081200           1.23739280         -22.64642720
    20.74813840           5.03349280         -23.55146400
    21.39759040           9.75036640         -24.26481280
    21.48389840          15.48719440         -25.25997200
    21.81959120          20.74289360         -25.61998400
    22.71795280          23.92435040         -26.34334560
    23.72741680          25.75397520         -27.15539920
    24.39069760          26.92794800         -27.54640560
    24.17993520          28.25450880         -28.61499760
    23.37265040          29.83140960         -29.06656240
    23.34785440          29.87194080         -28.79333520
    23.57673680          28.79476560         -29.51097520
    22.47619600          29.13999520         -30.06744400
    20.98226560          31.04925120         -30.14659920
    19.63853840          32.90891680         -31.18705760
    18.77069440          33.35094480         -32.16600400
    18.77117120          32.22560880         -32.74393120
    18.79549040          30.54094320         -33.76483920
    18.75591280          28.31411360         -34.40427760
    18.80121200          24.97816080         -35.29548640
    18.81551760          21.60930640         -36.87763200
    18.93234240          18.97001280         -38.22326640
    19.93036240          16.21150960         -39.77489440
    21.84248000          12.21227680         -41.25785840
    23.45752720           8.51058960         -42.03796400
    23.58722720           7.56883600         -43.83707040
    23.00977680           6.34145760         -46.20170560
    23.29969440           2.89297120         -46.67663600
    23.59199520          -0.81348400         -46.95224800
    23.06175200          -3.77225840         -45.47166800
    21.44908880          -6.64710960         -42.90485360
    19.83690240         -10.79988480         -44.57283040
    19.16503920         -13.02385360         -43.60485040
    17.49658560         -14.37568640         -40.81583040
    14.67657120         -17.50326160         -42.59490960
    11.11745840         -19.52314400         -39.70050800
     7.17115440         -21.80337920         -37.17327120
     3.23486320         -22.99690240         -39.11161440
    -2.59113280         -22.59159120         -34.57641600
    -8.34035840         -24.67060080         -32.55987200
   -13.40055440         -26.14641200         -33.91933440
   -20.41816720         -25.26998480         -28.48863600
   -26.14831920         -25.69007840         -25.34723280
   -30.99250800         -26.81922880         -23.07605760
   -36.89527520         -28.01418320         -15.66886880
   -40.28940240         -30.42125680         -11.11030560
   -42.88721120         -31.69965760          -6.84213600
   -47.02663440         -32.53078480           0.41008000
   -49.43561520         -35.36033600           4.14514560
   -49.73697680         -37.83559760           7.08961520
   -50.66061040         -38.56277440          12.23182640
   -51.65863040         -38.68579840          15.34032800
   -51.74827600         -38.06543360          17.97056160
   -51.54514320         -36.30352000          21.88348800
   -51.01156240         -33.54406320          24.94430560
   -50.64821280         -29.57677840          28.07903280
   -50.32253280         -24.90949600          32.04298000
   -50.22478080         -20.08056640          35.71891760
   -50.40407200         -16.07751840          38.72203840
   -49.73268480         -13.61513120          40.42959200
   -48.61497840         -11.61098480          40.83395040
   -46.67425120          -9.60016240          41.46766640
   -43.79653920          -7.23218880          43.22338080
   -41.08142880          -4.41551200          45.16506160
   -38.76781440          -1.15871440          46.51451120
   -36.66114800           2.62498880          48.17914960
   -34.00945680           6.56509360          50.75502400
   -31.06355680          10.39314240          53.76768080
   -28.40471280          13.82303200          56.77127840
   -26.57270400          16.85810080          59.48972720
   -24.81842080          18.95236960          61.19155920
   -22.61352560          20.81346480          61.80048000
   -20.84779760          22.78757120          62.04795840
   -18.47553280          25.09927760          62.53957760
   -15.94495760          27.97889680          64.37349280
   -13.56077200          30.00831600          66.79916400
   -11.64388640          31.72445280          68.50004160
   -10.52713360          33.40959520          68.82572160
    -9.21440160          35.10236720          68.19391280
    -8.20732080          36.66591680          68.13001600
    -6.86645520          37.18233120          68.33505600
    -5.50317760          36.53049440          68.36175920
    -3.94392000          35.24160400          67.46912000
    -1.89495120          33.76293200          65.79065360
     0.06103520          31.32724800          63.89141120
     2.12907760          28.61976640          61.92016640
     3.43132000          26.04675280          60.11867520
     4.71019760          23.22626080          57.04927440
     6.15501440          20.55692640          53.21931840
     7.15780240          17.75836960          49.44086080
     8.25595840          14.84155680          44.85464080
     9.36412800          11.83938960          40.13633760
    10.50710640           9.04321680          36.01551040
    11.69538480           6.29806480          32.11927440
    12.36009600           3.72219120          28.55634720
    12.16745360           1.69372560          25.40826800
    11.86084720          -0.09965920          21.79718000
    11.54565840          -1.35612480          17.92955360
    10.88953040          -2.86674480          14.39666720
    10.15520080          -4.21524080          10.50615280
     9.07611840          -5.11693920           5.87415680
     7.93933840          -5.94425200           0.58794000
     6.64520240          -6.45160640          -4.96721280
     5.37872320          -7.29703920         -10.25056800
     4.45699680          -7.99512880         -15.03801360
     3.67975200          -8.29458240         -19.46973840
     3.21578960          -8.15582240         -23.60057840
     2.14815120          -7.76958480         -27.08816560
     0.97560880          -6.90460240         -29.89912000
     0.82731280          -5.35345040         -32.22274800
     1.15394560          -3.59487520         -34.52444080
     1.69992480          -2.38084800         -37.50419600
     2.79760400          -1.88016880         -41.50438320
     4.13465520          -1.23214720         -46.30231840
     5.39732000          -0.49972560         -51.58042880
     6.37197520           0.43249120         -57.31105840
     7.47776000           0.84495520         -63.67540320
     8.77714160           0.87642640         -70.67060480
     9.92155040           1.35469440         -78.25613040
    11.82222400           2.23922720         -85.31284320
    13.81349600           3.08132160         -90.11936160
    15.75613040           4.07743440         -93.29557440
    17.73309680           5.66577920         -96.23908960
    19.28615600           6.44969920         -99.47967520
    20.55931120           6.51741040        -102.84376160
    21.06809600           6.73008000        -105.76391200
    21.43001520           6.84404400        -108.08706320
    21.71182640           6.36339200        -109.97009280
    21.30413040           5.78641920        -111.46593120
    20.54262160           5.60998880        -112.34808000
    19.76108560           5.73730480        -112.64753360
    18.65577680           6.30950960        -112.64991760
    17.51804320           6.42299680        -112.17737200
    16.64829280           5.62858560        -111.61375040
    15.64741120           4.58431280        -110.89563360
    14.96076560           3.28636160        -109.20763040
    14.18828960           1.80482880        -107.48672480
    13.24319840           1.34468080        -104.92849360
    12.51602160           1.76906560        -101.03702560
    11.71588880           2.09808320         -97.16033920
    11.46841040           2.27355920         -92.57268880
    10.92815360           2.89535520         -87.53252000
    10.36787040           3.96108640         -81.86197280
    10.21575920           4.94384800         -75.21104800
     9.11617280           6.20889680         -68.67980960
     8.08238960           7.78865840         -61.38134000
     7.03620880           9.64641600         -53.71332160
     5.55610640          10.98680480         -47.32656480
     4.09746160          11.96527520         -41.22209520
     2.55060160          13.48114000         -34.98649600
     1.11675280          14.66178880         -29.40177920
     0.21982160          15.21444320         -24.21903600
    -0.07438640          14.84108000         -18.83459120
    -0.36334960          13.76581200         -13.54408240
    -0.50401680          12.46023200          -8.71086160
    -1.14154800          11.11698160          -4.25434080
    -2.47335440           9.97257200          -1.43241920
    -3.81374320           8.42237440          -0.08153920
    -3.69262720           7.22169840           2.37131120
    -2.58636480           7.24887840           6.73341760
    -2.77757680           7.92646400          11.54375040
    -2.19345120           7.96842560          15.55872000
    -0.47588320           7.04097760          18.54228960
     0.60987440           5.63287760          20.88642160
     1.23834640           3.44324080          23.03314240
     2.69985200           0.84781680          24.71685440
     4.71305840          -1.83677680          26.27897280
     5.90753520          -4.50086560          27.60791760
     7.48538960          -6.91461600          28.30553040
     8.82720960          -9.25159440          29.44469440
     9.90390800         -10.93149200          30.88951120
    10.26296640          -9.94491600          31.61954880
     8.06522400          -4.86898400          32.01055520
     5.79452480           1.98554960          32.85551040
     5.22756560           7.12442400          33.21075440
     4.90522400           8.15200800          33.38193920
     3.97300720           4.38118000          33.12635440
     2.79855760          -1.34038960          30.36117520
     1.03235280          -5.61618800          28.12480960
    -0.37479440          -9.26542320          26.53169600
    -0.91314320         -12.44211200          24.33252320
    -2.65789040         -12.45975520          23.98109440
    -4.56714640         -11.36779760          23.17905440
    -6.02912880         -11.41643520          22.56250400
    -8.04805760         -13.04960240          22.46284480
    -9.96494320         -15.48480960          20.71285280
   -12.96091040         -16.13473920          20.12634240
   -16.23201360         -16.98684720          19.00816000
   -18.19038400         -18.65673040          16.05224640
   -19.71530880         -19.60992800          14.86206080
   -20.61271680         -20.68233520          14.12057840
   -21.22211440         -21.46577840          12.46404640
   -21.80099520         -20.97606640          12.36820240
   -21.70896560         -20.51448800          12.25090000
   -20.90930960         -20.94602560          11.05785360
   -20.47204960         -20.59268960          10.68258320
   -19.89507680         -20.00951760           9.39226160
   -17.92049440         -19.21081520           8.35990880
   -15.51246640         -17.97390000           8.52775600
   -12.48455040         -17.31586480           8.09621840
    -9.39798320         -16.53099040           8.09383360
    -6.60705600         -16.08514800           7.28750240
    -4.00114080         -15.71369200           6.09397920
    -3.04126720         -15.16342160           4.91189920
    -2.89535520         -13.82875440           2.40707360
    -2.61878960         -12.09306720           0.99849680
    -2.30216960         -10.86807280          -0.67663200
    -2.12192560          -8.22305680          -2.36034400
    -1.88636800          -4.73308560          -1.58071520
    -1.50918960          -1.50394400          -1.64794960
    -1.04999520           1.08480480          -1.56784080
     0.01382800           2.36225120          -0.55980720
     1.13344160           2.47955360          -1.42335920
     2.24876400           2.10666640          -1.46484400
     3.71742240           1.18446320          -1.19781520
     5.81646000          -0.65755840          -2.44283680
     7.45964080          -2.02941920          -2.82001520
     8.13484160          -3.01265680          -3.43227360
     9.48190720          -3.81183600          -4.05359280
    10.28490080          -3.61347200          -4.12750240
    10.58149360          -3.71265440          -4.68444800
    11.71493520          -4.77838480          -5.08737600
    12.02106480          -5.33390080          -5.85889840
    12.10641840          -5.25140800          -5.99288960
    12.80784640          -5.28860080          -5.83314880
    13.06962960          -5.37252400          -6.77490240
    13.46063600          -5.37967680          -7.31468240
    13.49830640          -4.83083760          -8.01801680
    13.16308960          -3.76272240          -9.32979600
    13.36765280          -2.69174560          -9.28020480
    13.14020160          -1.55210480          -9.70888160
