SERVICIO GEOLOGICO COLOMBIANO- RED NACIONAL DE ACELEROGRAFOS DE COLOMBIA
SISMO DE CORDOBA (QUINDIO) 1999/01/25 18:19:17 ML=6.3
LATITUD DEL EVENTO(GRADOS): 4.439
LONGITUD DEL EVENTO(GRADOS): -75.698
PROFUNDIDAD DEL EVENTO (Km): 0
CODIGO DE LA ESTACION: CFLAN
Estacion:FILANDIA, QUINDIO Geol:SUELO Topo:PLANA
LATITUD DE LA ESTACION (GRADOS): 4.686
LONGITUD DE LA ESTACION (GRADOS): -75.617
DISTANCIA EPICENTRAL: 28.854 km
DISTANCIA HIPOCENTRAL: 28.854 km
INTERVALO DE MUESTREO (SEGUNDOS): 0.005
NUMERO DE DATOS: 23808
DURACION (SEGUNDOS): 119.04
UNIDADES: cm/s^2
TIPO DE EQUIPO: SSA
ESCALA MAXIMA (G): 2
CORRECCION DE LINEA BASE: LINEA BASE NO REMOVIDA
TIPO DE DATOS: NO CORREGIDO
         EW                  VER                  NS
[...]
   161.13281280        -114.25781280         -51.75781280
   184.57031280         -89.84375040         -84.96093760
   197.26562480         -75.19531280        -120.11718720
   204.10156240         -74.21875040        -156.25000000
   202.14843760         -81.05468720        -185.54687520
   194.33593760         -85.93750000        -215.82031280
   175.78124960         -99.60937520        -237.30468720
   156.25000000        -113.28124960        -247.07031280
   131.83593760        -114.25781280        -258.78906240
   101.56250000        -115.23437520        -260.74218720
    75.19531280        -111.32812480        -249.02343760
    47.85156240        -100.58593760        -236.32812480
    15.62500000         -89.84375040        -212.89062480
   -20.50781280         -66.40624960        -188.47656240
   -41.99218720         -40.03906240        -159.17968720
   -45.89843760         -31.25000000        -106.44531280
   -53.71093760         -15.62500000         -51.75781280
   -68.35937520          14.64843760         -12.69531280
   -78.12500000          42.96875040          33.20312480
   -86.91406240          61.52343760          79.10156240
   -86.91406240          76.17187520         124.02343760
   -80.07812480          90.82031280         174.80468720
   -73.24218720         110.35156240         219.72656240
   -75.19531280         126.95312480         262.69531280
   -77.14843760         125.97656240         301.75781280
   -75.19531280         113.28124960         331.05468720
   -64.45312480         102.53906240         353.51562480
   -23.43750000         101.56250000         371.09375040
    39.06250000          97.65624960         385.74218720
    82.03124960          85.93750000         398.43750000
    99.60937520          67.38281280         401.36718720
   111.32812480          49.80468720         391.60156240
   122.07031280          38.08593760         377.92968720
   126.95312480          26.36718720         368.16406240
   123.04687520          11.71875040         364.25781280
   122.07031280          11.71875040         353.51562480
   126.95312480          25.39062480         333.00781280
   119.14062480          34.17968720         314.45312480
   105.46875040          37.10937520         291.99218720
    99.60937520          40.03906240         268.55468720
    86.91406240          41.99218720         247.07031280
    65.42968720          47.85156240         217.77343760
    41.99218720          52.73437520         190.42968720
    25.39062480          56.64062480         166.01562480
     5.85937520          57.61718720         144.53124960
   -15.62500000          57.61718720         129.88281280
   -33.20312480          58.59375040         123.04687520
   -54.68750000          65.42968720         118.16406240
   -77.14843760          74.21875040         120.11718720
   -95.70312480          83.00781280         129.88281280
  -107.42187520          96.67968720         141.60156240
  -119.14062480         105.46875040         156.25000000
  -125.00000000         112.30468720         176.75781280
  -123.04687520         119.14062480         196.28906240
  -114.25781280         125.00000000         216.79687520
  -102.53906240         125.00000000         244.14062480
   -88.86718720         125.00000000         269.53124960
   -69.33593760         128.90624960         282.22656240
   -51.75781280         127.92968720         282.22656240
   -32.22656240         125.00000000         262.69531280
   -14.64843760         113.28124960         230.46875040
    -6.83593760          89.84375040         196.28906240
   -11.71875040          60.54687520         150.39062480
   -17.57812480          29.29687520          96.67968720
    -6.83593760          -3.90624960          43.94531280
     8.78906240         -32.22656240          -5.85937520
    21.48437520         -65.42968720         -52.73437520
    22.46093760        -101.56250000        -110.35156240
     2.92968720        -118.16406240        -195.31250000
   -33.20312480        -123.04687520        -288.08593760
   -66.40624960        -136.71875040        -364.25781280
   -90.82031280        -139.64843760        -427.73437520
  -125.97656240        -124.02343760        -469.72656240
  -169.92187520        -104.49218720        -480.46875040
  -201.17187520         -83.98437520        -465.82031280
  -209.96093760         -63.47656240        -416.01562480
  -184.57031280         -56.64062480        -331.05468720
  -129.88281280         -48.82812480        -243.16406240
   -78.12500000         -30.27343760        -166.01562480
   -39.06250000         -18.55468720         -96.67968720
   -14.64843760         -10.74218720         -49.80468720
     9.76562480          15.62500000         -41.99218720
    35.15624960          44.92187520         -51.75781280
    62.50000000          40.03906240         -65.42968720
    93.75000000           9.76562480         -84.96093760
   120.11718720         -26.36718720        -119.14062480
   126.95312480         -65.42968720        -149.41406240
   113.28124960         -93.75000000        -145.50781280
    88.86718720        -107.42187520        -124.02343760
    73.24218720        -148.43750000        -140.62500000
   108.39843760        -197.26562480        -155.27343760
   192.38281280        -181.64062480        -133.78906240
   281.25000000        -123.04687520        -124.02343760
   345.70312480         -74.21875040        -142.57812480
   362.30468720         -51.75781280        -157.22656240
   354.49218720         -50.78124960        -164.06250000
   364.25781280         -46.87500000        -170.89843760
   370.11718720         -27.34375040        -172.85156240
   375.00000000          -4.88281280        -165.03906240
   384.76562480           8.78906240        -153.32031280
   382.81250000          17.57812480        -140.62500000
   369.14062480          19.53124960        -126.95312480
   345.70312480          21.48437520        -111.32812480
   323.24218720          31.25000000         -95.70312480
   312.50000000          23.43750000         -75.19531280
   296.87500000          -4.88281280         -41.99218720
   290.03906240          -6.83593760         -41.01562480
   267.57812480           2.92968720         -32.22656240
   242.18750000         -15.62500000           3.90624960
   232.42187520         -14.64843760          23.43750000
   213.86718720           5.85937520          26.36718720
   175.78124960          20.50781280          21.48437520
   121.09375040          21.48437520          -6.83593760
    58.59375040          19.53124960         -44.92187520
    17.57812480          -1.95312480         -69.33593760
     0.97656240         -18.55468720         -95.70312480
     0.00000000         -29.29687520        -112.30468720
    -3.90624960         -47.85156240        -121.09375040
   -25.39062480         -55.66406240        -147.46093760
   -66.40624960         -55.66406240        -171.87500000
  -106.44531280         -51.75781280        -181.64062480
  -132.81250000         -31.25000000        -192.38281280
  -152.34375040         -12.69531280        -185.54687520
  -167.96875040          -7.81250000        -165.03906240
  -177.73437520           5.85937520        -156.25000000
  -177.73437520          33.20312480        -149.41406240
  -173.82812480          46.87500000        -124.02343760
  -161.13281280          43.94531280         -85.93750000
  -146.48437520          45.89843760         -51.75781280
  -144.53124960          54.68750000         -24.41406240
  -147.46093760          54.68750000          -5.85937520
  -150.39062480          48.82812480           5.85937520
  -140.62500000          34.17968720          16.60156240
  -113.28124960           2.92968720          37.10937520
   -84.96093760         -33.20312480          61.52343760
   -52.73437520         -60.54687520          76.17187520
   -21.48437520         -80.07812480          83.98437520
     5.85937520         -92.77343760          85.93750000
    43.94531280        -100.58593760          74.21875040
    82.03124960        -110.35156240          42.96875040
   105.46875040        -117.18750000          -3.90624960
   125.97656240        -114.25781280         -45.89843760
   166.99218720         -91.79687520         -72.26562480
   221.67968720         -63.47656240         -88.86718720
   265.62500000         -40.03906240         -98.63281280
   277.34375040         -35.15624960        -102.53906240
   270.50781280         -34.17968720        -107.42187520
   274.41406240         -19.53124960        -133.78906240
   284.17968720           9.76562480        -161.13281280
   281.25000000          16.60156240        -142.57812480
   283.20312480          21.48437520        -126.95312480
   269.53124960          53.71093760        -130.85937520
   245.11718720          79.10156240        -118.16406240
   215.82031280          87.89062480         -87.89062480
   183.59375040          89.84375040         -57.61718720
   155.27343760          75.19531280         -12.69531280
   115.23437520          45.89843760          32.22656240
    70.31250000          21.48437520          61.52343760
    15.62500000         -13.67187520         114.25781280
   -27.34375040         -59.57031280         175.78124960
   -92.77343760         -91.79687520         231.44531280
  -152.34375040        -104.49218720         282.22656240
  -187.50000000        -117.18750000         323.24218720
  -186.52343760        -124.02343760         343.75000000
  -171.87500000         -98.63281280         334.96093760
  -186.52343760         -56.64062480         328.12500000
  -221.67968720         -20.50781280         342.77343760
  -247.07031280          -0.97656240         366.21093760
  -261.71875040          21.48437520         380.85937520
  -281.25000000          52.73437520         378.90624960
  -299.80468720          83.00781280         364.25781280
  -311.52343760         106.44531280         340.82031280
  -306.64062480         124.02343760         304.68750000
  -288.08593760         133.78906240         270.50781280
  -270.50781280         136.71875040         243.16406240
  -250.00000000         135.74218720         205.07812480
  -234.37500000         133.78906240         166.01562480
  -236.32812480         123.04687520         143.55468720
  -243.16406240         105.46875040         124.02343760
  -251.95312480          90.82031280         113.28124960
  -264.64843760          79.10156240         123.04687520
  -276.36718720          76.17187520         132.81250000
  -286.13281280          75.19531280         139.64843760
  -303.71093760          68.35937520         155.27343760
  -312.50000000          68.35937520         164.06250000
  -322.26562480          72.26562480         177.73437520
  -326.17187520          69.33593760         207.03124960
  -318.35937520          74.21875040         227.53906240
  -312.50000000          83.98437520         248.04687520
  -307.61718720          93.75000000         274.41406240
  -302.73437520         103.51562480         290.03906240
  -303.71093760         108.39843760         304.68750000
  -307.61718720         109.37500000         324.21875040
  -312.50000000         116.21093760         332.03124960
  -320.31250000         125.97656240         336.91406240
  -322.26562480         132.81250000         339.84375040
  -317.38281280         140.62500000         314.45312480
  -301.75781280         144.53124960         252.92968720
  -279.29687520         147.46093760         172.85156240
  -256.83593760         156.25000000          83.00781280
  -237.30468720         161.13281280           0.97656240
  -215.82031280         148.43750000         -49.80468720
  -193.35937520         122.07031280         -75.19531280
  -181.64062480          99.60937520         -93.75000000
  -185.54687520          88.86718720        -125.97656240
  -195.31250000          76.17187520        -177.73437520
  -197.26562480          39.06250000        -222.65624960
  -183.59375040           2.92968720        -257.81250000
  -160.15624960           8.78906240        -306.64062480
  -134.76562480          30.27343760        -343.75000000
  -100.58593760          21.48437520        -342.77343760
   -59.57031280           3.90624960        -333.00781280
   -23.43750000           0.97656240        -326.17187520
    -3.90624960           0.97656240        -318.35937520
    21.48437520         -28.32031280        -286.13281280
    54.68750000         -41.01562480        -272.46093760
    69.33593760         -14.64843760        -287.10937520
    81.05468720         -11.71875040        -272.46093760
    88.86718720         -25.39062480        -253.90624960
    97.65624960         -24.41406240        -267.57812480
   112.30468720         -24.41406240        -266.60156240
   134.76562480         -40.03906240        -261.71875040
   162.10937520         -58.59375040        -259.76562480
   199.21875040         -77.14843760        -230.46875040
   238.28124960         -90.82031280        -194.33593760
   287.10937520        -104.49218720        -165.03906240
   343.75000000        -113.28124960        -135.74218720
   386.71875040        -124.02343760        -112.30468720
   426.75781280        -142.57812480         -95.70312480
   475.58593760        -164.06250000         -80.07812480
   526.36718720        -169.92187520         -79.10156240
   560.54687520        -168.94531280         -78.12500000
   569.33593760        -169.92187520         -69.33593760
   558.59375040        -166.99218720         -65.42968720
   516.60156240        -176.75781280         -34.17968720
   463.86718720        -192.38281280           6.83593760
   396.48437520        -173.82812480           4.88281280
   344.72656240        -139.64843760           3.90624960
   313.47656240        -120.11718720          18.55468720
   277.34375040        -102.53906240          17.57812480
   244.14062480         -94.72656240          28.32031280
   209.96093760        -102.53906240          45.89843760
   168.94531280        -111.32812480          44.92187520
   114.25781280        -121.09375040          52.73437520
    46.87500000        -133.78906240          69.33593760
   -21.48437520        -144.53124960          79.10156240
   -59.57031280        -154.29687520         100.58593760
   -47.85156240        -145.50781280         126.95312480
   -20.50781280        -119.14062480         126.95312480
     8.78906240         -88.86718720          94.72656240
    28.32031280         -48.82812480          72.26562480
     0.97656240          -5.85937520          69.33593760
   -47.85156240          27.34375040          36.13281280
   -68.35937520          41.01562480          -4.88281280
   -53.71093760          42.96875040         -27.34375040
    -7.81250000          50.78124960         -69.33593760
    38.08593760          56.64062480        -116.21093760
    61.52343760          47.85156240        -150.39062480
    75.19531280          33.20312480        -208.00781280
    87.89062480          14.64843760        -278.32031280
   114.25781280          -6.83593760        -319.33593760
   167.96875040          -8.78906240        -352.53906240
   221.67968720          13.67187520        -384.76562480
   250.97656240          34.17968720        -397.46093760
   266.60156240          50.78124960        -412.10937520
   285.15624960          68.35937520        -430.66406240
   303.71093760          73.24218720        -428.71093760
   321.28906240          80.07812480        -425.78124960
   337.89062480          89.84375040        -422.85156240
   354.49218720          84.96093760        -399.41406240
   360.35156240          79.10156240        -375.97656240
   349.60937520          78.12500000        -355.46875040
   331.05468720          63.47656240        -312.50000000
   310.54687520          41.99218720        -260.74218720
   299.80468720          31.25000000        -214.84375040
   311.52343760          20.50781280        -177.73437520
   317.38281280           0.97656240        -129.88281280
   308.59375040         -19.53124960         -77.14843760
   285.15624960         -16.60156240         -42.96875040
   243.16406240         -13.67187520         -16.60156240
   201.17187520         -30.27343760          17.57812480
   164.06250000         -45.89843760          41.01562480
   124.02343760         -40.03906240          53.71093760
    83.00781280         -27.34375040          69.33593760
    44.92187520         -19.53124960          89.84375040
     5.85937520         -20.50781280         123.04687520
   -32.22656240         -23.43750000         156.25000000
   -73.24218720         -15.62500000         174.80468720
  -117.18750000          -3.90624960         189.45312480
  -153.32031280           4.88281280         203.12500000
  -191.40624960           4.88281280         213.86718720
  -240.23437520           3.90624960         221.67968720
  -295.89843760           3.90624960         215.82031280
  -359.37500000           8.78906240         201.17187520
  -410.15624960           5.85937520         193.35937520
  -427.73437520          -1.95312480         186.52343760
  -418.94531280           0.97656240         183.59375040
  -404.29687520          14.64843760         190.42968720
  -394.53124960          20.50781280         197.26562480
  -386.71875040          10.74218720         194.33593760
  -374.02343760          -0.97656240         192.38281280
  -341.79687520          -3.90624960         202.14843760
  -301.75781280          -1.95312480         211.91406240
  -247.07031280          -5.85937520         211.91406240
  -201.17187520         -15.62500000         224.60937520
  -176.75781280         -20.50781280         241.21093760
  -157.22656240          -5.85937520         245.11718720
  -139.64843760          -4.88281280         269.53124960
  -122.07031280           7.81250000         290.03906240
  -105.46875040          47.85156240         280.27343760
   -96.67968720          76.17187520         291.99218720
   -83.98437520          82.03124960         320.31250000
   -82.03124960          93.75000000         313.47656240
  -102.53906240         101.56250000         299.80468720
  -117.18750000          85.93750000         314.45312480
  -111.32812480          81.05468720         335.93750000
   -95.70312480         107.42187520         347.65624960
   -88.86718720         140.62500000         358.39843760
   -99.60937520         155.27343760         370.11718720
  -116.21093760         148.43750000         372.07031280
  -136.71875040         136.71875040         366.21093760
  -162.10937520         124.02343760         354.49218720
  -176.75781280         110.35156240         338.86718720
  -188.47656240         104.49218720         316.40624960
  -184.57031280          94.72656240         305.66406240
  -173.82812480          84.96093760         297.85156240
  -173.82812480          86.91406240         269.53124960
  -166.99218720          92.77343760         239.25781280
  -153.32031280          92.77343760         220.70312480
  -137.69531280          95.70312480         185.54687520
  -127.92968720          97.65624960         150.39062480
  -127.92968720          79.10156240         138.67187520
