SERVICIO GEOLOGICO COLOMBIANO- RED NACIONAL DE ACELEROGRAFOS DE COLOMBIA
SISMO DE CORDOBA (QUINDIO) 1999/01/25 18:19:17 ML=6.3
LATITUD DEL EVENTO(GRADOS): 4.439
LONGITUD DEL EVENTO(GRADOS): -75.698
PROFUNDIDAD DEL EVENTO (Km): 0
CODIGO DE LA ESTACION: CPRAD
Estacion:EMBALSE  DE  PRADO Geol:ROCA Topo:ESCARPADA
LATITUD DE LA ESTACION (GRADOS): 3.755
LONGITUD DE LA ESTACION (GRADOS): -74.891
DISTANCIA EPICENTRAL: 117.424 km
DISTANCIA HIPOCENTRAL: 117.424 km
INTERVALO DE MUESTREO (SEGUNDOS): 0.005
NUMERO DE DATOS: 7400
DURACION (SEGUNDOS): 37
UNIDADES: cm/s^2
TIPO DE EQUIPO: ETNA
ESCALA MAXIMA (G): 2
CORRECCION DE LINEA BASE: LINEA BASE NO REMOVIDA
TIPO DE DATOS: NO CORREGIDO
         EW                  VER                  NS
[...]
     0.79631840          -0.58841680          -0.56695920
     0.79107280          -0.45156480          -0.47874480
     0.80537760          -0.39243680          -0.69522880
     0.81062320          -0.21696080          -0.59270880
     0.77867520          -0.28419520          -0.45776400
     0.87928800          -0.51927600          -0.56791280
     0.76770800          -0.44250480          -0.50497040
     0.57506560          -0.31423600          -0.55694560
     0.80013280          -0.06914160          -0.72765360
     0.73003760           0.39052960          -0.58889360
     0.55027040           0.58460240          -0.33664720
     0.67996960           0.47588320          -0.34904480
     0.75006480           0.50210960           0.10585760
     0.80680880           0.52309040           0.03719360
     0.92172640           0.46634640          -0.47492960
     0.82683600           0.55932960           0.05865120
     0.60510640           0.56505200           0.10633440
     0.87070480           0.53882560          -0.05006800
     0.90980560           0.52261360           0.21696080
     0.63324000           0.35905840          -0.03194800
     0.72956080           0.38385360          -0.05626640
     0.62847120           0.50258640           0.03528560
     0.51832160           0.29134720          -0.15020400
     0.29659280           0.10728800          -0.01335120
     0.25796880           0.13351440           0.16689280
     0.67377120           0.10156640           0.08678400
     0.51879920           0.02145760           0.15306480
     0.24128000           0.11205680           0.32329520
     0.25129280           0.34236880           0.35333600
     0.39672880           0.28324160           0.30660640
     0.28038000           0.31280480           0.34332240
    -0.09965920           0.47254560           0.40388080
    -0.07915520           0.47445280           0.38337680
    -0.06198880           0.70476560           0.38051600
    -0.01573600           0.68378480           0.28228720
    -0.11062640           0.53882560           0.48828160
    -0.38146960           0.64706800           0.51307680
    -0.21123920           0.72526960           0.10967280
    -0.19168880           0.82635840           0.19264240
    -0.48255920           0.78678160           0.09059920
    -0.44298160           0.92363360           0.29325520
    -0.41389440           1.05524080           0.63180960
    -0.78868880           0.94890560           0.40197360
    -1.06477760           0.94318400           0.64754480
    -0.99325200           0.69808960           0.64420720
    -0.91743440           0.58794000           0.74720400
    -1.12962720           0.58746320           0.83684960
    -1.11532240           0.50783120           0.79059600
    -1.14250160           0.57363520           1.23357760
    -1.40142480           0.48303600           1.12056720
    -1.23453120           0.38528480           1.25551200
    -1.27935440           0.05245200           1.51395760
    -1.42240560          -0.22745120           1.58643760
    -1.47438080          -0.20217920           1.72662720
    -1.48344000          -0.30565280           1.59931200
    -1.42955760          -0.29993040           1.58262240
    -1.48057920          -0.35667440           1.45149200
    -1.28936800          -0.52690480           1.48439440
    -1.40380880          -0.58364880           1.71756720
    -1.48868560          -0.64277680           1.75619120
    -1.38998000          -0.66232720           1.72138240
    -1.56402560          -0.64897520           1.78146400
    -1.62982960          -0.65755840           1.71089200
    -1.59645120          -0.60987440           1.62506080
    -1.45483040          -0.55932960           1.82104080
    -1.38139760          -0.56219120           1.86824800
    -1.49631520          -0.62990160           1.82724000
    -1.61075600          -0.69046000           1.89542800
    -1.38330480          -0.63037840           2.02512720
    -1.15251520          -0.77056880           1.82104080
    -1.36566160          -0.92554080           1.51395760
    -1.37138400          -0.76055520           1.52349440
    -1.15013120          -0.75292560           1.40428560
    -1.07479120          -1.00564960           1.08146640
    -1.05142560          -1.03044480           0.77295280
    -0.80633200          -0.85735360           0.60319920
    -0.50926240          -0.81872960           0.27894960
    -0.42057040          -0.74195840          -0.01955040
    -0.26082960          -0.71811680          -0.04816080
    -0.20885440          -0.87261200          -0.15974080
    -0.20647040          -0.84304800          -0.29563920
     0.02145760          -0.74863440          -0.22935840
     0.07104880          -0.63991520          -0.14781920
    -0.14925040          -0.16117120          -0.13828240
    -0.00333760           0.11014960          -0.10108960
     0.12970000          -0.07867840          -0.22697440
    -0.27465840          -0.18405920          -0.38051600
    -0.16975440          -0.17452240          -0.51975280
     0.13876000          -0.00286080          -0.56028400
    -0.25320080           0.13160720          -0.39243680
    -0.54264080           0.26130640          -0.36573440
    -0.42152400           0.43916720          -0.23841840
    -0.47588320           0.28991680          -0.46920800
    -0.47826800           0.07772480          -0.92220320
    -0.25796880           0.09918240          -0.60510640
    -0.32901760           0.27847280          -0.71525600
    -0.25081600           0.24986240          -1.13725680
    -0.04291520           0.27513520          -0.84066400
    -0.17499920           0.41198720          -0.88787040
    -0.21028480           0.03957760          -1.28889120
    -0.08630720          -0.17690640          -1.04475040
    -0.12683840          -0.11301040          -0.97608560
    -0.08010880          -0.04100800          -1.25074400
     0.16927680           0.15640240          -0.90169920
     0.02002720           0.07390960          -0.83351120
     0.13685200           0.03385520          -0.89883840
     0.64420720          -0.05769760          -0.65183600
     0.67996960          -0.30040720          -0.44250480
     0.59270880          -0.25892240          -0.32663360
     0.54645520          -0.03337840          -0.44107440
     0.55694560           0.40578880          -0.09155280
     0.51212320           0.55122400          -0.19931760
     0.36668800           0.34666080          -0.29563920
     0.10108960           0.27942640           0.11158000
     0.28228720           0.35285920          -0.33140160
     0.86498240           0.62370320          -0.55885280
     0.63371680           0.94223040          -0.38671520
     0.30183760           1.24216080          -0.31948080
     0.42057040           1.28841440          -0.11777840
     0.69093680           1.00374240           0.04100800
     0.76103200           0.58937040          -0.12970000
     0.66423440           0.30803680          -0.24652480
     0.66137280           0.41341760          -0.23174320
     0.32520320           0.64039200          -0.34809120
     0.19979440           0.72383920          -0.23365040
     0.27990320           0.65040560          -0.07152560
     0.27036640           0.57077440           0.15926400
     0.38194640           0.41055680           0.15974080
     0.42486160           0.31280480           0.29325520
     0.19645680           0.30851360           0.56886640
     0.06389600           0.19645680           0.53310400
     0.24795520           0.30565280           0.83780320
     0.13732880           0.28991680           0.74291200
     0.10299680           0.20360960           0.65708160
    -0.01716640           0.41055680           0.93412400
    -0.35524400           0.49972560           0.84829360
    -0.27179680           0.58650960           1.04904160
    -0.30803680           0.59413920           1.13916400
    -0.48303600           0.59032480           1.08385120
    -0.54359440           0.67663200           1.26361840
    -0.63610080           0.61321280           1.11961360
    -0.86450560           0.71382560           1.15346880
    -1.11389200           0.65374400           1.35755520
    -1.05094880           0.42390800           1.17301920
    -0.93364720           0.62465680           1.18732480
    -0.81682240           0.76007840           1.10912320
    -0.64849840           0.59604640           0.91123600
    -0.80537760           0.51832160           1.22928640
    -0.79679520           0.44107440           1.39808640
    -0.43582880           0.23698800           1.24502160
    -0.58460240           0.05006800           1.23691520
    -0.74529680          -0.23317360           1.06668480
    -0.54264080          -0.46968480           0.99134480
    -0.63896160          -0.47636000           1.08814240
    -0.61893440          -0.70381200           0.90551360
    -0.43821360          -0.92172640           1.15823760
    -0.51784480          -0.80537760           1.27553920
    -0.46873120          -0.70047360           0.84114080
    -0.49638720          -0.79965600           0.86593600
    -0.76627760          -0.80156320           0.80680880
    -0.70810320          -0.68187680           0.64039200
    -0.58364880          -0.86164480           0.69141360
    -0.70333520          -0.85353840           0.41580240
    -0.91886560          -0.53548800           0.33521680
    -1.18303280          -0.60415280           0.32186480
    -1.25455840          -0.67710880           0.23889520
    -1.16777440          -0.50115600           0.37050240
    -1.04761120          -0.58984720           0.05865120
    -1.09291040          -0.43821360           0.03957760
    -1.26934080          -0.14448160           0.24652480
    -1.17158880          -0.33187840           0.26178320
    -1.24454480          -0.47826800           0.54836240
    -1.54829040          -0.64945200           0.51021600
    -1.33800480          -0.77486000           0.57363520
    -1.06334720          -0.70619600           0.53644160
    -1.23691520          -0.72956080           0.26321440
    -1.15728400          -0.72383920           0.48017520
    -0.93221680          -0.78964240           0.74148160
    -1.15823760          -1.09338800           0.60749040
    -0.93793840          -1.35660160           0.50210960
    -0.55980720          -1.20925920           0.73051440
    -0.73909760          -0.95462800           0.43106080
    -0.65183600          -0.76436960           0.29754640
    -0.49591040          -0.71811680           0.71907040
    -0.37908560          -0.66947920           0.53834880
    -0.26893600          -0.49066560           0.05006800
    -0.08726080          -0.55599200           0.20694720
    -0.05197520          -0.47063840           0.29230080
    -0.36239600          -0.15449520          -0.04005440
    -0.14972720           0.02241120           0.16164800
     0.00333760           0.27847280           0.08344640
    -0.17547600           0.47826800          -0.23603440
    -0.29230080           0.26321440          -0.20980800
    -0.28610240           0.14114400          -0.13017680
    -0.28991680           0.20217920          -0.40817280
    -0.39196000           0.23078880          -0.64706800
    -0.42343120           0.34952160          -0.35667440
    -0.73242160           0.28467200          -0.39577520
    -0.78868880           0.18882720          -0.42343120
    -0.66995600           0.14972720          -0.40960320
    -0.74386560          -0.06484960          -0.54836240
    -0.72145440          -0.35762800          -0.46157840
    -0.66423440          -0.44488880          -0.29516240
    -0.45204160          -0.40149680          -0.21410000
    -0.39577520          -0.58031120          -0.28657920
    -0.57792640          -0.79250320          -0.24604800
    -0.53596480          -0.75006480           0.15306480
    -0.28753280          -0.76103200           0.36478080
    -0.32520320          -1.00088080           0.19836400
    -0.34761440          -1.07622160           0.59270880
     0.08583040          -1.21927280           0.80537760
     0.36859520          -1.39999360           0.90980560
     0.27275120          -1.38664240           1.15823760
     0.48780480          -1.45196880           1.07622160
     0.75006480          -1.29556640           1.38521200
     0.42820000          -1.16443600           1.07908240
     0.54359440          -1.32131600           0.71382560
     0.75387920          -1.27506240           0.94080000
     0.49352640          -1.08766560           0.61750400
     0.94986000          -1.12342800           0.26273760
     1.39522560          -1.05381040           0.71716320
     1.01375600          -0.93460080           0.57220480
     1.02615360          -0.95129040          -0.06723440
     1.38759600          -0.79774880           0.69475200
     1.14584000          -0.85735360           0.51116960
     1.22928640          -0.87738000          -0.12397760
     1.67083760          -0.61130560           0.42009360
     1.64556480          -0.40626560           0.21123920
     1.70326240          -0.47445280          -0.16975440
     2.06661200          -0.60987440           0.04863760
     2.42853200          -0.30994400           0.17166160
     2.50053440          -0.23841840          -0.43630560
     2.50339520          -0.18978080          -0.37574800
     2.37464880           0.14925040           0.13732880
     2.26259200           0.15783280          -0.49972560
     2.22444560           0.17976800          -0.56552880
     1.83200800           0.17690640          -0.23031200
     1.77192720           0.11825600          -0.61702720
     1.94311120           0.40054320          -0.68616880
     1.84154480           0.59127840          -0.70571920
     1.60741840           0.48398960          -1.03378320
     1.32417680           0.50544720          -0.80204000
     1.09958640           0.62704080          -0.71764000
     1.14822400           0.59509280          -1.07240640
     1.19447680           0.42200080          -0.87785760
     0.61416640           0.40388080          -0.77867520
     0.44775040           0.44536560          -1.09100320
     0.73480640           0.29325520          -1.18398640
     0.47302240           0.25701520          -1.40810000
     0.45347200           0.42247760          -1.60646400
     0.55599200           0.67996960          -1.50823600
     0.24604800           0.82254400          -1.68275840
     0.01859680           0.95462800          -1.59072880
    -0.10967280           1.09100320          -1.39808640
    -0.25796880           0.92887840          -1.73711760
    -0.37479440           1.01089440          -1.70850720
    -0.30469920           1.28650640          -1.55925760
    -0.26941280           1.30319600          -1.69944800
    -0.51546080           1.33037600          -1.57499280
    -0.43296800           1.30748720          -1.48868560
    -0.13303760           1.26647920          -1.53684640
    -0.07057200           1.27696960          -1.07145280
    -0.12540800           0.97370160          -0.76150880
    -0.20742400           0.80680880          -0.74529680
    -0.33950800           0.95891920          -0.27704240
    -0.41723280           0.63800800          -0.23555760
    -0.19407280           0.20122560          -0.27179680
    -0.04529920           0.34856800           0.19598000
     0.15115760           0.54359440           0.31662000
     0.40721920           0.23317360           0.13065360
     0.15592560           0.22077600           0.44298160
    -0.12970000           0.32520320           0.48780480
    -0.03051760           0.02718000           0.26416800
    -0.04291520           0.01573600           0.72145440
    -0.42152400          -0.18072160           0.56934320
    -0.41914000          -0.33855440           0.47826800
    -0.26941280          -0.19931760           0.79965600
    -0.37956240          -0.33664720           0.71239440
    -0.23031200          -0.42295440           0.71573280
    -0.16212480          -0.31852720           0.79870240
    -0.03051760          -0.28181040           0.87547280
     0.26559840          -0.51784480           0.79584160
     0.18930400          -0.52499760           1.13058080
     0.19550320          -0.46873120           1.13105760
     0.58746320          -0.63896160           0.82492800
     0.68712240          -0.64563760           1.03616720
     0.66995600          -0.68712240           0.92697120
     0.89836160          -0.66328080           0.90169920
     0.83398800          -0.51689120           0.74386560
     0.84495520          -0.31042080           0.55265440
     0.94556800          -0.29134720           0.68044640
     0.77724480          -0.27799600           0.63610080
     0.81253040          -0.20933120           0.49972560
     0.96464160          -0.54025680           0.17023120
     0.93364720          -0.58746320           0.01049040
     0.85592240          -0.34427680          -0.13256080
     0.94795200          -0.19550320          -0.41008000
     0.93746160           0.11158000          -0.43869040
     0.68378480           0.26226080          -0.46110160
     0.54645520           0.18119840          -0.49543360
     0.35858160           0.16832320          -0.58317200
     0.25033920           0.16975440          -0.79631840
     0.49734080           0.32568000          -0.71859360
     0.38480720           0.41914000          -0.91838800
     0.14257440           0.44775040          -1.24025360
     0.25701520           0.61035120          -0.98419200
     0.17690640           0.48160560          -1.08432800
     0.15306480           0.42820000          -1.35946240
     0.26512160           0.44393520          -1.15871440
     0.08869200           0.37431680          -1.16062160
    -0.05149840           0.50830880          -1.58357600
     0.18119840           0.61321280          -1.55067440
     0.35381280           0.56076080          -1.56211840
     0.16021760           0.49829520          -1.92022320
     0.22220640           0.54073360          -1.57213200
     0.67806240           0.49829520          -1.10816960
     0.68187680           0.40817280          -1.25074400
     0.42247760           0.37336320          -0.94890560
     0.42867680           0.23555760          -0.07390960
     0.50497040          -0.10728800          -0.31280480
     0.56791280          -0.41484800          -0.35810480
     0.32997120          -0.52404400           0.47206880
     0.35095200          -0.52690480           0.43249120
     0.50115600          -0.49686400           0.30136080
     0.27036640          -0.64516080           0.64563760
     0.21648400          -0.89168560           0.77819840
     0.19931760          -1.04904160           0.65279040
     0.10299680          -1.23786960           0.56028400
    -0.21076240          -1.36232400           0.46539280
    -0.45061120          -1.20449040           0.51212320
    -0.49209600          -1.20162960           0.50926240
    -0.56457520          -1.31225600           0.41198720
