SERVICIO GEOLOGICO COLOMBIANO- RED NACIONAL DE ACELEROGRAFOS DE COLOMBIA
SISMO DE CORDOBA (QUINDIO) 1999/01/25 18:19:17 ML=6.3
LATITUD DEL EVENTO(GRADOS): 4.439
LONGITUD DEL EVENTO(GRADOS): -75.698
PROFUNDIDAD DEL EVENTO (Km): 0
CODIGO DE LA ESTACION: CSONS
Estacion:SONSON Geol:ROCA Topo:ONDULADA
LATITUD DE LA ESTACION (GRADOS): 5.687
LONGITUD DE LA ESTACION (GRADOS): -75.329
DISTANCIA EPICENTRAL: 144.456 km
DISTANCIA HIPOCENTRAL: 144.456 km
INTERVALO DE MUESTREO (SEGUNDOS): 0.005
NUMERO DE DATOS: 6000
DURACION (SEGUNDOS): 30
UNIDADES: cm/s^2
TIPO DE EQUIPO: ETNA
ESCALA MAXIMA (G): 2
CORRECCION DE LINEA BASE: LINEA BASE NO REMOVIDA
TIPO DE DATOS: NO CORREGIDO
         EW                  VER                  NS
[...]
     2.99263040          -0.57268160          -1.52826320
     3.01551840          -0.52690480          -1.55544320
     2.98452400          -0.56982080          -1.53160080
     2.97546400          -0.67996960          -1.53303120
     2.98166240          -0.80871600          -1.58834480
     3.03459200          -0.89740720          -1.72567360
     3.16476800          -0.87404240          -1.97982800
     3.29780560          -0.73099120          -2.35080720
     3.45230080          -0.50163280          -2.79378880
     3.58533840          -0.26655200          -3.26108960
     3.69167360          -0.08201600          -3.70693200
     3.74937040           0.01525840          -4.05693040
     3.73935680           0.01955040          -4.28295120
     3.70073280          -0.02145760          -4.34827840
     3.59630560          -0.11825600          -4.27675280
     3.46946720          -0.24652480          -4.10509120
     3.33452240          -0.39958960          -3.86714960
     3.21531280          -0.57220480          -3.63159200
     3.18384160          -0.74338880          -3.39126560
     3.22341920          -0.94556800          -3.19910080
     3.35788720          -1.16825120          -3.06320160
     3.58581520          -1.42526640          -2.94399280
     3.86047360          -1.70707680          -2.87628160
     4.18329200          -1.96647680          -2.78234480
     4.55188720          -2.17533120          -2.63547920
     4.90570080          -2.31027600          -2.42567040
     5.23471840          -2.40039840          -2.11429600
     5.53321840          -2.46954000          -1.76477440
     5.78641920          -2.51340880          -1.37186080
     6.04152640          -2.54440320          -1.00708000
     6.28614400          -2.53677360          -0.73003760
     6.50548960          -2.45237360          -0.51355360
     6.66666000          -2.31552160          -0.42152400
     6.77871680          -2.12478640          -0.42867680
     6.85262720          -1.94549600          -0.49829520
     6.87980640          -1.82104080          -0.62084160
     6.92272160          -1.69897040          -0.72765360
     6.94847120          -1.61838560          -0.81110000
     6.96611440          -1.59120560          -0.84638560
     6.98423360          -1.63269040          -0.78916560
     7.02238080          -1.76858880          -0.68187680
     7.09533680          -1.96456880          -0.53024320
     7.12728480          -2.15673440          -0.31995760
     7.13300720          -2.27880480          -0.09155280
     7.05671280          -2.29644800           0.13971360
     6.86311760          -2.17485440           0.36287280
     6.56890880          -1.96123120           0.55313120
     6.17980960          -1.68752640           0.71811680
     5.74159600          -1.36280080           0.85067760
     5.26809680          -1.04856480           0.94890560
     4.80556480          -0.78105920           1.01804720
     4.38833200          -0.55217760           1.06000880
     4.00257120          -0.31948080           1.10149360
     3.61537920          -0.09107600           1.08480480
     3.22294240           0.10442720           1.00088080
     2.80284880           0.25129280           0.88787040
     2.34508480           0.31948080           0.69236720
     1.91164000           0.30088400           0.42676960
     1.50203680           0.25987600           0.09822880
     1.13534960           0.24986240          -0.31423600
     0.85306160           0.27847280          -0.76913840
     0.64802160           0.34236880          -1.23786960
     0.53644160           0.42533840          -1.70993840
     0.50497040           0.51641440          -2.15101280
     0.52356720           0.56123760          -2.55680080
     0.58507920           0.55313120          -2.90918320
     0.68140000           0.48732720          -3.16953680
     0.82349760           0.33140160          -3.35884080
     1.01852400           0.13542160          -3.48997120
     1.24216080          -0.09155280          -3.55052960
     1.48296320          -0.34666080          -3.60822640
     1.73473360          -0.57363520          -3.67689120
     1.99747120          -0.79917920          -3.75700000
     2.29310960          -1.00994080          -3.88622320
     2.60400800          -1.15394560          -4.02116800
     2.92062720          -1.27649280          -4.17947760
     3.23581680          -1.34897200          -4.31442240
     3.48997120          -1.34706480          -4.38737840
     3.68642800          -1.29747360          -4.42314160
     3.85713600          -1.22118000          -4.37068960
     3.99255760          -1.14488640          -4.26006320
     4.07648080          -1.07860560          -4.10795200
     4.12607200          -1.04045840          -3.88813040
     4.16088080          -1.03807440          -3.62586960
     4.16660320          -1.07860560          -3.33547600
     4.15325200          -1.12819680          -3.00598160
     4.14705280          -1.18112560          -2.65026080
     4.14085360          -1.24073040          -2.28309600
     4.12321120          -1.28889120          -1.90353360
     4.10270720          -1.31273280          -1.50823600
     4.08363360          -1.28126160          -1.10054000
     4.08220320          -1.21021280          -0.69999680
     4.08315680          -1.11246080          -0.31089760
     4.06742080          -1.00851040           0.03719360
     4.06646720          -0.92172640           0.33903120
     4.06742080          -0.87785760           0.59175520
     4.04214880          -0.85830720           0.75340240
     4.01401520          -0.84781680           0.85830720
     3.95441040          -0.90122240           0.93126320
     3.87048720          -0.99658960           0.96940960
     3.78561040          -1.15966800           0.97560880
     3.67689120          -1.38616560           0.94556800
     3.61299520          -1.61838560           0.88453280
     3.57627840          -1.85251200           0.76150880
     3.56102000          -1.99747120           0.59223200
     3.59535200          -2.04181680           0.36907200
     3.62968480          -2.01988240           0.08058560
     3.66544720          -1.91831600          -0.24318720
     3.65448000          -1.78432480          -0.58698640
     3.60298160          -1.64270400          -0.91791120
     3.49712400          -1.49345360          -1.23691520
     3.33595280          -1.31559360          -1.51872640
     3.15666160          -1.09529520          -1.73854800
     2.93350240          -0.83971040          -1.92689920
     2.71606480          -0.55742240          -2.08139440
     2.52246880          -0.30612960          -2.21776960
     2.36749680          -0.14543520          -2.37941760
     2.27975840          -0.05531280          -2.55155600
     2.32315040          -0.00715280          -2.73418400
     2.47049360          -0.00381440          -2.95448320
     2.62069680          -0.01716640          -3.20959120
     2.81381600          -0.01478160          -3.45373120
     2.97832480          -0.02384160          -3.63206880
     3.06272480          -0.06246560          -3.78179520
     3.10659440          -0.09727440          -3.87859360
     3.07941440          -0.10108960          -3.89432880
     3.01742560          -0.08249280          -3.88288480
     2.97308000          -0.02861040          -3.81517440
     2.94399280           0.00762960          -3.71122400
     2.97021840          -0.04386880          -3.59535200
     3.11899200          -0.16069440          -3.44419440
     3.34501280          -0.34666080          -3.28350080
     3.57818640          -0.54883920          -3.11851520
     3.87144080          -0.67234000          -2.88677200
     4.19330560          -0.74958800          -2.58398080
     4.42266480          -0.86164480          -2.29597120
     4.63390320          -0.94413760          -1.98030480
     4.83560560          -1.00851040          -1.62839920
     4.93431120          -1.17731120          -1.34420400
     5.01871120          -1.36661520          -1.05571760
     5.13696640          -1.52587920          -0.73385200
     5.20229360          -1.69897040          -0.46348560
     5.20324720          -1.81579600          -0.18119840
     5.22375120          -1.85251200           0.17690640
     5.15842400          -1.89352000           0.54836240
     4.97961040          -1.97076800           0.88357920
     4.82940640          -2.02560400           1.24502160
     4.59861760          -2.06756560           1.57260880
     4.29678000          -2.10809680           1.79243120
     4.04357920          -2.06375120           1.98650400
     3.76176800          -2.00128560           2.07757920
     3.44514880          -1.97172160           2.05230720
     3.17478160          -1.85871120           2.02035920
     2.87628160          -1.71279920           1.94406480
     2.48241440          -1.59597360           1.82199440
     2.13384640          -1.44624720           1.75476080
     1.81245840          -1.30605680           1.73473360
     1.46150560          -1.21068960           1.69181840
     1.20782880          -1.10292400           1.65987040
     1.02663040          -1.00708000           1.60455680
     0.88119520          -0.98752960           1.43289600
     0.86879760          -0.98752960           1.19447680
     0.98371520          -0.97370160           0.88262560
     1.13201120          -0.97417840           0.46396240
     1.27363200          -0.96368800           0.01764320
     1.34277360          -0.97370160          -0.45013440
     1.31225600          -1.03521360          -0.90837440
     1.22261040          -1.09910960          -1.31273280
     1.04713440          -1.15203840          -1.67417520
     0.84638560          -1.14822400          -1.99985520
     0.64611440          -1.04713440          -2.29835520
     0.42152400          -0.92124960          -2.59399440
     0.24557120          -0.79917920          -2.92778000
     0.13017680          -0.69665920          -3.28397760
     0.09107600          -0.62704080          -3.69644160
     0.14066720          -0.53930320          -4.14180720
     0.24509440          -0.41723280          -4.57239120
     0.34093840          -0.24795520          -4.99391520
     0.45013440          -0.03671680          -5.32150240
     0.55456160           0.10204320          -5.57374960
     0.62370320           0.14972720          -5.76877600
     0.79822560           0.13399120          -5.84173200
     1.05667120           0.01716640          -5.81646000
     1.39045680          -0.13208400          -5.70869440
     1.80053680          -0.31375920          -5.55419920
     2.28071200          -0.55170080          -5.37729280
     2.85148640          -0.80633200          -5.21040000
     3.38316000          -1.08528160          -5.09119040
     3.89957440          -1.34325040          -4.96912000
     4.35686080          -1.55973440          -4.86040080
     4.69636880          -1.73997840          -4.74166880
     4.99820720          -1.86872480          -4.54950320
     5.21183040          -1.97410560          -4.27818320
     5.35011280          -2.07042720          -3.89909760
     5.44929520          -2.14862800          -3.40604800
     5.50031680          -2.22301520          -2.80714000
     5.51843680          -2.27928160          -2.12812400
     5.49984000          -2.30264640          -1.40857680
     5.44929520          -2.28643440          -0.69093680
     5.37729280          -2.23875040          -0.04482240
     5.30481360          -2.19726560           0.47445280
     5.26762000          -2.15911840           0.88167200
     5.27906400          -2.10142160           1.19113920
     5.31911840          -2.00843840           1.40523920
     5.38730640          -1.86491040           1.57356240
     5.43975840          -1.66034720           1.73234960
     5.44929520          -1.41620640           1.88732160
     5.41925440          -1.17874160           2.05516800
     5.34486800          -0.99611280           2.23159760
     5.25951360          -0.82683600           2.40898160
     5.10025040          -0.63705440           2.51674640
     4.88758080          -0.43582880           2.43949920
     4.65297680          -0.16260160           2.21061680
     4.39453120           0.14734240           1.85537360
     4.13179360           0.43630560           1.31368640
     3.78608720           0.68044640           0.53548800
     3.38888160           0.89120880          -0.41055680
     2.95639040           1.10387840          -1.37042960
     2.48718240           1.27553920          -2.27642080
     1.97982800           1.43480320          -3.06749360
     1.46102880           1.57976160          -3.72838960
     0.96511840           1.70993840          -4.23240640
     0.46396240           1.84583680          -4.58717360
     0.05197520           1.87063200          -4.90999200
    -0.26130640           1.80959680          -5.23614880
    -0.46205520           1.68800320          -5.59806800
    -0.53739520           1.49488480          -5.99098240
    -0.53691840           1.32036240          -6.38914080
    -0.47349920           1.16205200          -6.83307680
    -0.40721920           1.04284320          -7.24506400
    -0.32568000           0.94556800          -7.55834560
    -0.24986240           0.86355200          -7.75861760
    -0.22506720           0.81777600          -7.77149200
    -0.21553040           0.75292560          -7.63130160
    -0.22029840           0.67234000          -7.32040400
    -0.19168880           0.50878560          -6.82354000
    -0.08916880           0.26130640          -6.25896480
     0.06055840          -0.05388240          -5.65147360
     0.29230080          -0.44775040          -5.05161280
     0.57983360          -0.78821200          -4.48370000
     0.87547280          -1.04522720          -3.98206720
     1.15919120          -1.22261040          -3.56912640
     1.41859040          -1.33419040          -3.19242480
     1.67608240          -1.41525280          -2.87008320
     1.87587760          -1.46675120          -2.54058800
     2.06089040          -1.50489840          -2.20346480
     2.23732000          -1.51300400          -1.84345280
     2.38227840          -1.53541600          -1.41000720
     2.54631040          -1.58166880          -0.95844240
     2.69985200          -1.62696800          -0.49209600
     2.87818880          -1.72519680          -0.06341920
     3.05271120          -1.83010080           0.30565280
     3.21245200          -1.89542800           0.60510640
     3.39508080          -1.93786640           0.79870240
     3.56102000          -1.93405120           0.94366080
     3.75080080          -1.91831600           1.01089440
     3.93438320          -1.90114960           1.02329280
     4.06837440          -1.85871120           1.00088080
     4.18615360          -1.78289440           0.91552720
     4.22906880          -1.68895760           0.81253040
     4.24623520          -1.58500640           0.71620960
     4.22906880          -1.46913520           0.63753120
     4.11319760          -1.38187440           0.54645520
     3.98778880          -1.34325040           0.44393520
     3.84378400          -1.35278720           0.29754640
     3.67879840          -1.38902640           0.09679760
     3.48424880          -1.46770480          -0.17738320
     3.28731520          -1.52635600          -0.52738160
     3.11422320          -1.54542960          -0.88310240
     2.93970080          -1.55592000          -1.24359120
     2.77805360          -1.52778640          -1.59883520
     2.63881680          -1.50346720          -1.90591840
     2.50625600          -1.51395760          -2.14576720
     2.38513920          -1.57213200          -2.32076640
     2.30646160          -1.64938000          -2.36702000
     2.18343760          -1.77526480          -2.34174720
     2.06613520          -1.94788000          -2.24399600
     1.95550880          -2.09999120          -2.05564480
     1.82676320          -2.28738800          -1.85823440
     1.75619120          -2.48384480          -1.61933920
     1.73568720          -2.63690960          -1.39474880
     1.79481520          -2.77233120          -1.20878240
     1.94311120          -2.81810800          -1.05619440
     2.18725200          -2.75564160          -0.93793840
     2.47907600          -2.62689600          -0.84114080
     2.81047840          -2.39706000          -0.77152240
     3.11899200          -2.12764720          -0.71334800
     3.32689280          -1.87921520          -0.68616880
     3.49378560          -1.65176400          -0.61750400
     3.57103360          -1.50012960          -0.53358080
     3.53956240          -1.42526640          -0.46491600
     3.46088400          -1.38664240          -0.39148320
     3.34453600          -1.38854960          -0.37908560
     3.26871840          -1.37710560          -0.40245040
     3.20529920          -1.36518480          -0.53119680
     3.16381440          -1.35183360          -0.72956080
     3.20720640          -1.30701040          -0.93698480
     3.24058560          -1.25741920          -1.20353680
     3.30591200          -1.15919120          -1.42002080
     3.30257440          -1.07383760          -1.60121920
     3.23534000          -0.99182160          -1.67751280
     3.20148480          -0.90885200          -1.62029280
     3.15141680          -0.85687600          -1.49869920
     3.14950960          -0.80680880          -1.30033520
     3.17192080          -0.79107280          -1.11627600
     3.28540800          -0.71525600          -0.93936960
     3.41939920          -0.58317200          -0.82540480
     3.48520240          -0.43344480          -0.81682240
     3.52954880          -0.24795520          -0.84972400
     3.50475280          -0.06961840          -0.92411040
     3.33499920           0.08344640          -1.02996800
     3.01742560           0.22125280          -1.08814240
     2.64644640           0.34713760          -1.07479120
     2.18963600           0.38385360          -1.01614000
     1.74713120           0.33378640          -0.84209440
     1.40714640           0.20551680          -0.62274960
     1.17921840           0.00143040          -0.40102000
     1.12676640          -0.18405920          -0.16593920
     1.17540320          -0.34570720           0.01573600
     1.29461280          -0.46682320           0.17166160
     1.42335920          -0.56552880           0.27084320
     1.49345360          -0.69808960           0.28276480
     1.52969360          -0.83875680           0.26178320
     1.51777280          -0.99658960           0.23174320
     1.45340000          -1.13487280           0.20360960
     1.40619280          -1.21212000           0.19121200
     1.45912160          -1.20019920           0.24509440
     1.59692800          -1.10435520           0.29706960
     1.78337120          -0.95129040           0.31948080
     2.00843840          -0.79250320           0.33855440
     2.26736080          -0.73432960           0.29945360
     2.54249600          -0.80871600           0.21839120
