SERVICIO GEOLOGICO COLOMBIANO- RED NACIONAL DE ACELEROGRAFOS DE COLOMBIA
SISMO DE CORDOBA (QUINDIO) 1999/01/25 18:19:17 ML=6.3
LATITUD DEL EVENTO(GRADOS): 4.439
LONGITUD DEL EVENTO(GRADOS): -75.698
PROFUNDIDAD DEL EVENTO (Km): 0
CODIGO DE LA ESTACION: CCOLO
Estacion:COLOMBIA Geol:SUELO Topo:ONDULADA
LATITUD DE LA ESTACION (GRADOS): 3.38
LONGITUD DE LA ESTACION (GRADOS): -74.804
DISTANCIA EPICENTRAL: 153.835 km
DISTANCIA HIPOCENTRAL: 153.835 km
INTERVALO DE MUESTREO (SEGUNDOS): 0.005
NUMERO DE DATOS: 19968
DURACION (SEGUNDOS): 99.84
UNIDADES: cm/s^2
TIPO DE EQUIPO: SSA
ESCALA MAXIMA (G): 2
CORRECCION DE LINEA BASE: LINEA BASE NO REMOVIDA
TIPO DE DATOS: NO CORREGIDO
         EW                  VER                  NS
[...]
     3.90624960          -7.81250000           0.97656240
     3.90624960          -7.81250000           0.97656240
     3.90624960          -8.78906240           0.97656240
     3.90624960          -8.78906240           0.97656240
     2.92968720          -8.78906240           0.97656240
     2.92968720          -8.78906240           0.97656240
     1.95312480          -8.78906240           0.97656240
     0.97656240          -8.78906240           0.97656240
     0.97656240          -7.81250000           0.00000000
     0.00000000          -7.81250000           0.00000000
     0.00000000          -7.81250000           0.00000000
    -0.97656240          -7.81250000          -0.97656240
    -0.97656240          -6.83593760          -1.95312480
    -1.95312480          -5.85937520          -1.95312480
    -1.95312480          -5.85937520          -2.92968720
    -1.95312480          -4.88281280          -2.92968720
    -1.95312480          -3.90624960          -3.90624960
    -1.95312480          -3.90624960          -3.90624960
    -1.95312480          -3.90624960          -3.90624960
    -1.95312480          -3.90624960          -3.90624960
    -0.97656240          -2.92968720          -4.88281280
    -0.97656240          -2.92968720          -4.88281280
    -0.97656240          -2.92968720          -5.85937520
    -0.97656240          -2.92968720          -5.85937520
    -0.97656240          -2.92968720          -6.83593760
    -1.95312480          -2.92968720          -6.83593760
    -1.95312480          -2.92968720          -6.83593760
    -1.95312480          -2.92968720          -6.83593760
    -1.95312480          -3.90624960          -6.83593760
    -1.95312480          -3.90624960          -6.83593760
    -1.95312480          -4.88281280          -6.83593760
    -1.95312480          -4.88281280          -5.85937520
    -1.95312480          -5.85937520          -5.85937520
    -1.95312480          -5.85937520          -4.88281280
    -1.95312480          -5.85937520          -3.90624960
    -1.95312480          -5.85937520          -2.92968720
    -1.95312480          -5.85937520          -2.92968720
    -1.95312480          -4.88281280          -1.95312480
    -0.97656240          -3.90624960          -1.95312480
     0.00000000          -3.90624960          -0.97656240
     0.00000000          -3.90624960          -0.97656240
     0.00000000          -3.90624960           0.00000000
     0.00000000          -3.90624960           0.00000000
     0.00000000          -3.90624960           0.00000000
     0.00000000          -4.88281280           0.00000000
     0.00000000          -4.88281280           0.97656240
     0.00000000          -4.88281280           0.97656240
     0.00000000          -5.85937520           1.95312480
     0.00000000          -5.85937520           1.95312480
     0.00000000          -4.88281280           1.95312480
     0.00000000          -4.88281280           1.95312480
     0.97656240          -4.88281280           1.95312480
     0.00000000          -3.90624960           0.97656240
     0.97656240          -3.90624960           0.97656240
     0.97656240          -3.90624960           0.97656240
     0.97656240          -3.90624960           0.97656240
     0.97656240          -3.90624960           0.97656240
     0.97656240          -3.90624960           0.97656240
     0.97656240          -3.90624960           0.97656240
     0.97656240          -3.90624960           0.97656240
     0.97656240          -3.90624960           0.97656240
     0.97656240          -3.90624960           0.97656240
     0.97656240          -4.88281280           0.97656240
     1.95312480          -4.88281280           0.97656240
     1.95312480          -5.85937520           0.00000000
     1.95312480          -5.85937520           0.00000000
     1.95312480          -6.83593760          -0.97656240
     2.92968720          -6.83593760          -0.97656240
     2.92968720          -6.83593760          -0.97656240
     2.92968720          -7.81250000          -0.97656240
     2.92968720          -7.81250000          -0.97656240
     2.92968720          -6.83593760           0.00000000
     1.95312480          -6.83593760           0.00000000
     1.95312480          -6.83593760           0.00000000
     1.95312480          -6.83593760           0.00000000
     0.97656240          -5.85937520           0.00000000
     0.97656240          -5.85937520           0.00000000
     0.97656240          -4.88281280           0.00000000
     0.97656240          -4.88281280           0.00000000
     0.97656240          -3.90624960          -0.97656240
     0.97656240          -3.90624960          -1.95312480
     1.95312480          -3.90624960          -1.95312480
     1.95312480          -2.92968720          -2.92968720
     2.92968720          -2.92968720          -2.92968720
     2.92968720          -1.95312480          -2.92968720
     2.92968720          -1.95312480          -2.92968720
     2.92968720          -0.97656240          -2.92968720
     2.92968720           0.00000000          -2.92968720
     1.95312480           0.00000000          -2.92968720
     0.97656240           0.00000000          -2.92968720
     0.97656240          -0.97656240          -2.92968720
     0.00000000          -1.95312480          -1.95312480
     0.00000000          -1.95312480          -1.95312480
    -0.97656240          -2.92968720          -1.95312480
    -0.97656240          -3.90624960          -1.95312480
    -1.95312480          -3.90624960          -1.95312480
    -1.95312480          -4.88281280          -1.95312480
    -2.92968720          -5.85937520          -1.95312480
    -2.92968720          -5.85937520          -1.95312480
    -3.90624960          -6.83593760          -1.95312480
    -3.90624960          -6.83593760          -1.95312480
    -3.90624960          -6.83593760          -1.95312480
    -3.90624960          -6.83593760          -1.95312480
    -3.90624960          -6.83593760          -1.95312480
    -2.92968720          -5.85937520          -1.95312480
    -2.92968720          -5.85937520          -1.95312480
    -2.92968720          -5.85937520          -1.95312480
    -2.92968720          -5.85937520          -1.95312480
    -2.92968720          -5.85937520          -0.97656240
    -1.95312480          -5.85937520          -0.97656240
    -0.97656240          -5.85937520           0.00000000
     0.00000000          -5.85937520           0.00000000
     0.00000000          -5.85937520           0.97656240
     0.00000000          -5.85937520           0.97656240
     0.00000000          -4.88281280           0.97656240
     0.00000000          -4.88281280           0.97656240
     0.00000000          -3.90624960           0.97656240
     0.00000000          -3.90624960           0.97656240
    -0.97656240          -3.90624960           0.97656240
    -1.95312480          -3.90624960           0.97656240
    -1.95312480          -3.90624960           0.00000000
    -2.92968720          -3.90624960           0.00000000
    -2.92968720          -3.90624960           0.00000000
    -2.92968720          -3.90624960           0.00000000
    -2.92968720          -3.90624960           0.00000000
    -2.92968720          -3.90624960          -0.97656240
    -2.92968720          -2.92968720          -0.97656240
    -2.92968720          -2.92968720          -1.95312480
    -1.95312480          -2.92968720          -1.95312480
    -0.97656240          -2.92968720          -1.95312480
     0.00000000          -2.92968720          -2.92968720
     0.97656240          -3.90624960          -2.92968720
     1.95312480          -3.90624960          -2.92968720
     1.95312480          -4.88281280          -3.90624960
     1.95312480          -5.85937520          -3.90624960
     1.95312480          -6.83593760          -4.88281280
     2.92968720          -6.83593760          -3.90624960
     2.92968720          -7.81250000          -3.90624960
     2.92968720          -7.81250000          -3.90624960
     3.90624960          -7.81250000          -3.90624960
     3.90624960          -7.81250000          -2.92968720
     3.90624960          -7.81250000          -2.92968720
     3.90624960          -7.81250000          -2.92968720
     3.90624960          -7.81250000          -1.95312480
     3.90624960          -6.83593760          -1.95312480
     4.88281280          -6.83593760          -0.97656240
     3.90624960          -6.83593760           0.00000000
     3.90624960          -5.85937520           0.00000000
     3.90624960          -3.90624960           0.00000000
     3.90624960          -2.92968720           0.97656240
     2.92968720          -1.95312480           0.97656240
     2.92968720           0.00000000           0.97656240
     1.95312480           0.97656240           0.97656240
     1.95312480           0.97656240           0.97656240
     1.95312480           0.97656240           0.97656240
     0.97656240           0.97656240           0.00000000
     0.97656240           0.97656240           0.00000000
     0.97656240           0.00000000           0.00000000
     0.97656240          -0.97656240          -0.97656240
     0.97656240          -1.95312480          -1.95312480
     0.97656240          -2.92968720          -1.95312480
     0.97656240          -3.90624960          -1.95312480
     0.97656240          -4.88281280          -1.95312480
     0.97656240          -5.85937520          -1.95312480
     0.97656240          -5.85937520          -1.95312480
     0.97656240          -6.83593760          -1.95312480
     0.00000000          -6.83593760          -1.95312480
     0.00000000          -7.81250000          -1.95312480
    -0.97656240          -7.81250000          -1.95312480
    -1.95312480          -7.81250000          -1.95312480
    -2.92968720          -7.81250000          -0.97656240
    -2.92968720          -7.81250000          -0.97656240
    -2.92968720          -6.83593760          -1.95312480
    -3.90624960          -6.83593760          -1.95312480
    -2.92968720          -6.83593760          -1.95312480
    -2.92968720          -6.83593760          -1.95312480
    -2.92968720          -6.83593760          -2.92968720
    -1.95312480          -6.83593760          -2.92968720
    -1.95312480          -6.83593760          -1.95312480
    -0.97656240          -6.83593760          -1.95312480
     0.00000000          -6.83593760          -1.95312480
     0.00000000          -6.83593760          -1.95312480
     0.00000000          -6.83593760          -0.97656240
     0.97656240          -6.83593760          -0.97656240
     0.97656240          -6.83593760           0.00000000
     1.95312480          -5.85937520           0.00000000
     1.95312480          -5.85937520           0.00000000
     1.95312480          -4.88281280           0.97656240
     1.95312480          -4.88281280           0.97656240
     2.92968720          -4.88281280           1.95312480
     2.92968720          -4.88281280           1.95312480
     3.90624960          -4.88281280           1.95312480
     4.88281280          -3.90624960           1.95312480
     4.88281280          -3.90624960           1.95312480
     5.85937520          -3.90624960           1.95312480
     6.83593760          -3.90624960           1.95312480
     6.83593760          -3.90624960           0.97656240
     7.81250000          -2.92968720           0.97656240
     7.81250000          -2.92968720           0.00000000
     7.81250000          -2.92968720           0.00000000
     7.81250000          -2.92968720           0.00000000
     7.81250000          -2.92968720          -0.97656240
     7.81250000          -3.90624960          -1.95312480
     6.83593760          -4.88281280          -1.95312480
     6.83593760          -4.88281280          -1.95312480
     6.83593760          -5.85937520          -2.92968720
     5.85937520          -5.85937520          -1.95312480
     5.85937520          -5.85937520          -1.95312480
     4.88281280          -6.83593760          -1.95312480
     3.90624960          -5.85937520          -1.95312480
     2.92968720          -5.85937520          -1.95312480
     1.95312480          -5.85937520          -0.97656240
     0.97656240          -6.83593760          -0.97656240
     0.00000000          -6.83593760          -0.97656240
    -0.97656240          -7.81250000          -0.97656240
    -2.92968720          -7.81250000          -1.95312480
    -3.90624960          -7.81250000          -1.95312480
    -4.88281280          -7.81250000          -2.92968720
    -5.85937520          -7.81250000          -3.90624960
    -6.83593760          -6.83593760          -3.90624960
    -8.78906240          -6.83593760          -4.88281280
    -9.76562480          -5.85937520          -4.88281280
    -9.76562480          -5.85937520          -5.85937520
   -10.74218720          -5.85937520          -5.85937520
   -11.71875040          -5.85937520          -6.83593760
   -11.71875040          -6.83593760          -6.83593760
   -11.71875040          -6.83593760          -6.83593760
   -12.69531280          -6.83593760          -6.83593760
   -12.69531280          -6.83593760          -6.83593760
   -13.67187520          -5.85937520          -6.83593760
   -14.64843760          -4.88281280          -6.83593760
   -14.64843760          -3.90624960          -6.83593760
   -15.62500000          -3.90624960          -6.83593760
   -15.62500000          -2.92968720          -6.83593760
   -15.62500000          -2.92968720          -6.83593760
   -15.62500000          -2.92968720          -5.85937520
   -14.64843760          -2.92968720          -4.88281280
   -13.67187520          -2.92968720          -3.90624960
   -13.67187520          -3.90624960          -2.92968720
   -11.71875040          -3.90624960          -1.95312480
   -10.74218720          -4.88281280           0.00000000
    -8.78906240          -3.90624960           0.97656240
    -6.83593760          -3.90624960           2.92968720
    -4.88281280          -3.90624960           3.90624960
    -2.92968720          -2.92968720           4.88281280
     0.00000000          -2.92968720           4.88281280
     0.97656240          -2.92968720           4.88281280
     2.92968720          -3.90624960           4.88281280
     3.90624960          -3.90624960           4.88281280
     3.90624960          -3.90624960           3.90624960
     4.88281280          -3.90624960           2.92968720
     4.88281280          -2.92968720           1.95312480
     4.88281280          -2.92968720           0.00000000
     4.88281280          -2.92968720          -1.95312480
     4.88281280          -1.95312480          -2.92968720
     3.90624960          -1.95312480          -2.92968720
     3.90624960          -1.95312480          -3.90624960
     2.92968720          -2.92968720          -3.90624960
     2.92968720          -2.92968720          -4.88281280
     2.92968720          -3.90624960          -4.88281280
     2.92968720          -4.88281280          -3.90624960
     2.92968720          -4.88281280          -3.90624960
     2.92968720          -5.85937520          -3.90624960
     1.95312480          -6.83593760          -3.90624960
     1.95312480          -6.83593760          -4.88281280
     1.95312480          -6.83593760          -4.88281280
     1.95312480          -7.81250000          -5.85937520
     0.97656240          -7.81250000          -6.83593760
     0.00000000          -8.78906240          -7.81250000
     0.00000000          -8.78906240          -7.81250000
    -0.97656240          -8.78906240          -8.78906240
    -1.95312480          -8.78906240          -9.76562480
    -1.95312480          -8.78906240         -10.74218720
    -2.92968720          -7.81250000         -10.74218720
    -1.95312480          -7.81250000         -11.71875040
    -1.95312480          -7.81250000         -10.74218720
    -0.97656240          -6.83593760         -10.74218720
     0.00000000          -6.83593760          -9.76562480
     0.97656240          -6.83593760          -7.81250000
     0.97656240          -6.83593760          -5.85937520
     0.97656240          -7.81250000          -3.90624960
     0.97656240          -7.81250000          -1.95312480
     0.00000000          -7.81250000           0.00000000
     0.00000000          -7.81250000           0.97656240
    -1.95312480          -7.81250000           1.95312480
    -1.95312480          -7.81250000           2.92968720
    -2.92968720          -7.81250000           2.92968720
    -3.90624960          -7.81250000           1.95312480
    -4.88281280          -6.83593760           0.97656240
    -5.85937520          -6.83593760           0.00000000
    -5.85937520          -6.83593760          -0.97656240
    -6.83593760          -6.83593760          -1.95312480
    -6.83593760          -6.83593760          -1.95312480
    -7.81250000          -6.83593760          -2.92968720
    -7.81250000          -6.83593760          -2.92968720
    -7.81250000          -6.83593760          -3.90624960
    -7.81250000          -5.85937520          -3.90624960
    -6.83593760          -4.88281280          -4.88281280
    -6.83593760          -4.88281280          -4.88281280
    -5.85937520          -3.90624960          -5.85937520
    -5.85937520          -2.92968720          -5.85937520
    -4.88281280          -1.95312480          -5.85937520
    -3.90624960          -0.97656240          -5.85937520
    -2.92968720           0.00000000          -4.88281280
    -1.95312480           0.97656240          -4.88281280
    -0.97656240           0.97656240          -3.90624960
     0.00000000           0.00000000          -2.92968720
     0.97656240           0.00000000          -2.92968720
     1.95312480          -0.97656240          -1.95312480
     2.92968720          -1.95312480          -0.97656240
     3.90624960          -1.95312480          -0.97656240
     3.90624960          -1.95312480          -0.97656240
     3.90624960          -1.95312480          -1.95312480
     3.90624960          -1.95312480          -2.92968720
     4.88281280          -1.95312480          -2.92968720
     4.88281280          -1.95312480          -3.90624960
     4.88281280          -1.95312480          -4.88281280
     5.85937520          -1.95312480          -4.88281280
     5.85937520          -0.97656240          -4.88281280
     6.83593760          -0.97656240          -4.88281280
     6.83593760          -0.97656240          -3.90624960
     6.83593760          -0.97656240          -2.92968720
     6.83593760          -1.95312480          -1.95312480
     6.83593760          -1.95312480           0.00000000
     6.83593760          -1.95312480           1.95312480
     6.83593760          -2.92968720           2.92968720
     5.85937520          -3.90624960           3.90624960
     5.85937520          -3.90624960           4.88281280
     4.88281280          -4.88281280           5.85937520
     4.88281280          -4.88281280           5.85937520
     3.90624960          -5.85937520           5.85937520
     2.92968720          -6.83593760           5.85937520
