SERVICIO GEOLOGICO COLOMBIANO- RED NACIONAL DE ACELEROGRAFOS DE COLOMBIA
SISMO DE CORDOBA (QUINDIO) 1999/01/25 18:19:17 ML=6.3
LATITUD DEL EVENTO(GRADOS): 4.439
LONGITUD DEL EVENTO(GRADOS): -75.698
PROFUNDIDAD DEL EVENTO (Km): 0
CODIGO DE LA ESTACION: CBUC1
Estacion:FLORIDABLANCA, CDMB Geol:ROCA Topo:ONDULADA
LATITUD DE LA ESTACION (GRADOS): 7.072
LONGITUD DE LA ESTACION (GRADOS): -73.074
DISTANCIA EPICENTRAL: 412.617 km
DISTANCIA HIPOCENTRAL: 412.617 km
INTERVALO DE MUESTREO (SEGUNDOS): 0.005
NUMERO DE DATOS: 4400
DURACION (SEGUNDOS): 22
UNIDADES: cm/s^2
TIPO DE EQUIPO: ETNA
ESCALA MAXIMA (G): 2
CORRECCION DE LINEA BASE: LINEA BASE NO REMOVIDA
TIPO DE DATOS: NO CORREGIDO
         EW                  VER                  NS
[...]
    -0.06818800          -1.82390240          -0.52213680
    -0.04291520          -1.81579600          -0.53167360
    -0.02336480          -1.78766240          -0.54025680
    -0.02241120          -1.75237680          -0.54597840
    -0.00572240          -1.73759440          -0.55360800
     0.01239760          -1.70707680          -0.57077440
     0.02718000          -1.69849360          -0.56028400
     0.01621280          -1.73759440          -0.58889360
    -0.00095360          -1.79719920          -0.61416640
     0.01096720          -1.88684480          -0.57268160
     0.01430480          -1.92403760          -0.55027040
     0.00810640          -1.88016880          -0.54645520
    -0.01764320          -1.81961040          -0.53882560
    -0.03194800          -1.78241760          -0.51450720
    -0.00667600          -1.79529200          -0.51450720
     0.03957760          -1.83153120          -0.54931680
     0.08058560          -1.87015520          -0.54597840
     0.06294240          -1.88589120          -0.53644160
     0.02622640          -1.86491040          -0.50020240
    -0.00762960          -1.82056400          -0.46873120
    -0.06771120          -1.77288080          -0.48398960
    -0.11253360          -1.74045600          -0.48732720
    -0.11682480          -1.74999200          -0.50735440
    -0.10252000          -1.81007360          -0.52070640
    -0.05960480          -1.86967840          -0.51689120
     0.00524560          -1.90734880          -0.49686400
     0.01955040          -1.90782560          -0.47111520
     0.00238400          -1.86443360          -0.45156480
    -0.01001360          -1.80578240          -0.40864960
    -0.01049040          -1.77192720          -0.42438480
     0.01430480          -1.77812560          -0.44345840
     0.03147120          -1.79910640          -0.41103360
     0.06675760          -1.83916080          -0.40960320
     0.09870560          -1.86538720          -0.37240960
     0.10061280          -1.88207600          -0.32663360
     0.07343280          -1.88875200          -0.36859520
     0.02479520          -1.84249840          -0.41246400
     0.01621280          -1.83439280          -0.44012080
     0.01049040          -1.88350640          -0.48017520
     0.02574960          -1.87635440          -0.49114240
     0.05531280          -1.82676320          -0.47636000
     0.05102160          -1.78432480          -0.43392160
     0.03480880          -1.72376640          -0.38385360
    -0.00238400          -1.66749920          -0.37908560
    -0.03242480          -1.64032000          -0.39672880
    -0.04482240          -1.62887600          -0.41151040
    -0.07057200          -1.64651840          -0.45013440
    -0.09632080          -1.67846640          -0.48398960
    -0.11396400          -1.71518320          -0.49638720
    -0.15878640          -1.76382080          -0.48351280
    -0.19311920          -1.82819360          -0.44870400
    -0.20074880          -1.87587760          -0.44298160
    -0.20265600          -1.86109520          -0.45013440
    -0.16593920          -1.81818000          -0.48494320
    -0.10490400          -1.79338480          -0.52452080
    -0.04243840          -1.78098640          -0.51164640
     0.00906000          -1.76334400          -0.49734080
     0.05006800          -1.74570080          -0.46300880
     0.06723440          -1.74522400          -0.38814560
     0.06151200          -1.76334400          -0.32520320
     0.07200240          -1.80721280          -0.28991680
     0.07629360          -1.85632720          -0.30183760
     0.09155280          -1.87873840          -0.35047520
     0.10395040          -1.89924240          -0.38528480
     0.06914160          -1.92928320          -0.42486160
     0.05388240          -1.93309760          -0.45490240
     0.03528560          -1.92403760          -0.43964400
    -0.01192080          -1.90496480          -0.44107440
    -0.04768400          -1.85775760          -0.48303600
    -0.09441360          -1.84440640          -0.53548800
    -0.12922320          -1.87349280          -0.59700000
    -0.10538080          -1.91593200          -0.65660480
    -0.05865120          -1.94311120          -0.68235360
    -0.03194800          -1.89781200          -0.67520160
    -0.01621280          -1.84965120          -0.61702720
    -0.02241120          -1.79481520          -0.53501120
    -0.01144400          -1.73902480          -0.47540640
     0.02908720          -1.74999200          -0.42200080
     0.06437280          -1.76096000          -0.38623840
     0.07390960          -1.77812560          -0.34952160
     0.04673040          -1.77145040          -0.32091120
     0.00476800          -1.76954240          -0.30565280
    -0.08153920          -1.78718560          -0.31137440
    -0.15830960          -1.78194080          -0.35238240
    -0.21791440          -1.84440640          -0.41294080
    -0.26178320          -1.88684480          -0.50830880
    -0.27990320          -1.87730800          -0.59127840
    -0.32043440          -1.87015520          -0.63562400
    -0.32663360          -1.86252560          -0.68092320
    -0.31280480          -1.89447440          -0.74815760
    -0.27513520          -1.92785280          -0.79822560
    -0.19645680          -1.95550880          -0.82111360
    -0.10967280          -1.93166720          -0.84686240
    -0.01955040          -1.84488320          -0.83446480
     0.06437280          -1.78241760          -0.77295280
     0.17356880          -1.76572800          -0.67758560
     0.30565280          -1.77812560          -0.56982080
     0.41055680          -1.77097360          -0.49066560
     0.42915360          -1.72328960          -0.45394880
     0.37765520          -1.69038800          -0.47159200
     0.29039360          -1.71232240          -0.54121040
     0.18978080          -1.77383440          -0.62799440
     0.11158000          -1.85251200          -0.68330800
     0.00762960          -1.88302960          -0.66900240
    -0.13065360          -1.86157200          -0.62274960
    -0.25081600          -1.84249840          -0.57315840
    -0.33426320          -1.83391600          -0.51307680
    -0.33950800          -1.86729440          -0.50115600
    -0.29563920          -1.89352000          -0.54073360
    -0.28133360          -1.90067280          -0.60224560
    -0.25892240          -1.92928320          -0.67329440
    -0.20122560          -1.94168080          -0.73242160
    -0.10585760          -1.97601280          -0.77915200
     0.00476800          -1.97505920          -0.81443760
     0.09298320          -1.90305680          -0.83780320
     0.19073520          -1.83963760          -0.84209440
     0.27179680          -1.77621840          -0.87738000
     0.33807760          -1.71852080          -0.93746160
     0.37050240          -1.66845360          -0.98085440
     0.35953520          -1.62458400          -0.97513200
     0.32424960          -1.60312640          -0.89263920
     0.22745120          -1.61457040          -0.79727200
     0.12779200          -1.66082400          -0.66423440
     0.02002720          -1.70564640          -0.52452080
    -0.10347360          -1.71804400          -0.39958960
    -0.19550320          -1.76048240          -0.23937200
    -0.26321440          -1.84631360          -0.12397760
    -0.27275120          -1.90401040          -0.04911440
    -0.22411360          -1.90305680          -0.02431840
    -0.16403200          -1.82580960          -0.04291520
    -0.08869200          -1.75809840          -0.05912800
     0.00953680          -1.73473360          -0.08487680
     0.13399120          -1.74522400          -0.13303760
     0.28705600          -1.77526480          -0.21314640
     0.40483440          -1.74903840          -0.26226080
     0.44250480          -1.71422960          -0.28753280
     0.41723280          -1.72948800          -0.32281840
     0.33855440          -1.77526480          -0.38480720
     0.22602080          -1.80625920          -0.44631920
     0.09489040          -1.82056400          -0.45347200
    -0.04243840          -1.81198160          -0.42295440
    -0.14829600          -1.78718560          -0.35810480
    -0.23365040          -1.78146400          -0.28467200
    -0.28753280          -1.74617760          -0.22935840
    -0.30040720          -1.69944800          -0.20170240
    -0.28467200          -1.66988400          -0.18787360
    -0.21171600          -1.65367120          -0.18596640
    -0.13876000          -1.70850720          -0.23841840
    -0.07486320          -1.75952880          -0.30565280
    -0.01525840          -1.75905200          -0.32997120
     0.00286080          -1.78861600          -0.31137440
     0.02718000          -1.83248480          -0.27513520
     0.07534000          -1.88589120          -0.23508080
     0.12254720          -1.95598640          -0.20265600
     0.13923680          -2.02178960          -0.22649760
     0.11634800          -2.08425520          -0.28562560
     0.04386880          -2.11238880          -0.35619760
    -0.07486320          -2.09569920          -0.47397600
    -0.21028480          -2.04086320          -0.55694560
    -0.33474000          -1.98030480          -0.62465680
    -0.38576160          -1.95264800          -0.74386560
    -0.37479440          -1.94406480          -0.83541840
    -0.32424960          -1.88827520          -0.92935600
    -0.27942640          -1.77335760          -1.04904160
    -0.27847280          -1.70564640          -1.13153440
    -0.24223360          -1.71804400          -1.20210640
    -0.18596640          -1.75952880          -1.30939520
    -0.14066720          -1.76715840          -1.40810000
    -0.11348720          -1.74617760          -1.45053840
    -0.14114400          -1.71041520          -1.45387680
    -0.14543520          -1.64556480          -1.42955760
    -0.07104880          -1.60980240          -1.39617920
     0.04673040          -1.57928480          -1.34706480
     0.21696080          -1.52969360          -1.25074400
     0.38671520          -1.47104240          -1.12485920
     0.51164640          -1.43194160          -0.94556800
     0.65898880          -1.44434000          -0.73242160
     0.78392000          -1.44100160          -0.52690480
     0.85306160          -1.45864480          -0.31042080
     0.84638560          -1.53207760          -0.13160720
     0.77533760          -1.63078320           0.01001360
     0.69427520          -1.80101360           0.09202960
     0.60653680          -2.01416000           0.12588480
     0.51116960          -2.17437760           0.16641600
     0.36334960          -2.25067120           0.18119840
     0.19359600          -2.24828720           0.21266960
     0.02431840          -2.20870960           0.23269680
    -0.12731520          -2.20346480           0.20456320
    -0.25558480          -2.22206080           0.12111680
    -0.36525760          -2.21681600          -0.01335120
    -0.46062480          -2.15816480          -0.14162080
    -0.60701360          -2.09236160          -0.27704240
    -0.71382560          -2.06089040          -0.40626560
    -0.77772160          -2.00748480          -0.52976640
    -0.81920640          -1.91974640          -0.63419360
    -0.83017360          -1.78241760          -0.67377120
    -0.89263920          -1.63030640          -0.66566480
    -0.92458720          -1.52826320          -0.60796720
    -0.91362000          -1.49679200          -0.54550160
    -0.87642640          -1.54829040          -0.53596480
    -0.80013280          -1.62982960          -0.55503840
    -0.70810320          -1.67322160          -0.61512000
    -0.60319920          -1.69754000          -0.71239440
    -0.49066560          -1.74713120          -0.80013280
    -0.31375920          -1.79290800          -0.86116800
    -0.10490400          -1.81293520          -0.89836160
     0.10681120          -1.82533280          -0.88453280
     0.29945360          -1.85966480          -0.81110000
     0.43773680          -1.87444720          -0.77676800
     0.53501120          -1.84536000          -0.79154960
     0.59270880          -1.83630000          -0.83160400
     0.65898880          -1.81198160          -0.91362000
     0.70714960          -1.76477440          -1.02472320
     0.72813040          -1.71422960          -1.15823760
     0.74195840          -1.68657280          -1.22833280
     0.75197200          -1.70993840          -1.20019920
     0.77152240          -1.70135520          -1.09338800
     0.76246240          -1.67036080          -0.91171280
     0.76055520          -1.64890320          -0.67567840
     0.74958800          -1.63078320          -0.43582880
     0.71477920          -1.63412080          -0.25129280
     0.66900240          -1.63698160          -0.11253360
     0.57935680          -1.64747200          -0.03433200
     0.47445280          -1.66463840           0.03814720
     0.31662000          -1.69706320           0.11396400
     0.10538080          -1.76239040           0.14925040
    -0.13971360          -1.83820720           0.16784640
    -0.38576160          -1.88398400           0.12970000
    -0.61798080          -1.88159920           0.09870560
    -0.86069120          -1.85489680           0.07057200
    -1.03950480          -1.81818000           0.01001360
    -1.15060800          -1.79910640          -0.02813360
    -1.18780160          -1.77192720          -0.05197520
    -1.16395920          -1.72948800          -0.04863760
    -1.10626240          -1.70230880          -0.03767040
    -1.03139840          -1.69324880          -0.02384160
    -0.93317040          -1.74284000          -0.04863760
    -0.76293920          -1.84345280          -0.11396400
    -0.58364880          -1.92213040          -0.17738320
    -0.42915360          -1.93023680          -0.28133360
    -0.29754640          -1.90258000          -0.37813200
    -0.18215200          -1.86109520          -0.46205520
    -0.07438640          -1.83200800          -0.53978000
     0.04816080          -1.83010080          -0.61750400
     0.15974080          -1.81818000          -0.73051440
     0.24795520          -1.83343920          -0.79250320
     0.34093840          -1.88779840          -0.82826640
     0.36811840          -1.96409200          -0.88596320
     0.38671520          -2.02655760          -0.91457360
     0.42200080          -2.07805600          -0.92983280
     0.43916720          -2.14576720          -0.95987280
     0.47397600          -2.19726560          -0.99372880
     0.53358080          -2.17723840          -1.03807440
     0.62131920          -2.07424160          -1.07431440
     0.68664560          -1.93786640          -1.06620800
     0.75101840          -1.78480160          -1.01232560
     0.79011920          -1.64985680          -0.92458720
     0.74195840          -1.57070160          -0.84400160
     0.68283120          -1.53780000          -0.74148160
     0.55027040          -1.53493920          -0.63514720
     0.30612960          -1.58357600          -0.52404400
     0.06771120          -1.67608240          -0.36048880
    -0.17309200          -1.77192720          -0.22459040
    -0.39482080          -1.83820720          -0.09918240
    -0.52642800          -1.82724000           0.02718000
    -0.57029760          -1.79672240           0.10204320
    -0.54168720          -1.78718560           0.09441360
    -0.45251840          -1.79386160           0.05245200
    -0.32472640          -1.83248480           0.00715280
    -0.22125280          -1.89638160          -0.08726080
    -0.17881360          -1.99937840          -0.20456320
    -0.20980800          -2.06422800          -0.37431680
    -0.31614320          -2.06041360          -0.59843040
    -0.43392160          -2.04467760          -0.82397440
    -0.50735440          -2.00939200          -1.00326560
    -0.52881280          -1.96838400          -1.14107120
    -0.46491600          -1.90591840          -1.23643840
    -0.31709680          -1.83296240          -1.25551200
    -0.14972720          -1.77955600          -1.21450400
     0.00524560          -1.68085120          -1.09577200
     0.13828240          -1.55830400          -0.94032320
     0.21600720          -1.46436720          -0.75817120
     0.21648400          -1.39760960          -0.57125120
     0.19407280          -1.38759600          -0.43773680
     0.15258800          -1.44720080          -0.32377280
     0.07057200          -1.57451600          -0.23984880
    -0.01096720          -1.71613680          -0.16117120
    -0.12159360          -1.82580960          -0.09965920
    -0.21982160          -1.93166720          -0.08630720
    -0.26798240          -2.01988240          -0.09059920
    -0.31471280          -2.08520880          -0.17118480
    -0.29468560          -2.13670720          -0.29039360
    -0.24128000          -2.13861440          -0.35858160
    -0.21076240          -2.12240240          -0.38528480
    -0.16641600          -2.12192560          -0.38242320
    -0.11825600          -2.10237520          -0.34523040
    -0.04625360          -2.04277040          -0.29754640
     0.01859680          -1.94072720          -0.25463120
     0.06008160          -1.83343920          -0.20933120
     0.10824240          -1.71041520          -0.20885440
     0.17738320          -1.57022480          -0.25081600
     0.25224720          -1.42908080          -0.32806400
     0.29706960          -1.27744640          -0.45919440
     0.30565280          -1.14965440          -0.62084160
     0.26941280          -1.09434160          -0.82159040
     0.20885440          -1.19876880          -1.00898720
     0.15449520          -1.39713280          -1.11866000
     0.09107600          -1.60360320          -1.15776080
    -0.00953680          -1.75237680          -1.07383760
    -0.09965920          -1.78861600          -0.86688960
    -0.12540800          -1.85012800          -0.62084160
    -0.08296960          -1.92832960          -0.40054320
     0.02336480          -1.98554960          -0.23031200
     0.15926400          -2.04563120          -0.12111680
     0.26798240          -2.09522240          -0.08869200
     0.32854080          -2.12287920          -0.10299680
     0.33474000          -2.10666640          -0.21314640
     0.25987600          -2.11191200          -0.37288640
     0.16498560          -2.10237520          -0.48065200
     0.03767040          -2.07233440          -0.54979360
    -0.12445440          -2.07805600          -0.56982080
    -0.24986240          -2.05946000          -0.54359440
    -0.38719200          -2.03132640          -0.45680960
    -0.49066560          -2.00271600          -0.35619760
    -0.54740880          -1.94931040          -0.24414080
    -0.58269520          -1.91879280          -0.15640240
    -0.56552880          -1.90162640          -0.13017680
    -0.52785840          -1.88398400          -0.12683840
    -0.48065200          -1.85108160          -0.19598000
    -0.43344480          -1.76000560          -0.27132000
    -0.37813200          -1.66130080          -0.32663360
    -0.32663360          -1.59072880          -0.37050240
