SERVICIO GEOLOGICO COLOMBIANO- RED NACIONAL DE ACELEROGRAFOS DE COLOMBIA
SISMO DE CORDOBA (QUINDIO) 1999/01/25 18:19:17 ML=6.3
LATITUD DEL EVENTO(GRADOS): 4.439
LONGITUD DEL EVENTO(GRADOS): -75.698
PROFUNDIDAD DEL EVENTO (Km): 0
CODIGO DE LA ESTACION: CPLAT
Estacion:LA PLATA Geol:SUELO Topo:PLANA
LATITUD DE LA ESTACION (GRADOS): 2.387
LONGITUD DE LA ESTACION (GRADOS): -75.91
DISTANCIA EPICENTRAL: 228.984 km
DISTANCIA HIPOCENTRAL: 228.984 km
INTERVALO DE MUESTREO (SEGUNDOS): 0.005
NUMERO DE DATOS: 15600
DURACION (SEGUNDOS): 78
UNIDADES: cm/s^2
TIPO DE EQUIPO: ETNA
ESCALA MAXIMA (G): 2
CORRECCION DE LINEA BASE: LINEA BASE NO REMOVIDA
TIPO DE DATOS: NO CORREGIDO
         EW                  VER                  NS
[...]
    -1.06477760          -0.08964560          -0.00619920
    -0.84781680          -0.05149840           0.25653840
    -0.68664560          -0.01907360           0.55313120
    -0.55837600           0.02002720           0.87404240
    -0.46920800           0.04911440           1.19543040
    -0.41532480           0.07724800           1.51824960
    -0.37240960           0.09584400           1.84011440
    -0.36239600           0.11634800           2.15339680
    -0.36621120           0.12016320           2.46381760
    -0.37717840           0.11491760           2.76613200
    -0.42629280           0.13256080           3.06224800
    -0.49066560           0.18882720           3.33118400
    -0.59509280           0.24652480           3.54814560
    -0.75817120           0.34666080           3.73601920
    -0.95272080           0.50306320           3.87239440
    -1.23596160           0.61941120           3.90291200
    -1.54495200           0.75387920           3.89671360
    -1.81150400           0.88310240           3.83996960
    -2.13003120           0.97513200           3.65400320
    -2.38418560           1.11675280           3.45039360
    -2.54964800           1.29175200           3.23915520
    -2.74562800           1.45483040           2.96926480
    -2.85100960           1.62935280           2.70462000
    -2.87675840           1.85108160           2.44283680
    -2.92158160           2.03371040           2.15816480
    -2.95686720           2.21252480           1.85728080
    -2.98881520           2.43616080           1.58452960
    -3.07703040           2.57968880           1.28173840
    -3.23200240           2.71844880           0.92315680
    -3.37886800           2.90346160           0.60272240
    -3.57055680           3.04651280           0.25892240
    -3.79848480           3.18813360          -0.11777840
    -3.93915200           3.36599360          -0.45537920
    -4.05645360           3.49855440          -0.80585440
    -4.15706640           3.56626480          -1.18207920
    -4.12368800           3.63683680          -1.50251360
    -4.04071840           3.65018880          -1.79338480
    -3.95584080           3.60774960          -2.09808320
    -3.74460240           3.60202800          -2.32028960
    -3.51762800           3.59582880          -2.51007120
    -3.31449520           3.55720560          -2.70795840
    -3.03173040           3.56531120          -2.81953840
    -2.77566880           3.56960320          -2.90966000
    -2.51054800           3.48138800          -3.02362480
    -2.20870960           3.36599360          -3.11660800
    -1.89113600           3.21054480          -3.19957760
    -1.54590640           2.99739840          -3.31592560
    -1.21784240           2.75898000          -3.44228720
    -0.83971040           2.49528880          -3.52001200
    -0.46539280           2.16913200          -3.58915360
    -0.07486320           1.80721280          -3.62062480
     0.38671520           1.43241920          -3.58390800
     0.83446480           1.00660320          -3.51095200
     1.29127520           0.61988800          -3.39937200
     1.75809840           0.28467200          -3.24773760
     2.19154320          -0.02718000          -3.06606320
     2.56681440          -0.29945360          -2.90155440
     2.90536880          -0.53024320          -2.74610480
     3.19766960          -0.69618240          -2.60686880
     3.42988960          -0.82540480          -2.51436240
     3.62730000          -0.93412400          -2.47240080
     3.77368960          -1.04618080          -2.47526160
     3.90815760          -1.18732480          -2.50244160
     4.04357920          -1.33180640          -2.54535680
     4.19807440          -1.46818160          -2.56872160
     4.38308720          -1.57737760          -2.57110560
     4.56237760          -1.64318080          -2.53582000
     4.75931200          -1.65987040          -2.43473040
     4.92382080          -1.63030640          -2.27975840
     5.03206240          -1.58834480          -2.07662560
     5.09214400          -1.53493920          -1.83057760
     5.05399680          -1.51968000          -1.55830400
     4.93288080          -1.58786800          -1.26171120
     4.71735040          -1.71995200          -0.94270720
     4.41265120          -1.90401040          -0.61130560
     4.05883760          -2.13432320          -0.25844560
     3.66020240          -2.38275520           0.09441360
     3.25107600          -2.57921200           0.44012080
     2.84671760          -2.71987920           0.77056880
     2.47240080          -2.77376160           1.08957280
     2.13480000          -2.75611840           1.38664240
     1.81436560          -2.72321680           1.61457040
     1.53541600          -2.69079200           1.78384800
     1.31034880          -2.68650080           1.88207600
     1.13058080          -2.67982480           1.90019600
     0.99515920          -2.66170480           1.85489680
     0.92220320          -2.58922560           1.73664080
     0.84590880          -2.46238720           1.56116480
     0.79154960          -2.25400960           1.38664240
     0.73766720          -1.96361520           1.20067600
     0.60892080          -1.60074240           1.02281600
     0.50687760          -1.10864640           0.93936960
     0.33235520          -0.65755840           0.90646720
     0.07486320          -0.25844560           0.90789760
    -0.18882720           0.10538080           0.96702560
    -0.50497040           0.37479440           1.07622160
    -0.81443760           0.61893440           1.20449040
    -1.10244720           0.80537760           1.32560720
    -1.33466720           0.98371520           1.45292320
    -1.51300400           1.18160240           1.57022480
    -1.63078320           1.36995280           1.68704960
    -1.67322160           1.57213200           1.80768960
    -1.65891680           1.77812560           1.91688560
    -1.57308560           1.95121760           2.02035920
    -1.48153280           2.08663920           2.11191200
    -1.35469440           2.21920000           2.18582160
    -1.21974960           2.33364080           2.23493600
    -1.10912320           2.44045280           2.24971760
    -0.97751600           2.51770000           2.20298800
    -0.86355200           2.58636480           2.08854640
    -0.69189040           2.68411600           1.94597280
    -0.51689120           2.80189520           1.72948800
    -0.36668800           2.98929200           1.47104240
    -0.17929040           3.23152560           1.25646560
    -0.04243840           3.49235520           1.05667120
     0.05006800           3.73840320           0.89645360
     0.10061280           3.94201280           0.80156320
     0.08535360           4.09078560           0.75817120
     0.00810640           4.17184800           0.72622320
    -0.10776480           4.19998160           0.70571920
    -0.26988960           4.17184800           0.67567840
    -0.47492960           4.10223040           0.59986080
    -0.67043280           4.00209440           0.51641440
    -0.86498240           3.88717680           0.40054320
    -1.04188880           3.74317200           0.29230080
    -1.20592080           3.57484800           0.22697440
    -1.32226960           3.35168800           0.19264240
    -1.39141120           3.05128080           0.21982160
    -1.43814080           2.75039680           0.28181040
    -1.41286880           2.40850480           0.38576160
    -1.31225600           1.99937840           0.48685040
    -1.10054000           1.56068800           0.53453440
    -0.79441040           1.12676640           0.53978000
    -0.38576160           0.71239440           0.44631920
     0.13446800           0.31709680           0.28944000
     0.69808960          -0.03719360           0.08010880
     1.34086640          -0.35953520          -0.19884080
     1.98030480          -0.63610080          -0.49257280
     2.57778160          -0.86355200          -0.79441040
     3.15380080          -1.03139840          -1.05905520
     3.63302240          -1.12485920          -1.24692880
     4.06789760          -1.15108480          -1.36375440
     4.42647920          -1.14584000          -1.43623360
     4.68730960          -1.13010400          -1.45721440
     4.92191280          -1.11484560          -1.43289600
     5.12361520          -1.12438240          -1.41286880
     5.28621680          -1.13630320          -1.42383600
     5.40351840          -1.09958640          -1.44529360
     5.48124320          -1.03807440          -1.46627440
     5.44977200          -1.00564960          -1.52254080
     5.33580800          -0.93174000          -1.52492560
     5.15222560          -0.88977840          -1.51491200
     4.81748560          -0.88834800          -1.53255440
     4.42266480          -0.86641280          -1.45626080
     3.94248960          -0.91791120          -1.35517120
     3.36265600          -1.03473680          -1.25217440
     2.77185440          -1.22976320          -1.12533600
     2.15196640          -1.47151920          -1.00517280
     1.55544320          -1.73139600          -0.88310240
     1.00660320          -1.99556320          -0.76484720
     0.49543360          -2.18439120          -0.64086880
     0.04196160          -2.32076640          -0.49304960
    -0.35905840          -2.41327280          -0.29039360
    -0.69236720          -2.48527520          -0.05865120
    -0.94890560          -2.57444400           0.20504000
    -1.09481840          -2.66885760           0.48923520
    -1.13201120          -2.80714000           0.74625040
    -1.05953200          -2.94637680           1.00708000
    -0.87118160          -3.02696240           1.26123440
    -0.56457520          -3.04985040           1.49345360
    -0.13589840          -2.98166240           1.73664080
     0.34856800          -2.89058720           1.96838400
     0.90169920          -2.73180000           2.20727920
     1.49345360          -2.50864000           2.49099760
     2.00128560          -2.33316400           2.74753600
     2.44617440          -2.17199360           3.00788880
     2.81667680          -2.07948720           3.26871840
     3.05891040          -2.04467760           3.45420800
     3.21578960          -2.01702080           3.59106080
     3.27730160          -1.96075440           3.64208240
     3.25298320          -1.83105440           3.63969840
     3.19433200          -1.66273120           3.59106080
     3.05795680          -1.44338640           3.48711040
     2.85339360          -1.20401360           3.37648400
     2.60353120          -0.91648080           3.27348720
     2.24971760          -0.61225920           3.19766960
     1.81484240          -0.35047520           3.09467280
     1.30605680          -0.10967280           3.01170320
     0.71954720           0.06961840           2.94971440
     0.11253360           0.19073520           2.84910240
    -0.49781760           0.27275120           2.73609200
    -1.03712080           0.36430320           2.59351760
    -1.50442160           0.42438480           2.41041200
    -1.89685840           0.47302240           2.20203360
    -2.13241600           0.55503840           2.02798880
    -2.27975840           0.58889360           1.86014160
    -2.36797360           0.59604640           1.68848000
    -2.34794640           0.55170080           1.59502000
    -2.25210160           0.46205520           1.54590640
    -2.10142160           0.34999840           1.51348080
    -1.89495120           0.20790080           1.53017040
    -1.66225440           0.08535360           1.57594720
    -1.39856320          -0.02050400           1.64270400
    -1.12533600          -0.10252000           1.73091920
    -0.86164480          -0.17499920           1.81198160
    -0.62227280          -0.25510800           1.89685840
    -0.45824080          -0.35905840           1.98984160
    -0.35095200          -0.52642800           2.09093120
    -0.30040720          -0.71811680           2.20060320
    -0.29468560          -0.90742080           2.31695200
    -0.28133360          -1.07908240           2.45714160
    -0.23984880          -1.21784240           2.56109200
    -0.12683840          -1.28746000           2.59780880
     0.09632080          -1.23024000           2.58922560
     0.40721920          -1.09720240           2.47669200
     0.79059600          -0.89073200           2.22349200
     1.24788320          -0.63180960           1.84059120
     1.72996560          -0.39291360           1.30033520
     2.19154320          -0.15878640           0.61702720
     2.59780880           0.05388240          -0.18644320
     2.93493280           0.25653840          -1.09624880
     3.20243840           0.45585600          -2.06995040
     3.41510800           0.63657760          -3.06034080
     3.60012080           0.79822560          -4.01544560
     3.75413920           0.95510480          -4.91571440
     3.87716320           1.12199760          -5.72538400
     3.94964240           1.26361840          -6.41727440
     3.92866160           1.41334560          -6.99329360
     3.80086880           1.55782720          -7.45916400
     3.55482080           1.66988400          -7.82442080
     3.15856960           1.72615040          -8.08525120
     2.66075120           1.73091920          -8.25834240
     2.06851920           1.71375280          -8.32319280
     1.38998000           1.62363040          -8.28027760
     0.74863440           1.53923040          -8.10289360
     0.13732880           1.46198240          -7.78961200
    -0.42104720           1.36375440          -7.37905520
    -0.85592240           1.27267840          -6.81352640
    -1.19686160           1.16109840          -6.12449680
    -1.43575680           1.03282960          -5.31387360
    -1.60598720           0.84018720          -4.39119360
    -1.72948800           0.60844400          -3.40270960
    -1.80196800           0.34713760          -2.34794640
    -1.85394320           0.04482240          -1.29652000
    -1.88636800          -0.25796880          -0.26464480
    -1.91068640          -0.56552880           0.70381200
    -1.92737600          -0.84352480           1.58500640
    -1.96456880          -1.08575840           2.36225120
    -2.04658480          -1.29747360           2.98309360
    -2.16198000          -1.47247280           3.48901760
    -2.30264640          -1.60455680           3.87048720
    -2.46381760          -1.69181840           4.10985920
    -2.66027440          -1.76858880           4.22286960
    -2.82096880          -1.79433840           4.23097600
    -2.94113120          -1.79052320           4.14180720
    -3.04508240          -1.77383440           3.95631760
    -3.07941440          -1.73902480           3.72362160
    -3.03411520          -1.74760800           3.44085680
    -2.91442880          -1.77145040           3.10897840
    -2.75468800          -1.84774400           2.74086000
    -2.54011120          -1.97696720           2.34127040
    -2.28643440          -2.14052240           1.93500480
    -2.01940560          -2.36749680           1.53923040
    -1.73187280          -2.60066960           1.15871440
    -1.43194160          -2.81047840           0.78439680
    -1.11007680          -2.97117200           0.45013440
    -0.77629120          -3.07464560           0.14448160
    -0.43296800          -3.08132160          -0.14972720
    -0.12111680          -2.99501440          -0.41484800
     0.13494480          -2.82907520          -0.67615520
     0.32281840          -2.58922560          -0.92840160
     0.39577520          -2.33459440          -1.17874160
     0.35715120          -2.03323360          -1.41763680
     0.18262880          -1.74665440          -1.66511520
    -0.11444080          -1.49536160          -1.89208960
    -0.50354000          -1.22404080          -2.01606720
    -1.01280240          -0.98562240          -2.10237520
    -1.56116480          -0.72526960          -2.10857360
    -2.09426880          -0.42152400          -2.00366960
    -2.64978400          -0.10967280          -1.86157200
    -3.17144400           0.20504000          -1.65844000
    -3.64923440           0.48637360          -1.40666960
    -4.08220320           0.70571920          -1.13630320
    -4.42361840           0.83780320          -0.87308880
    -4.67968000           0.89073200          -0.61416640
    -4.85849360           0.85163120          -0.35238240
    -4.94146320           0.75006480          -0.12731520
    -4.92048240           0.61893440           0.07867840
    -4.84848000           0.45871760           0.26702880
    -4.71067440           0.29993040           0.44107440
    -4.52184640           0.12445440           0.62227280
    -4.34017200          -0.03480880           0.80299360
    -4.13560880          -0.16736960           0.98180800
    -3.94344320          -0.29468560           1.13725680
    -3.75556960          -0.37717840           1.27649280
    -3.56769600          -0.44918080           1.38473520
    -3.39031200          -0.51307680           1.45006160
    -3.16333760          -0.53215040           1.45101520
    -2.91490560          -0.50544720           1.34706480
    -2.64072400          -0.40340400           1.16395920
    -2.34413120          -0.19693360           0.89120880
    -2.06804240           0.10585760           0.54550160
    -1.79767600           0.48780480           0.14448160
    -1.55830400           0.93221680          -0.32615680
    -1.38187440           1.38044320          -0.82731280
    -1.27553920           1.81102720          -1.30748720
    -1.23930000           2.21681600          -1.72996560
    -1.26028080           2.56919840          -2.10523600
    -1.32942160           2.86674480          -2.40230560
    -1.44624720           3.12089920          -2.61688240
    -1.58500640           3.35502640          -2.79521920
    -1.71089200           3.57627840          -2.92921040
    -1.81007360           3.80373040          -3.00931920
    -1.88636800           4.05263920          -3.03888320
    -1.96456880           4.31251520          -3.03268400
    -2.03847920           4.56428560          -2.96020480
    -2.11334240           4.78315360          -2.81047840
    -2.20155680           4.94384800          -2.60114640
    -2.31456720           5.04732160          -2.32887280
    -2.45475760           5.09405120          -1.98078160
    -2.60734560           5.07259360          -1.52349440
    -2.78186800           5.00345200          -1.00040400
    -2.93540960           4.87136880          -0.41008000
    -3.05700320           4.67395760           0.27799600
    -3.15094000           4.42600240           1.01232560
    -3.16810640           4.11319760           1.79100000
    -3.11374640           3.74412560           2.60257760
    -3.00979600           3.30257440           3.39603440
    -2.82669040           2.80046480           4.16564960
    -2.58255040           2.24828720           4.91046880
    -2.29835520           1.62315360           5.59186960
    -1.95074080           0.94127680           6.20794320
