SERVICIO GEOLOGICO COLOMBIANO- RED NACIONAL DE ACELEROGRAFOS DE COLOMBIA
SISMO DE CORDOBA (QUINDIO) 1999/01/25 18:19:17 ML=6.3
LATITUD DEL EVENTO(GRADOS): 4.439
LONGITUD DEL EVENTO(GRADOS): -75.698
PROFUNDIDAD DEL EVENTO (Km): 0
CODIGO DE LA ESTACION: CRIOS
Estacion:RIOSUCIO Geol:ROCA Topo:ESCARPADA
LATITUD DE LA ESTACION (GRADOS): 5.423
LONGITUD DE LA ESTACION (GRADOS): -75.719
DISTANCIA EPICENTRAL: 109.249 km
DISTANCIA HIPOCENTRAL: 109.249 km
INTERVALO DE MUESTREO (SEGUNDOS): 0.005
NUMERO DE DATOS: 20200
DURACION (SEGUNDOS): 101
UNIDADES: cm/s^2
TIPO DE EQUIPO: ETNA
ESCALA MAXIMA (G): 2
CORRECCION DE LINEA BASE: LINEA BASE NO REMOVIDA
TIPO DE DATOS: NO CORREGIDO
         EW                  VER                  NS
[...]
     1.66368480           3.23343280           2.06327440
     1.51777280           3.10420960           1.97887440
     1.38711920           2.95019120           1.90687200
     1.27172480           2.76470160           1.81055040
     1.15871440           2.59685520           1.75285360
     1.08098960           2.41041200           1.68323520
     1.01518640           2.21014000           1.59978880
     0.94747520           2.01511360           1.51109680
     0.89120880           1.78480160           1.42717360
     0.83065040           1.57690080           1.34134320
     0.77772160           1.38330480           1.23500800
     0.73480640           1.19686160           1.14774720
     0.70905680           1.04522720           1.05047200
     0.70190400           0.88834800           0.95987280
     0.70285760           0.75912480           0.87499600
     0.74529680           0.65231360           0.83017360
     0.77867520           0.52499760           0.81586800
     0.80156320           0.39100640           0.79250320
     0.83494160           0.25796880           0.82254400
     0.85830720           0.13065360           0.86736640
     0.90169920          -0.01144400           0.92601760
     0.93078640          -0.14400480           1.00135840
     0.96988640          -0.25320080           1.07192960
     1.03950480          -0.35476720           1.14584000
     1.11150720          -0.41723280           1.20353680
     1.19352320          -0.46682320           1.27506240
     1.29461280          -0.49829520           1.35231040
     1.41668320          -0.49161920           1.43146480
     1.54876720          -0.46586960           1.51300400
     1.71518320          -0.41389440           1.57928480
     1.90591840          -0.35572080           1.65224080
     2.10809680          -0.31375920           1.72710400
     2.28452720          -0.25987600           1.81722640
     2.44474400          -0.18644320           1.93977360
     2.60305440          -0.12397760           2.09283840
     2.71129600          -0.06294240           2.27737440
     2.81763040           0.01716640           2.48432160
     2.89869280           0.12445440           2.69603760
     2.98213920           0.24795520           2.90107760
     3.10802480           0.40054320           3.11708480
     3.24344640           0.56171440           3.32069360
     3.42416800           0.73862080           3.50952160
     3.62920800           0.94652160           3.70025600
     3.84712240           1.11961360           3.85808960
     4.07457360           1.30414960           3.96585440
     4.28915040           1.47247280           4.03499600
     4.49562080           1.61075600           4.06265280
     4.68540160           1.75476080           4.03404240
     4.83655920           1.88636800           3.97539120
     4.94718560           2.02655760           3.89242160
     5.03540000           2.11763360           3.78942480
     5.08260720           2.20203360           3.69119680
     5.08642160           2.28691120           3.60584240
     5.07020960           2.32315040           3.58200080
     5.01537360           2.35557520           3.57484800
     4.93383440           2.36749680           3.57055680
     4.85515600           2.37941760           3.60727280
     4.74643680           2.38895440           3.62873040
     4.62722800           2.38084800           3.64065200
     4.51803200           2.37607920           3.63540640
     4.38308720           2.35509840           3.59058400
     4.23240640           2.31885920           3.52048880
     4.06265280           2.29787840           3.41939920
     3.87859360           2.28548080           3.29589840
     3.68499760           2.25973120           3.15284720
     3.48377200           2.23636640           2.98166240
     3.26776480           2.20155680           2.79760400
     3.02219360           2.16579440           2.58493440
     2.78282160           2.12049520           2.34699280
     2.51817680           2.05469120           2.11000480
     2.24542640           1.99604000           1.84583680
     1.97601280           1.92928320           1.60026560
     1.68180480           1.88064560           1.38568880
     1.42145120           1.83486960           1.18303280
     1.16825120           1.76286720           1.01566320
     0.92554080           1.68275840           0.89550000
     0.72622320           1.60980240           0.82588160
     0.55027040           1.52635600           0.76532400
     0.38623840           1.42622000           0.74005120
     0.22268320           1.35898560           0.73576000
     0.09298320           1.29795040           0.73003760
     0.01239760           1.24359120           0.75817120
    -0.03767040           1.21116640           0.76150880
    -0.05388240           1.17921840           0.75149520
    -0.03719360           1.16491280           0.75817120
    -0.01478160           1.13010400           0.74529680
     0.02670320           1.09243360           0.72002400
     0.07200240           1.04761120           0.67949280
     0.11158000           0.97942320           0.63657760
     0.14925040           0.92601760           0.60558320
     0.18548960           0.84734000           0.56505200
     0.24366400           0.78678160           0.54264080
     0.26750560           0.75149520           0.52404400
     0.31089760           0.70095040           0.50878560
     0.39196000           0.64849840           0.51927600
     0.45108800           0.59747680           0.51260000
     0.53978000           0.56171440           0.52499760
     0.64373040           0.49924880           0.55885280
     0.76580080           0.44441200           0.58269520
     0.90217600           0.40769600           0.62322640
     1.04045840           0.36573440           0.66280400
     1.21498080           0.34236880           0.69475200
     1.40953040           0.31471280           0.73528320
     1.63698160           0.28896320           0.77915200
     1.88398400           0.25606160           0.80871600
     2.12669360           0.20790080           0.80966960
     2.37798720           0.15449520           0.76913840
     2.62355840           0.08344640           0.72193120
     2.87437440          -0.01001360           0.67043280
     3.13091280          -0.09298320           0.57697280
     3.35931760          -0.20551680           0.46586960
     3.58200080          -0.35429040           0.33474000
     3.78513360          -0.49829520           0.17833680
     3.95822560          -0.68569200          -0.01192080
     4.10652160          -0.88405600          -0.20647040
     4.20713440          -1.11818320          -0.40435760
     4.29296480          -1.34229680          -0.65994240
     4.34255600          -1.51014320          -0.91218960
     4.33731040          -1.72042880          -1.16443600
     4.30822400          -1.93452800          -1.44815440
     4.25720240          -2.13241600          -1.73091920
     4.15134400          -2.34985360          -2.03275680
     4.00066400          -2.57015200          -2.35939040
     3.86619600          -2.75230400          -2.69174560
     3.67403040          -2.94208560          -3.05080400
     3.43084320          -3.14855600          -3.42226000
     3.19719280          -3.30495840          -3.77130480
     2.91681280          -3.45182400          -4.14133040
     2.61735920          -3.60012080          -4.50420400
     2.33316400          -3.74650960          -4.82892960
     2.01559040          -3.88240800          -5.15127200
     1.67894400          -4.00924720          -5.45454000
     1.37042960          -4.13322480          -5.73015200
     1.04332000          -4.24385040          -5.97715360
     0.68807600          -4.35686080          -6.22463200
     0.33998480          -4.45079840          -6.43301040
     0.00286080          -4.52947600          -6.59894960
    -0.34427680          -4.56857680          -6.76107440
    -0.68807600          -4.57382240          -6.87503840
    -0.99802000          -4.57572960          -6.97088240
    -1.30796400          -4.53901280          -7.02095040
    -1.60312640          -4.49705120          -7.03859360
    -1.88064560          -4.44841360          -7.05480560
    -2.14767440          -4.37068960          -7.03477840
    -2.38800080          -4.28915040          -6.98947920
    -2.61974320          -4.18615360          -6.90889360
    -2.84385680          -4.06265280          -6.81686400
    -3.04698960          -3.93295280          -6.67667360
    -3.24153920          -3.77082800          -6.48355520
    -3.44705600          -3.59249120          -6.28948240
    -3.66735440          -3.41081600          -6.05678560
    -3.87620960          -3.21006800          -5.79261760
    -4.07314320          -2.99024560          -5.50985360
    -4.28390480          -2.75945680          -5.23138080
    -4.46891760          -2.54011120          -4.95958320
    -4.63581120          -2.30550800          -4.64582480
    -4.77695440          -2.08234800          -4.34160240
    -4.87709040          -1.88779840          -4.06169920
    -4.96101360          -1.70326240          -3.77702720
    -4.99534640          -1.55782720          -3.51190560
    -5.03015520          -1.45340000          -3.25584400
    -5.05542720          -1.37710560          -2.99692160
    -5.05685840          -1.31034880          -2.74467440
    -5.06591760          -1.28316880          -2.51770000
    -5.05924240          -1.25646560          -2.28643440
    -5.05065920          -1.21593440          -2.05850640
    -5.03206240          -1.21116640          -1.84106800
    -5.02634080          -1.20925920          -1.60503360
    -5.02872480          -1.22880960          -1.40142480
    -5.03253920          -1.25694240          -1.18064880
    -5.03921520          -1.28936800          -0.95844240
    -5.03015520          -1.34801840          -0.79059600
    -5.02634080          -1.43528000          -0.62561040
    -4.99010080          -1.54447520          -0.47922160
    -4.94194000          -1.67369840          -0.34427680
    -4.89997840          -1.84297600          -0.24366400
    -4.85038720          -2.02131280          -0.16975440
    -4.81891600          -2.18820560          -0.08869200
    -4.76932560          -2.33221040          -0.04482240
    -4.73880800          -2.46429440          -0.01907360
    -4.74309920          -2.58207360           0.00667600
    -4.72497920          -2.67028800           0.00572240
    -4.73260880          -2.74038320           0.01335120
    -4.75549680          -2.79283520           0.05722080
    -4.76694080          -2.81763040           0.07629360
    -4.79412080          -2.81095520           0.10013600
    -4.81653200          -2.78806720           0.12588480
    -4.83751280          -2.73370720           0.11825600
    -4.84704960          -2.66742720           0.10633440
    -4.84228160          -2.60019280           0.09107600
    -4.83798960          -2.50291840           0.06961840
    -4.81462480          -2.41661040           0.02574960
    -4.77266320          -2.35843680           0.00858320
    -4.72879440          -2.30741520           0.00095360
    -4.68492480          -2.26593040          -0.02622640
    -4.62627440          -2.24876400          -0.02765680
    -4.54235040          -2.23779680          -0.01144400
    -4.44698320          -2.20727920           0.00858320
    -4.32205200          -2.16484080           0.01430480
    -4.14371520          -2.09999120           0.00333760
    -3.93962880          -2.02369680           0.00572240
    -3.71980640          -1.94835680           0.02002720
    -3.47375840          -1.87778480           0.03767040
    -3.19385520          -1.81388880           0.08630720
    -2.90584560          -1.75046960           0.14162080
    -2.61640560          -1.69658640           0.21171600
    -2.27975840          -1.62982960           0.31614320
    -1.92451440          -1.56021120           0.41818640
    -1.57260880          -1.45244560           0.52118320
    -1.18875520          -1.32656080           0.63371680
    -0.78773520          -1.21641120           0.74863440
    -0.35667440          -1.04904160           0.85639920
     0.11158000          -0.88739360           0.98180800
     0.59843040          -0.72050080           1.09958640
     1.12104400          -0.53167360           1.20639840
     1.66940720          -0.38480720           1.33466720
     2.23922720          -0.24175680           1.44529360
     2.82907520          -0.12779200           1.54018400
     3.41939920          -0.04577600           1.63650480
     3.98683520           0.03337840           1.71089200
     4.54473520           0.07724800           1.74808480
     5.06019600           0.10776480           1.77764880
     5.51557520           0.12826880           1.79004640
     5.94615920           0.13017680           1.78527840
     6.31237040           0.14305120           1.77764880
     6.62899040           0.12445440           1.73854800
     6.91604640           0.08630720           1.70373920
     7.17258480           0.05769760           1.67083760
     7.39860560           0.01144400           1.60217280
     7.55453120          -0.03194800           1.52540240
     7.66897200          -0.08392320           1.43671040
     7.73811360          -0.13399120           1.31702400
     7.74860400          -0.15544880           1.18637120
     7.70425760          -0.16593920           1.04904160
     7.59267840          -0.17213840           0.90885200
     7.42387760          -0.14209760           0.77962880
     7.20882400          -0.09727440           0.65851200
     6.96134560          -0.06198880           0.53453440
     6.66666000          -0.01764320           0.41961680
     6.35290160           0.01335120           0.31280480
     6.01244000           0.06151200           0.17929040
     5.63669200           0.09965920           0.01287440
     5.26762000           0.12445440          -0.17786000
     4.85992400           0.16260160          -0.39005280
     4.41980400           0.16593920          -0.62847120
     3.99446480           0.17881360          -0.86498240
     3.56960320           0.17690640          -1.09148000
     3.13043600           0.15783280          -1.33562080
     2.70414320           0.16069440          -1.54399840
     2.31170640           0.14781920          -1.72424320
     1.93357440           0.16593920          -1.90639520
     1.59311280           0.22459040          -2.06422800
     1.29222880           0.32329520          -2.19821920
     1.02233920           0.48112880          -2.30932240
     0.80776240           0.65565120          -2.40421280
     0.63514720           0.84352480          -2.46477120
     0.49304960           1.06430080          -2.50530240
     0.39243680           1.29985840          -2.51102480
     0.31089760           1.53112400          -2.47716880
     0.24509440           1.74140960          -2.41565680
     0.19121200           1.93071360          -2.30598480
     0.13923680           2.10094480          -2.19202080
     0.08535360           2.24399600          -2.05230720
     0.03099440           2.39801440          -1.90067280
    -0.02384160           2.54058800          -1.74427040
    -0.09727440           2.65836720          -1.57833120
    -0.14686560           2.77757680          -1.43146480
    -0.19979440           2.89630880          -1.25026720
    -0.26798240           3.02410160          -1.06811520
    -0.31900400           3.11183920          -0.87738000
    -0.40435760           3.18479520          -0.66757200
    -0.47636000           3.24821440          -0.45585600
    -0.54311760           3.28350080          -0.22983520
    -0.63276320           3.32832320          -0.01859680
    -0.71573280           3.34024400           0.19550320
    -0.79441040           3.35168800           0.41341760
    -0.85020080           3.38029840           0.63180960
    -0.90599040           3.38983520           0.81968320
    -0.93030960           3.41224640           0.98752960
    -0.93698480           3.40795520           1.16872800
    -0.93746160           3.40175600           1.32322320
    -0.90694400           3.42178320           1.48916240
    -0.89311600           3.38316000           1.64365760
    -0.84686240           3.32450880           1.75523760
    -0.77915200           3.23963200           1.87444720
    -0.72002400           3.10516320           1.94168080
    -0.62513360           2.96306640           1.98364240
    -0.51307680           2.78234480           2.00700720
    -0.38766880           2.57015200           1.97505920
    -0.26655200           2.32982640           1.92546880
    -0.16260160           2.09665280           1.82437920
    -0.07390960           1.86491040           1.73091920
     0.01192080           1.63364400           1.62363040
     0.11014960           1.43766400           1.48248640
     0.18882720           1.23977680           1.39188800
     0.27847280           1.06191600           1.29842720
     0.40483440           0.90312960           1.20687520
     0.54216400           0.74291200           1.12342800
     0.69332160           0.61178240           1.04570400
     0.85783040           0.49304960           0.99658960
     1.03139840           0.34570720           0.94413760
     1.21736560           0.21791440           0.89645360
     1.41716000           0.09489040           0.85258480
     1.63030640          -0.04673040           0.80156320
     1.84917440          -0.17452240           0.76246240
     2.06565840          -0.30469920           0.71620960
     2.28261920          -0.44918080           0.64230000
     2.47240080          -0.62084160           0.54359440
     2.63834000          -0.78392000           0.40292720
     2.78759040          -0.94175360           0.25606160
     2.90155440          -1.08623520           0.08153920
     2.99167600          -1.22594800          -0.12540800
     3.03268400          -1.35850880          -0.31185120
     3.03697600          -1.48010240          -0.52022960
     3.00359760          -1.62553760          -0.68092320
     2.88820240          -1.75333040          -0.78344320
     2.73370720          -1.89590480          -0.84924720
     2.53963440          -2.02846560          -0.84304800
     2.28548080          -2.10714320          -0.81586800
     1.99222560          -2.15101280          -0.71668640
     1.66797600          -2.15005840          -0.58746320
     1.32322320          -2.09903680          -0.45013440
     0.96273440          -1.98316560          -0.26941280
     0.61607360          -1.82485600          -0.09679760
     0.31137440          -1.62601440           0.08964560
     0.03433200          -1.38759600           0.26082960
    -0.23841840          -1.14917760           0.43821360
    -0.46205520          -0.90646720           0.63562400
    -0.62942480          -0.67758560           0.80060960
    -0.75960160          -0.45919440           0.95748880
    -0.85639920          -0.24271040           1.09148000
    -0.94842880          -0.05006800           1.20067600
